{"type":"FeatureCollection","name":"kyc_cleaned_settlements","crs":{"type":"name","properties":{"name":"urn:ogc:def:crs:OGC:1.3:CRS84"}},"features":[{"type":"Feature","properties":{"Country":"South Africa","City":"Cape Town","Settlement":"KENSITE","Establishe":"1991","Last_Updat":"28-08-2018","Population":"288","Structures":"100","url":"https://sdinet.org/settlement/1810/2973568","pop":288.0,"kyc_year":2018.0},"geometry":{"type":"Polygon","coordinates":[[[18.590571,-34.008275999999995],[18.591079,-34.008228],[18.591066,-34.008450999999994],[18.591057,-34.008599],[18.590673999999996,-34.008622],[18.590608,-34.008624],[18.590571,-34.008275999999995]]]}},{"type":"Feature","properties":{"Country":"South Africa","City":"Cape Town","Settlement":"KUKU TOWN","Establishe":"1985","Last_Updat":"21-08-2018","Population":"235","Structures":"21","url":"https://sdinet.org/settlement/1810/1090230","pop":235.0,"kyc_year":2018.0},"geometry":{"type":"Polygon","coordinates":[[[18.499094,-33.912251],[18.49902,-33.912131],[18.499257,-33.91192399999999],[18.499435,-33.911904],[18.499504,-33.912188],[18.499337,-33.912211],[18.499169,-33.912238],[18.499094,-33.912251]]]}},{"type":"Feature","properties":{"Country":"South Africa","City":"Cape Town","Settlement":"LINDELANI PARK","Establishe":"1992","Last_Updat":"21-08-2018","Population":"1760","Structures":"445","url":"https://sdinet.org/settlement/1810/82180","pop":1760.0,"kyc_year":2018.0},"geometry":{"type":"Polygon","coordinates":[[[18.66388457800366,-34.02843538714853],[18.664445565586277,-34.028311728595384],[18.664515736695193,-34.0274483122231],[18.66486178217991,-34.027370717166434],[18.66459033657543,-34.028453483522185],[18.66469891481711,-34.02885763586671],[18.66611948014736,-34.02877921824762],[18.665965660971438,-34.02826045553678],[18.665925484163097,-34.02763808580079],[18.666092335586995,-34.02763613064645],[18.666035787936494,-34.027895158046015],[18.666034262903622,-34.02828443173712],[18.666179597439452,-34.028628306879796],[18.666169562746916,-34.02884963286522],[18.665398980246717,-34.028977298086836],[18.66431615886182,-34.029241498337626],[18.66412284692325,-34.02926782033563],[18.664005424447794,-34.028996396964494],[18.66388457800366,-34.02843538714853]]]}},{"type":"Feature","properties":{"Country":"South Africa","City":"Cape Town","Settlement":"LOTUS","Establishe":"2003","Last_Updat":"28-08-2018","Population":"10500","Structures":"1599","url":"https://sdinet.org/settlement/1810/2965100","pop":10500.0,"kyc_year":2018.0},"geometry":{"type":"Polygon","coordinates":[[[18.55994,-33.998558],[18.559679,-33.997662000000005],[18.559708,-33.996667],[18.559955,-33.995552],[18.560142,-33.994517],[18.560299,-33.99449700000001],[18.560372,-33.994337],[18.561120999999996,-33.994339],[18.561326999999995,-33.994129],[18.561652,-33.994331],[18.561542,-33.994512],[18.561819,-33.994744000000004],[18.562,-33.994674],[18.562301,-33.994876],[18.562071,-33.995067],[18.561681,-33.995608],[18.56145,-33.995988999999994],[18.561201,-33.997386],[18.561064,-33.99829100000001],[18.560689,-33.998501],[18.560266,-33.998569],[18.55994,-33.998558]]]}},{"type":"Feature","properties":{"Country":"South Africa","City":"Cape Town","Settlement":"LWAZI PARK","Establishe":"1994","Last_Updat":"14-12-2017","Population":"320","Structures":"38","url":"https://sdinet.org/settlement/1810/4542790","pop":320.0,"kyc_year":2017.0},"geometry":{"type":"Polygon","coordinates":[[[18.575734098050305,-33.97672120702071],[18.575704354787717,-33.97680448815595],[18.57568056017766,-33.97689371794365],[18.575580999999996,-33.976871999999965],[18.575031000000138,-33.97663799999998],[18.575380000000052,-33.97597400000001],[18.575724999999977,-33.97598199999993],[18.5757340980503,-33.976144187726845],[18.57575194400789,-33.976304801344725],[18.575775738617892,-33.97638808247984],[18.57576384131289,-33.97653679879272],[18.575734098050305,-33.97672120702071]]]}},{"type":"Feature","properties":{"Country":"South Africa","City":"Cape Town","Settlement":"MARIKANA","Establishe":"2012","Last_Updat":"21-08-2018","Population":"785","Structures":"157","url":"https://sdinet.org/settlement/1810/455528","pop":785.0,"kyc_year":2018.0},"geometry":{"type":"Polygon","coordinates":[[[18.509404,-33.872803000000005],[18.509569,-33.872574],[18.509681,-33.872522],[18.509862,-33.872587],[18.51023,-33.872789],[18.510887,-33.873129],[18.511186,-33.87331],[18.511164,-33.873371],[18.511003,-33.873571],[18.510894,-33.87365799999999],[18.509946,-33.873165],[18.509432,-33.872881],[18.509404,-33.872803000000005]]]}},{"type":"Feature","properties":{"Country":"South Africa","City":"Cape Town","Settlement":"MASILUNGE AB","Establishe":"1991","Last_Updat":"21-08-2018","Population":"392","Structures":"64","url":"https://sdinet.org/settlement/1810/1072479","pop":392.0,"kyc_year":2018.0},"geometry":{"type":"Polygon","coordinates":[[[18.564612,-33.972974],[18.564584,-33.973043],[18.564576,-33.973043000000004],[18.564498,-33.973114],[18.564466,-33.973186],[18.564323,-33.973443],[18.564173,-33.973704],[18.563868,-33.973524000000005],[18.563904,-33.973455],[18.5641,-33.973518],[18.564183,-33.973414],[18.564037999999996,-33.973338],[18.564239,-33.973051],[18.564275,-33.973012],[18.564236,-33.972963],[18.564342,-33.97282],[18.564444,-33.972843],[18.564476,-33.97278399999999],[18.564398,-33.97273799999999],[18.564473,-33.972631],[18.564605999999998,-33.972667],[18.564634,-33.972589],[18.564797999999996,-33.972645],[18.564612,-33.972974]]]}},{"type":"Feature","properties":{"Country":"South Africa","City":"Cape Town","Settlement":"A.T MICHAEL MAPHONGWANA","Establishe":"1992","Last_Updat":"21-08-2018","Population":"297","Structures":"100","url":"https://sdinet.org/settlement/1810/455422","pop":297.0,"kyc_year":2018.0},"geometry":{"type":"Polygon","coordinates":[[[18.640206,-34.012956],[18.640047999999997,-34.012895],[18.640818,-34.011728],[18.640937,-34.011779],[18.640375,-34.012681],[18.640206,-34.012956]]]}},{"type":"Feature","properties":{"Country":"South Africa","City":"Cape Town","Settlement":"AT 5","Establishe":"1987","Last_Updat":"21-08-2018","Population":"336","Structures":"42","url":"https://sdinet.org/settlement/1810/1112464","pop":336.0,"kyc_year":2018.0},"geometry":{"type":"Polygon","coordinates":[[[18.638226,-34.005565000000004],[18.638264,-34.005552],[18.639246,-34.00592],[18.639103,-34.006118],[18.638913,-34.006115],[18.63873,-34.00612999999999],[18.638608,-34.006139],[18.638646999999995,-34.006365],[18.638217,-34.006401],[18.638204,-34.006234000000006],[18.638189999999998,-34.006147],[18.638166,-34.005896],[18.638166,-34.00578099999999],[18.638226,-34.005565000000004]]]}},{"type":"Feature","properties":{"Country":"South Africa","City":"Cape Town","Settlement":"AT 6","Establishe":"1985","Last_Updat":"21-08-2018","Population":"336","Structures":"112","url":"https://sdinet.org/settlement/1810/1113350","pop":336.0,"kyc_year":2018.0},"geometry":{"type":"Polygon","coordinates":[[[18.640869,-34.00707],[18.640812,-34.006939],[18.640754,-34.00681000000001],[18.640695999999995,-34.00674],[18.640696,-34.006708],[18.640799,-34.006544],[18.641374,-34.006763],[18.64123,-34.006938],[18.640869,-34.00707]]]}},{"type":"Feature","properties":{"Country":"South Africa","City":"Cape Town","Settlement":"BALA ELIBOMVU","Establishe":"2007","Last_Updat":"21-08-2018","Population":"105","Structures":"36","url":"https://sdinet.org/settlement/1810/456794","pop":105.0,"kyc_year":2018.0},"geometry":{"type":"Polygon","coordinates":[[[18.667382,-33.98944100000001],[18.667089,-33.989323],[18.667223,-33.989071],[18.667526,-33.989199],[18.667382,-33.98944100000001]]]}},{"type":"Feature","properties":{"Country":"South Africa","City":"Cape Town","Settlement":"BARDALE","Establishe":"2007","Last_Updat":"21-08-2018","Population":"4500","Structures":"1500","url":"https://sdinet.org/settlement/1810/456135","pop":4500.0,"kyc_year":2018.0},"geometry":{"type":"Polygon","coordinates":[[[18.6705731882416,-33.9864041361916],[18.6704460866375,-33.985852882189995],[18.6731541750517,-33.9853598513769],[18.6733878854858,-33.9858670584896],[18.6737400906872,-33.986200441181296],[18.6741381733662,-33.9864642878232],[18.6744774845728,-33.9871902396284],[18.6731873428202,-33.9876174180544],[18.672773677032296,-33.98745167804459],[18.6721434730835,-33.987256864365094],[18.671699721881,-33.9870087193903],[18.6705731882416,-33.9864041361916]]]}},{"type":"Feature","properties":{"Country":"South Africa","City":"Cape Town","Settlement":"BETTER LIFE","Establishe":"2007","Last_Updat":"28-08-2018","Population":"66","Structures":"61","url":"https://sdinet.org/settlement/1810/1113794","pop":66.0,"kyc_year":2018.0},"geometry":{"type":"Polygon","coordinates":[[[18.538535,-33.81821],[18.53825,-33.817934],[18.538817,-33.817583],[18.539021,-33.817823],[18.538866,-33.81793],[18.538884,-33.817988],[18.538535,-33.81821]]]}},{"type":"Feature","properties":{"Country":"South Africa","City":"Cape Town","Settlement":"CONSTANTIA","Establishe":"2008","Last_Updat":"14-08-2018","Population":"1800","Structures":"134","url":"https://sdinet.org/settlement/1810/453175","pop":1800.0,"kyc_year":2018.0},"geometry":{"type":"Polygon","coordinates":[[[18.669326,-33.992586],[18.66933,-33.992696],[18.668981,-33.992763],[18.668913,-33.9926],[18.668932,-33.99251700000001],[18.669103999999997,-33.992445999999994],[18.669649,-33.992349000000004],[18.670482999999997,-33.99219599999999],[18.670606,-33.992284],[18.670694999999995,-33.992514],[18.670313999999998,-33.992611],[18.670264999999997,-33.99245599999999],[18.670219,-33.992452],[18.670188,-33.992354],[18.670052,-33.992384],[18.66938,-33.992507],[18.669398,-33.99255599999999],[18.66933,-33.992586],[18.669326,-33.992586]]]}},{"type":"Feature","properties":{"Country":"South Africa","City":"Cape Town","Settlement":"DONTSA PHILLIPI","Establishe":"2002","Last_Updat":"28-08-2018","Population":"45","Structures":"15","url":"https://sdinet.org/settlement/1810/2973369","pop":45.0,"kyc_year":2018.0},"geometry":{"type":"Polygon","coordinates":[[[18.575316,-34.004366],[18.575009,-34.004391],[18.575004,-34.004346],[18.574966,-34.00435],[18.574956999999998,-34.00427299999999],[18.574986,-34.004244],[18.575028,-34.004239999999996],[18.575026,-34.004226],[18.575269,-34.004205],[18.575311,-34.004237],[18.575327,-34.004322],[18.575311,-34.004323],[18.575316,-34.004366]]]}},{"type":"Feature","properties":{"Country":"South Africa","City":"Cape Town","Settlement":"DUENS","Establishe":"2006","Last_Updat":"17-01-2018","Population":"240","Structures":"16","url":"https://sdinet.org/settlement/1810/4534577","pop":240.0,"kyc_year":2018.0},"geometry":{"type":"Polygon","coordinates":[[[18.56487270275232,-33.96703250458711],[18.56490112110089,-33.96681549174303],[18.56490542691131,-33.9666992348624],[18.56496100000004,-33.96669899999995],[18.56504700000005,-33.96713],[18.564886999999942,-33.967210999999956],[18.56487270275232,-33.96703250458711]]]}},{"type":"Feature","properties":{"Country":"South Africa","City":"Cape Town","Settlement":"EKUPHUMLENI","Establishe":"2007","Last_Updat":"28-08-2018","Population":"2100","Structures":"316","url":"https://sdinet.org/settlement/1810/1127026","pop":2100.0,"kyc_year":2018.0},"geometry":{"type":"Polygon","coordinates":[[[18.540725,-33.812873],[18.540735,-33.812862],[18.540875,-33.812711],[18.540895,-33.81268500000001],[18.540973,-33.812728],[18.541039,-33.812768000000005],[18.541121,-33.812855],[18.54121,-33.812992],[18.54132,-33.813193],[18.541359,-33.813262],[18.5413,-33.813327],[18.541167999999995,-33.813383],[18.540904,-33.81348100000001],[18.540895,-33.813461],[18.540718999999996,-33.813157],[18.540642,-33.813073],[18.540578,-33.813032],[18.540725,-33.812873]]]}},{"type":"Feature","properties":{"Country":"South Africa","City":"Cape Town","Settlement":"ENKANINI","Establishe":"2003","Last_Updat":"28-08-2018","Population":"390","Structures":"135","url":"https://sdinet.org/settlement/1810/1125416","pop":390.0,"kyc_year":2018.0},"geometry":{"type":"Polygon","coordinates":[[[18.541004999999995,-33.818352],[18.540931,-33.818324],[18.540858,-33.818295],[18.540784,-33.818267],[18.540711,-33.818237999999994],[18.540564,-33.818180999999996],[18.540521,-33.818165],[18.540713,-33.81781800000001],[18.540755999999995,-33.817837999999995],[18.540902,-33.817895],[18.540976,-33.817923],[18.541049,-33.817952],[18.541123,-33.81798],[18.541196,-33.818009],[18.541343,-33.818066],[18.541364999999995,-33.81808],[18.541183,-33.818426],[18.541152,-33.818409],[18.541004999999995,-33.818352]]]}},{"type":"Feature","properties":{"Country":"South Africa","City":"Cape Town","Settlement":"EZITAXIN","Establishe":"2004","Last_Updat":"17-01-2018","Population":"153","Structures":"53","url":"https://sdinet.org/settlement/1810/4480682","pop":153.0,"kyc_year":2018.0},"geometry":{"type":"Polygon","coordinates":[[[18.573686,-34.002478999999994],[18.573681,-34.002483],[18.573192,-34.002488],[18.57316,-34.002292],[18.57367,-34.002261],[18.575183,-34.002137],[18.575279,-34.002386],[18.573895,-34.00247],[18.573867999999997,-34.002407999999996],[18.573686,-34.002412],[18.573686,-34.002478999999994]]]}},{"type":"Feature","properties":{"Country":"South Africa","City":"Cape Town","Settlement":"FLAMINGO","Establishe":"1994","Last_Updat":"21-08-2018","Population":"294","Structures":"104","url":"https://sdinet.org/settlement/1810/63982","pop":294.0,"kyc_year":2018.0},"geometry":{"type":"Polygon","coordinates":[[[18.507935235434104,-33.99194937587532],[18.508065137023323,-33.991207105113915],[18.508148377670977,-33.991192699865394],[18.508583326019387,-33.991238728217695],[18.50856839167659,-33.991381550026574],[18.50855343898911,-33.99152002597498],[18.508515045399122,-33.99173504649235],[18.508437488441132,-33.99199117579218],[18.507935235434104,-33.99194937587532]]]}},{"type":"Feature","properties":{"Country":"South Africa","City":"Cape Town","Settlement":"GARDEN CITY","Establishe":"1994","Last_Updat":"14-08-2018","Population":"2160","Structures":"720","url":"https://sdinet.org/settlement/1810/455828","pop":2160.0,"kyc_year":2018.0},"geometry":{"type":"Polygon","coordinates":[[[18.682909,-34.000185],[18.684517999999997,-33.999416],[18.684543,-33.9994],[18.684382999999997,-33.999182000000005],[18.684704,-33.999028],[18.684784,-33.999149],[18.684794,-33.999145999999996],[18.684805,-33.999166],[18.685140999999998,-33.99949],[18.685362,-33.999766],[18.685487999999996,-34.000089],[18.685614,-34.000544999999995],[18.685645,-34.0008],[18.685695,-34.00098],[18.685822999999996,-34.00121699999999],[18.685847999999996,-34.001292],[18.685868,-34.00135399999999],[18.685558,-34.001411000000004],[18.685465999999998,-34.001427],[18.685272,-34.001473],[18.685167,-34.00153],[18.684953,-34.001626],[18.684798,-34.001716],[18.684671,-34.001773],[18.684611999999998,-34.0018],[18.684504,-34.001849],[18.683821,-34.002038999999996],[18.6835,-34.001254],[18.683286999999996,-34.000742],[18.682909,-34.000185]]]}},{"type":"Feature","properties":{"Country":"South Africa","City":"Cape Town","Settlement":"GRAVE YARD","Establishe":"1991","Last_Updat":"28-08-2018","Population":"400","Structures":"109","url":"https://sdinet.org/settlement/1810/1985403","pop":400.0,"kyc_year":2018.0},"geometry":{"type":"Polygon","coordinates":[[[18.592365,-34.008033],[18.592525999999996,-34.008007],[18.592762,-34.00799299999999],[18.592944,-34.007976],[18.593190999999997,-34.00800199999999],[18.593265999999996,-34.00805999999999],[18.593287,-34.00814],[18.593309,-34.0083],[18.593325,-34.008388999999994],[18.59332,-34.008487],[18.593319,-34.008668],[18.593130999999996,-34.008703000000004],[18.593036,-34.008808],[18.592984,-34.008789],[18.592593,-34.008819],[18.592537,-34.00885],[18.592516999999997,-34.008995],[18.592483,-34.009175],[18.591965,-34.009213],[18.591966,-34.00910700000001],[18.591957,-34.008883],[18.592316,-34.008802],[18.592273999999996,-34.008633],[18.592133,-34.008641],[18.591874,-34.008691],[18.591911,-34.008848],[18.591863,-34.008883],[18.591548,-34.008941],[18.591571,-34.009062],[18.591212999999996,-34.009116],[18.591176,-34.008865],[18.59113,-34.008641],[18.591158,-34.008474],[18.591168999999997,-34.008389],[18.591174,-34.008238],[18.591201,-34.008149],[18.591244,-34.008078],[18.591362,-34.008002],[18.591619,-34.008024],[18.591881999999995,-34.00800699999999],[18.59215,-34.008033],[18.592365,-34.008033]]]}},{"type":"Feature","properties":{"Country":"South Africa","City":"Cape Town","Settlement":"GREEN PARK","Establishe":"1994","Last_Updat":"20-08-2018","Population":"600","Structures":"214","url":"https://sdinet.org/settlement/1810/63976","pop":600.0,"kyc_year":2018.0},"geometry":{"type":"Polygon","coordinates":[[[18.647885999999996,-33.993745],[18.647529,-33.993918],[18.647215999999997,-33.993848],[18.646861,-33.993655],[18.646422,-33.993532],[18.64594,-33.993722],[18.6455,-33.993756],[18.644936,-33.993615],[18.644833,-33.993318],[18.644792,-33.992935],[18.644627,-33.992551],[18.644482,-33.992132],[18.644818,-33.991715],[18.64484,-33.99154099999999],[18.644674,-33.991261],[18.644299,-33.990772],[18.646442,-33.988738999999995],[18.647129999999997,-33.989334],[18.647421999999995,-33.989492],[18.647946,-33.989301],[18.648697,-33.989861],[18.6488,-33.990123],[18.648609,-33.99082],[18.648356,-33.991411],[18.648289999999996,-33.991986],[18.647912999999996,-33.992281],[18.647827,-33.992630000000005],[18.648012999999995,-33.993309999999994],[18.647885999999996,-33.993745]]]}},{"type":"Feature","properties":{"Country":"South Africa","City":"Cape Town","Settlement":"GXAGXA","Establishe":"1990","Last_Updat":"28-08-2018","Population":"900","Structures":"305","url":"https://sdinet.org/settlement/1810/1981946","pop":900.0,"kyc_year":2018.0},"geometry":{"type":"Polygon","coordinates":[[[18.567012999999974,-33.967352000000005],[18.56762400000008,-33.96754800000002],[18.567538261233096,-33.96772491950219],[18.567064028652965,-33.96754172283101],[18.566575646232934,-33.968790953652956],[18.56696068605254,-33.968916729427804],[18.566851999999983,-33.96914099999998],[18.566283,-33.96894500000002],[18.566628139678983,-33.96816225856264],[18.566338930504685,-33.968034868807365],[18.566586824082492,-33.96796945244648],[18.566666012308982,-33.967680243272184],[18.56639360825693,-33.96722326773699],[18.566848489525967,-33.967050180428146],[18.567012999999974,-33.967352000000005]]]}},{"type":"Feature","properties":{"Country":"South Africa","City":"Cape Town","Settlement":"K2","Establishe":"1985","Last_Updat":"21-08-2018","Population":"1855","Structures":"271","url":"https://sdinet.org/settlement/1810/455529","pop":1855.0,"kyc_year":2018.0},"geometry":{"type":"Polygon","coordinates":[[[18.672331,-34.028391],[18.672951,-34.02809700000001],[18.673347,-34.027907000000006],[18.673513999999997,-34.027831],[18.673706999999997,-34.028113],[18.673895,-34.0284],[18.674055,-34.028625],[18.674192,-34.028835],[18.673882,-34.028944],[18.673479999999998,-34.029086],[18.673119,-34.029185],[18.672964,-34.029256],[18.672878,-34.029275000000005],[18.672588,-34.028792],[18.672331,-34.028391]]]}},{"type":"Feature","properties":{"Country":"South Africa","City":"Cape Town","Settlement":"KANANA","Establishe":"1989","Last_Updat":"28-08-2018","Population":"9000","Structures":"3050","url":"https://sdinet.org/settlement/1810/2326446","pop":9000.0,"kyc_year":2018.0},"geometry":{"type":"Polygon","coordinates":[[[18.56842,-33.965988],[18.568609,-33.965456],[18.568693,-33.964982],[18.568776,-33.964498],[18.568777,-33.96435199999999],[18.56894,-33.964382],[18.568915,-33.964711],[18.569066,-33.964818],[18.569041,-33.965109],[18.569297,-33.965003],[18.569447,-33.965168],[18.569446,-33.965410999999996],[18.569272,-33.965438999999996],[18.569039,-33.965487],[18.569096,-33.965681],[18.569212,-33.965807],[18.569374,-33.965808],[18.569675,-33.966119],[18.569966,-33.96611],[18.570326,-33.966121],[18.570628999999997,-33.966073],[18.57078,-33.966152],[18.570986,-33.966656],[18.571101,-33.966918],[18.571495,-33.96728800000001],[18.571841999999997,-33.967589],[18.572353,-33.967775],[18.572551,-33.96760100000001],[18.572656,-33.967611],[18.572875,-33.967932],[18.573141,-33.96820399999999],[18.573407,-33.968563],[18.573708,-33.968845],[18.573997,-33.969156],[18.574333,-33.96951599999999],[18.574667,-33.96997199999999],[18.574968,-33.970274],[18.575373,-33.970721],[18.575766,-33.97119699999999],[18.576031999999998,-33.971479],[18.576425,-33.971925999999996],[18.576703,-33.972237],[18.577085,-33.97261600000001],[18.577374,-33.972966],[18.576918,-33.973448999999995],[18.576462,-33.973805],[18.575867,-33.974259],[18.575474,-33.97385],[18.575068,-33.97352],[18.574479,-33.97281],[18.573912,-33.97214],[18.573161,-33.971256],[18.572258999999995,-33.970264],[18.572074,-33.970099000000005],[18.571864,-33.970253],[18.571724,-33.970195],[18.570846,-33.969174],[18.57058,-33.968873],[18.569805,-33.968115],[18.569179,-33.967628],[18.568519,-33.967171],[18.567962,-33.966878],[18.56842,-33.965988]]]}}]}