{
"type": "FeatureCollection",
"name": "Training_polygons",
"crs": { "type": "name", "properties": { "name": "urn:ogc:def:crs:OGC:1.3:CRS84" } },
"features": [
{ "type": "Feature", "properties": { "fid": 16, "class": 1.0 }, "geometry": { "type": "MultiPolygon", "coordinates": [ [ [ [ 39.234181333743059, -6.856200485370766 ], [ 39.234193923523193, -6.856187895590631 ], [ 39.234200218413264, -6.856175305810496 ], [ 39.234206513303327, -6.85616271603036 ], [ 39.234219103083461, -6.856156421140292 ], [ 39.234231692863602, -6.856143831360156 ], [ 39.234244282643736, -6.85613124158002 ], [ 39.234263167313941, -6.856118651799886 ], [ 39.234282051984145, -6.85610606201975 ], [ 39.234294641764279, -6.856093472239614 ], [ 39.234307231544413, -6.856087177349546 ], [ 39.234319821324547, -6.85607458756941 ], [ 39.234332411104681, -6.856068292679343 ], [ 39.234345000884822, -6.856068292679343 ], [ 39.234357590664956, -6.856061997789275 ], [ 39.23437018044509, -6.856055702899208 ], [ 39.234382770225224, -6.856055702899208 ], [ 39.234407949785499, -6.856055702899208 ], [ 39.234433129345767, -6.856055702899208 ], [ 39.234458308906042, -6.856055702899208 ], [ 39.23448348846631, -6.856055702899208 ], [ 39.234508668026585, -6.856055702899208 ], [ 39.234521257806719, -6.856055702899208 ], [ 39.234540142476924, -6.856055702899208 ], [ 39.234565322037191, -6.856061997789275 ], [ 39.234590501597467, -6.85607458756941 ], [ 39.2346030913776, -6.856080882459478 ], [ 39.234615681157734, -6.856087177349546 ], [ 39.234634565827939, -6.856093472239614 ], [ 39.234659745388207, -6.85610606201975 ], [ 39.234678630058411, -6.856118651799886 ], [ 39.234697514728616, -6.85613124158002 ], [ 39.23471010450875, -6.856137536470088 ], [ 39.234728989178954, -6.856143831360156 ], [ 39.234741578959088, -6.856150126250224 ], [ 39.234760463629293, -6.856156421140292 ], [ 39.234785643189568, -6.856169010920428 ], [ 39.234798232969702, -6.856175305810496 ], [ 39.234810822749836, -6.856181600700563 ], [ 39.23482970742004, -6.856194190480698 ], [ 39.234873771650513, -6.856213075150902 ], [ 39.234905246100851, -6.856231959821105 ], [ 39.234917835880992, -6.856238254711173 ], [ 39.234924130771056, -6.856250844491309 ], [ 39.23494301544126, -6.85627602405158 ], [ 39.234949310331331, -6.856294908721783 ], [ 39.234949310331331, -6.856313793391987 ], [ 39.234955605221394, -6.85633267806219 ], [ 39.234968195001528, -6.856338972952257 ], [ 39.234974489891599, -6.856357857622461 ], [ 39.234980784781669, -6.856376742292665 ], [ 39.234987079671733, -6.856401921852935 ], [ 39.234993374561803, -6.856433396303275 ], [ 39.234999669451867, -6.856464870753613 ], [ 39.235005964341937, -6.856490050313885 ], [ 39.235012259232008, -6.856515229874156 ], [ 39.235018554122071, -6.856552999214562 ], [ 39.235024849012142, -6.856571883884766 ], [ 39.235024849012142, -6.85659076855497 ], [ 39.235031143902212, -6.85661594811524 ], [ 39.235031143902212, -6.856634832785444 ], [ 39.235037438792276, -6.856666307235782 ], [ 39.235037438792276, -6.856691486796054 ], [ 39.235043733682346, -6.856722961246393 ], [ 39.23505002857241, -6.856748140806664 ], [ 39.23505632346248, -6.856779615257003 ], [ 39.23505632346248, -6.856811089707342 ], [ 39.235062618352551, -6.856836269267613 ], [ 39.235068913242614, -6.856867743717952 ], [ 39.235068913242614, -6.856905513058359 ], [ 39.235081503022748, -6.85693069261863 ], [ 39.235081503022748, -6.856943282398765 ], [ 39.235081503022748, -6.856962167068969 ], [ 39.235081503022748, -6.856993641519308 ], [ 39.235081503022748, -6.857006231299443 ], [ 39.235081503022748, -6.857018821079579 ], [ 39.235087797912819, -6.857037705749782 ], [ 39.235094092802889, -6.857056590419986 ], [ 39.235106682583023, -6.857062885310054 ], [ 39.235112977473094, -6.857075475090189 ], [ 39.235125567253228, -6.85710065465046 ], [ 39.235138157033361, -6.857113244430596 ], [ 39.235144451923432, -6.857125834210732 ], [ 39.235157041703566, -6.857138423990867 ], [ 39.2351696314837, -6.857144718880934 ], [ 39.23517592637377, -6.857163603551138 ], [ 39.235194811043968, -6.857176193331274 ], [ 39.235219990604243, -6.857201372891545 ], [ 39.235238875274447, -6.85721396267168 ], [ 39.235251465054581, -6.857232847341884 ], [ 39.235264054834715, -6.857245437122019 ], [ 39.23528293950492, -6.857251732012087 ], [ 39.235301824175124, -6.857264321792223 ], [ 39.235314413955258, -6.857270616682291 ], [ 39.235333298625463, -6.857289501352493 ], [ 39.235339593515533, -6.857302091132629 ], [ 39.235358478185731, -6.857308386022697 ], [ 39.235377362855935, -6.857314680912765 ], [ 39.235383657746006, -6.857327270692901 ], [ 39.23540254241621, -6.857339860473036 ], [ 39.235427721976478, -6.857352450253171 ], [ 39.235446606646683, -6.857358745143239 ], [ 39.235471786206951, -6.857365040033307 ], [ 39.235496965767226, -6.857371334923375 ], [ 39.23551585043743, -6.857377629813443 ], [ 39.235528440217564, -6.857383924703511 ], [ 39.235547324887769, -6.857390219593579 ], [ 39.235566209557973, -6.857390219593579 ], [ 39.235591389118241, -6.857409104263782 ], [ 39.235635453348713, -6.857409104263782 ], [ 39.235660632908989, -6.857415399153849 ], [ 39.235692107359327, -6.857421694043917 ], [ 39.235736171589799, -6.857421694043917 ], [ 39.235761351150074, -6.857421694043917 ], [ 39.235792825600413, -6.857427988933985 ], [ 39.235811710270617, -6.857427988933985 ], [ 39.235843184720956, -6.857427988933985 ], [ 39.235880954061358, -6.857427988933985 ], [ 39.235899838731562, -6.857427988933985 ], [ 39.235925018291837, -6.857427988933985 ], [ 39.235956492742176, -6.857427988933985 ], [ 39.235981672302444, -6.857434283824053 ], [ 39.236013146752782, -6.857434283824053 ], [ 39.236050916093191, -6.857440578714121 ], [ 39.23608239054353, -6.857440578714121 ], [ 39.236101275213734, -6.857440578714121 ], [ 39.236126454774002, -6.857440578714121 ], [ 39.236151634334277, -6.857440578714121 ], [ 39.236176813894545, -6.857440578714121 ], [ 39.236208288344883, -6.857440578714121 ], [ 39.236220878125017, -6.857440578714121 ], [ 39.236239762795222, -6.857440578714121 ], [ 39.236258647465426, -6.857440578714121 ], [ 39.236290121915765, -6.857446873604188 ], [ 39.236309006585969, -6.857453168494256 ], [ 39.236321596366103, -6.857453168494256 ], [ 39.236340481036308, -6.857465758274392 ], [ 39.236365660596583, -6.85747205316446 ], [ 39.236397135046921, -6.85747205316446 ], [ 39.236416019717119, -6.857478348054527 ], [ 39.236434904387323, -6.857484642944595 ], [ 39.236447494167464, -6.857490937834663 ], [ 39.236460083947598, -6.857497232724731 ], [ 39.236472673727732, -6.857497232724731 ], [ 39.236485263507866, -6.857509822504866 ], [ 39.236497853288, -6.857522412285002 ], [ 39.236510443068141, -6.85752870717507 ], [ 39.236523032848275, -6.85752870717507 ], [ 39.236579686858882, -6.857516117394934 ], [ 39.236661520429763, -6.857478348054527 ], [ 39.236711879550306, -6.857459463384324 ], [ 39.236774828450983, -6.857434283824053 ], [ 39.236818892681463, -6.857427988933985 ], [ 39.236850367131801, -6.857402809373714 ], [ 39.236875546692069, -6.857390219593579 ], [ 39.236900726252344, -6.857377629813443 ], [ 39.236925905812612, -6.857371334923375 ], [ 39.236938495592746, -6.857365040033307 ], [ 39.236963675153021, -6.857365040033307 ], [ 39.236982559823225, -6.857365040033307 ], [ 39.237007739383493, -6.857365040033307 ], [ 39.237026624053698, -6.857365040033307 ], [ 39.237051803613966, -6.857371334923375 ], [ 39.23707068828417, -6.857377629813443 ], [ 39.237089572954375, -6.857383924703511 ], [ 39.237108457624579, -6.857396514483646 ], [ 39.237121047404713, -6.857396514483646 ], [ 39.237146226964988, -6.857396514483646 ], [ 39.237165111635186, -6.857409104263782 ], [ 39.237177701415327, -6.857409104263782 ], [ 39.237196586085531, -6.857415399153849 ], [ 39.237215470755729, -6.857415399153849 ], [ 39.237240650316004, -6.857415399153849 ], [ 39.237259534986208, -6.857421694043917 ], [ 39.237284714546476, -6.857427988933985 ], [ 39.237303599216681, -6.857434283824053 ], [ 39.237335073667019, -6.857440578714121 ], [ 39.237372843007428, -6.857459463384324 ], [ 39.237398022567696, -6.857465758274392 ], [ 39.237423202127971, -6.857484642944595 ], [ 39.237448381688239, -6.857490937834663 ], [ 39.237486151028648, -6.857516117394934 ], [ 39.237511330588916, -6.85752870717507 ], [ 39.23753021525912, -6.857541296955206 ], [ 39.237561689709459, -6.857560181625408 ], [ 39.237580574379663, -6.857579066295612 ], [ 39.237630933500206, -6.857610540745951 ], [ 39.237656113060474, -6.857648310086358 ], [ 39.237687587510813, -6.857673489646629 ], [ 39.237712767071088, -6.8576986692069 ], [ 39.237744241521426, -6.857717553877103 ], [ 39.237750536411497, -6.857736438547307 ], [ 39.237769421081694, -6.85775532321751 ], [ 39.237788305751899, -6.857767912997645 ], [ 39.237800895532033, -6.857774207887713 ], [ 39.237807190422103, -6.857786797667849 ], [ 39.237813485312174, -6.857805682338053 ], [ 39.237826075092308, -6.857818272118188 ], [ 39.237838664872442, -6.857824567008255 ], [ 39.237851254652576, -6.857837156788391 ], [ 39.237857549542646, -6.857849746568527 ], [ 39.237882729102914, -6.85786863123873 ], [ 39.237895318883055, -6.857874926128798 ], [ 39.237907908663189, -6.857881221018866 ], [ 39.237914203553252, -6.857900105689069 ], [ 39.237926793333394, -6.857906400579137 ], [ 39.237951972893661, -6.857912695469205 ], [ 39.237964562673795, -6.857918990359273 ], [ 39.237977152453936, -6.857918990359273 ], [ 39.238002332014204, -6.857918990359273 ], [ 39.238027511574479, -6.857918990359273 ], [ 39.23809675536522, -6.857912695469205 ], [ 39.238128229815558, -6.857900105689069 ], [ 39.238172294046038, -6.857893810799001 ], [ 39.23821006338644, -6.857887515908933 ], [ 39.238241537836778, -6.857881221018866 ], [ 39.238279307177187, -6.857862336348663 ], [ 39.23832337140766, -6.857856041458595 ], [ 39.238361140748069, -6.857837156788391 ], [ 39.238380025418273, -6.857830861898323 ], [ 39.238405204978541, -6.857824567008255 ], [ 39.23844297431895, -6.857818272118188 ], [ 39.238468153879218, -6.857811977228121 ], [ 39.238480743659359, -6.857805682338053 ], [ 39.238499628329564, -6.857799387447985 ], [ 39.238512218109697, -6.857793092557917 ], [ 39.238524807889831, -6.857793092557917 ], [ 39.238543692560036, -6.857786797667849 ], [ 39.23855628234017, -6.857786797667849 ], [ 39.238575167010374, -6.857786797667849 ], [ 39.238587756790508, -6.857786797667849 ], [ 39.238606641460713, -6.857799387447985 ], [ 39.238631821020981, -6.857811977228121 ], [ 39.238631821020981, -6.857837156788391 ], [ 39.238657000581256, -6.857856041458595 ], [ 39.23866959036139, -6.857862336348663 ], [ 39.23867588525146, -6.857881221018866 ], [ 39.238764013712405, -6.857881221018866 ], [ 39.238852142173357, -6.857862336348663 ], [ 39.238921385964105, -6.857856041458595 ], [ 39.238996924644916, -6.857856041458595 ], [ 39.239059873545592, -6.857856041458595 ], [ 39.239103937776065, -6.857849746568527 ], [ 39.239179476456883, -6.857849746568527 ], [ 39.239210950907221, -6.857849746568527 ], [ 39.239261310027764, -6.857849746568527 ], [ 39.239299079368166, -6.857856041458595 ], [ 39.239336848708575, -6.85786863123873 ], [ 39.23936202826885, -6.857881221018866 ], [ 39.239399797609252, -6.857912695469205 ], [ 39.239418682279457, -6.857931580139408 ], [ 39.239431272059591, -6.857950464809612 ], [ 39.239450156729795, -6.857969349479815 ], [ 39.239456451619866, -6.857994529040086 ], [ 39.23947533629007, -6.85801341371029 ], [ 39.239506810740409, -6.85803859327056 ], [ 39.239513105630472, -6.858057477940764 ], [ 39.239538285190747, -6.858082657501035 ], [ 39.239550874970881, -6.858120426841442 ], [ 39.239569759641086, -6.858145606401713 ], [ 39.239569759641086, -6.858164491071916 ], [ 39.23958864431129, -6.858189670632187 ], [ 39.239601234091424, -6.858208555302391 ], [ 39.239632708541762, -6.858246324642797 ], [ 39.239645298321896, -6.858277799093137 ], [ 39.239676772772235, -6.858315568433543 ], [ 39.239695657442439, -6.858347042883882 ], [ 39.239739721672912, -6.858397402004424 ], [ 39.239777491013321, -6.858435171344831 ], [ 39.239802670573589, -6.85846664579517 ], [ 39.239827850133864, -6.858510710025644 ], [ 39.239846734804068, -6.858529594695848 ], [ 39.23988450414447, -6.858554774256119 ], [ 39.239903388814675, -6.858567364036254 ], [ 39.23992856837495, -6.858598838486594 ], [ 39.239953747935218, -6.858617723156797 ], [ 39.23999781216569, -6.858655492497204 ], [ 39.24004187639617, -6.858686966947543 ], [ 39.240079645736571, -6.858718441397881 ], [ 39.240104825296847, -6.858737326068085 ], [ 39.240148889527319, -6.858781390298559 ], [ 39.240186658867728, -6.858806569858831 ], [ 39.240211838427996, -6.858831749419101 ], [ 39.2402307230982, -6.858850634089305 ], [ 39.240249607768405, -6.858863223869441 ], [ 39.240268492438609, -6.858875813649576 ], [ 39.240287377108814, -6.858900993209847 ], [ 39.240306261779018, -6.858919877880051 ], [ 39.240318851559152, -6.85895135233039 ], [ 39.240331441339286, -6.858963942110526 ], [ 39.240337736229357, -6.858976531890661 ], [ 39.240356620899554, -6.858989121670796 ], [ 39.240362915789625, -6.859014301231068 ], [ 39.240369210679695, -6.859026891011204 ], [ 39.240381800459829, -6.859039480791338 ], [ 39.240394390239963, -6.859052070571474 ], [ 39.240406980020097, -6.859070955241678 ], [ 39.240413274910168, -6.859083545021813 ], [ 39.240419569800238, -6.859102429692016 ], [ 39.240425864690302, -6.85912131436222 ], [ 39.240432159580372, -6.859133904142356 ], [ 39.240444749360506, -6.859159083702627 ], [ 39.240444749360506, -6.859184263262898 ], [ 39.240451044250577, -6.859209442823169 ], [ 39.240451044250577, -6.859234622383441 ], [ 39.240451044250577, -6.859266096833779 ], [ 39.240451044250577, -6.859297571284118 ], [ 39.240451044250577, -6.859341635514593 ], [ 39.240451044250577, -6.859366815074864 ], [ 39.240444749360506, -6.859379404854999 ], [ 39.240438454470436, -6.85940458441527 ], [ 39.240425864690302, -6.859423469085474 ], [ 39.240406980020097, -6.859454943535813 ], [ 39.240400685130034, -6.859480123096084 ], [ 39.2403880953499, -6.859499007766288 ], [ 39.240356620899554, -6.859524187326558 ], [ 39.240255902658475, -6.859637495347779 ], [ 39.240218133318066, -6.85966267490805 ], [ 39.240180363977657, -6.859694149358389 ], [ 39.240155184417389, -6.85971932891866 ], [ 39.240123709967051, -6.859738213588863 ], [ 39.240104825296847, -6.859750803368999 ], [ 39.240035581506099, -6.859794867599473 ], [ 39.240010401945831, -6.859813752269677 ], [ 39.239978927495493, -6.859838931829948 ], [ 39.239934863265013, -6.859870406280287 ], [ 39.239903388814675, -6.859895585840558 ], [ 39.239878209254407, -6.859914470510761 ], [ 39.239853029694132, -6.859920765400829 ], [ 39.239834145023934, -6.859933355180964 ], [ 39.239802670573589, -6.859939650071032 ], [ 39.239783785903391, -6.859952239851168 ], [ 39.23977119612325, -6.859952239851168 ], [ 39.239764901233187, -6.859964829631304 ], [ 39.239739721672912, -6.859964829631304 ], [ 39.239733426782848, -6.85997741941144 ], [ 39.239708247222573, -6.859983714301507 ], [ 39.239695657442439, -6.859996304081642 ], [ 39.239683067662305, -6.86000259897171 ], [ 39.239664182992101, -6.860015188751846 ], [ 39.239651593211967, -6.860021483641914 ], [ 39.239620118761628, -6.860027778531982 ], [ 39.239601234091424, -6.860040368312117 ], [ 39.239582349421219, -6.860046663202185 ], [ 39.239557169860952, -6.860052958092252 ], [ 39.23954458008081, -6.860065547872388 ], [ 39.239519400520543, -6.860090727432659 ], [ 39.239494220960268, -6.860103317212795 ], [ 39.23947533629007, -6.860122201882998 ], [ 39.239456451619866, -6.860141086553202 ], [ 39.239431272059591, -6.860159971223405 ], [ 39.239399797609252, -6.860178855893609 ], [ 39.239374618048984, -6.860185150783676 ], [ 39.239349438488709, -6.860210330343947 ], [ 39.239324258928441, -6.860235509904219 ], [ 39.239286489588032, -6.860260689464489 ], [ 39.239236130467489, -6.860273279244625 ], [ 39.239204656017151, -6.860298458804897 ], [ 39.239160591786678, -6.860304753694964 ], [ 39.239122822446269, -6.860323638365167 ], [ 39.239072463325726, -6.860355112815506 ], [ 39.23901580931512, -6.86037399748571 ], [ 39.238996924644916, -6.860380292375778 ], [ 39.238946565524373, -6.860392882155913 ], [ 39.238915091074034, -6.860399177045981 ], [ 39.238889911513766, -6.860405471936049 ], [ 39.238845847283287, -6.860424356606252 ], [ 39.238820667723019, -6.86043065149632 ], [ 39.23878289838261, -6.860449536166524 ], [ 39.238751423932271, -6.860455831056591 ], [ 39.238713654591862, -6.860468420836726 ], [ 39.23867588525146, -6.860493600396998 ], [ 39.238644410801122, -6.860499895287066 ], [ 39.238600346570642, -6.860506190177134 ], [ 39.238581461900438, -6.860518779957269 ], [ 39.23855628234017, -6.860525074847336 ], [ 39.238537397669965, -6.860531369737404 ], [ 39.238524807889831, -6.860537664627472 ], [ 39.238449269209021, -6.860569139077811 ], [ 39.238424089648746, -6.860581728857947 ], [ 39.238405204978541, -6.860594318638082 ], [ 39.238367435638139, -6.860613203308286 ], [ 39.238354845857998, -6.860619498198353 ], [ 39.238335961187801, -6.860625793088421 ], [ 39.238310781627526, -6.860632087978489 ], [ 39.238285602067258, -6.860644677758625 ], [ 39.238260422506983, -6.860644677758625 ], [ 39.238235242946715, -6.860650972648693 ], [ 39.23821635827651, -6.86065726753876 ], [ 39.238197473606306, -6.860663562428828 ], [ 39.238178588936101, -6.860663562428828 ], [ 39.238159704265897, -6.860669857318896 ], [ 39.238147114485763, -6.860676152208963 ], [ 39.238128229815558, -6.860682447099031 ], [ 39.23810305025529, -6.860682447099031 ], [ 39.238077870695015, -6.860701331769235 ], [ 39.238058986024818, -6.860713921549371 ], [ 39.238033806464543, -6.860720216439439 ], [ 39.238008626904275, -6.860732806219573 ], [ 39.23798974223407, -6.860739101109641 ], [ 39.237970857563866, -6.860739101109641 ], [ 39.237958267783732, -6.860745395999709 ], [ 39.237933088223457, -6.860745395999709 ], [ 39.237914203553252, -6.860745395999709 ], [ 39.237901613773118, -6.860745395999709 ], [ 39.237889023992985, -6.860751690889777 ], [ 39.23787013932278, -6.860751690889777 ], [ 39.237857549542646, -6.860751690889777 ], [ 39.237832369982371, -6.860757985779845 ], [ 39.237807190422103, -6.860757985779845 ], [ 39.237788305751899, -6.860757985779845 ], [ 39.237775715971765, -6.860757985779845 ], [ 39.23775683130156, -6.860757985779845 ], [ 39.237725356851222, -6.860751690889777 ], [ 39.237700177290954, -6.860751690889777 ], [ 39.237681292620749, -6.860751690889777 ], [ 39.237656113060474, -6.860745395999709 ], [ 39.237624638610136, -6.860739101109641 ], [ 39.237599459049868, -6.860739101109641 ], [ 39.237586869269734, -6.860732806219573 ], [ 39.237555394819395, -6.860732806219573 ], [ 39.237517625478986, -6.860726511329506 ], [ 39.237473561248514, -6.860713921549371 ], [ 39.237448381688239, -6.860713921549371 ], [ 39.2374169072379, -6.860707626659303 ], [ 39.237391727677633, -6.860701331769235 ], [ 39.237360253227287, -6.860701331769235 ], [ 39.237335073667019, -6.860688741989099 ], [ 39.237278419656413, -6.860676152208963 ], [ 39.237265829876272, -6.860676152208963 ], [ 39.237234355425933, -6.860676152208963 ], [ 39.237209175865665, -6.860676152208963 ], [ 39.23718399630539, -6.860676152208963 ], [ 39.237139932074918, -6.860676152208963 ], [ 39.237102162734509, -6.860669857318896 ], [ 39.23707068828417, -6.860669857318896 ], [ 39.237045508723902, -6.860669857318896 ], [ 39.237014034273564, -6.860663562428828 ], [ 39.236982559823225, -6.86065726753876 ], [ 39.23695738026295, -6.86065726753876 ], [ 39.236925905812612, -6.86065726753876 ], [ 39.236894431362273, -6.86065726753876 ], [ 39.236869251802005, -6.860650972648693 ], [ 39.23684407224173, -6.860644677758625 ], [ 39.236818892681463, -6.860644677758625 ], [ 39.236781123341054, -6.860638382868557 ], [ 39.236755943780786, -6.860638382868557 ], [ 39.236730764220511, -6.860638382868557 ], [ 39.236699289770172, -6.860638382868557 ], [ 39.236667815319834, -6.860638382868557 ], [ 39.236642635759566, -6.860638382868557 ], [ 39.236623751089361, -6.860638382868557 ], [ 39.23661116130922, -6.860644677758625 ], [ 39.236579686858882, -6.860644677758625 ], [ 39.236548212408543, -6.860644677758625 ], [ 39.236535622628409, -6.860644677758625 ], [ 39.236510443068141, -6.860644677758625 ], [ 39.236491558397937, -6.860644677758625 ], [ 39.236466378837662, -6.860644677758625 ], [ 39.236441199277394, -6.860644677758625 ], [ 39.236422314607189, -6.860638382868557 ], [ 39.236403429936985, -6.860638382868557 ], [ 39.236378250376717, -6.860638382868557 ], [ 39.236334186146244, -6.860638382868557 ], [ 39.236309006585969, -6.860638382868557 ], [ 39.236277532135631, -6.860644677758625 ], [ 39.236252352575363, -6.860644677758625 ], [ 39.236233467905159, -6.860644677758625 ], [ 39.23619569856475, -6.860644677758625 ], [ 39.236176813894545, -6.860638382868557 ], [ 39.236139044554136, -6.860632087978489 ], [ 39.236094980323664, -6.860632087978489 ], [ 39.236076095653459, -6.860632087978489 ], [ 39.236050916093191, -6.860632087978489 ], [ 39.236032031422987, -6.860632087978489 ], [ 39.236019441642853, -6.860632087978489 ], [ 39.235987967192514, -6.860632087978489 ], [ 39.235943902962035, -6.860632087978489 ], [ 39.235899838731562, -6.860638382868557 ], [ 39.23586206939116, -6.860638382868557 ], [ 39.235824300050751, -6.860638382868557 ], [ 39.235780235820279, -6.860638382868557 ], [ 39.235723581809665, -6.860638382868557 ], [ 39.235679517579193, -6.860638382868557 ], [ 39.235616568678516, -6.860625793088421 ], [ 39.235585094228178, -6.860625793088421 ], [ 39.235541029997698, -6.860625793088421 ], [ 39.235496965767226, -6.860638382868557 ], [ 39.235452901536753, -6.860644677758625 ], [ 39.23539624752614, -6.86065726753876 ], [ 39.235364773075801, -6.86065726753876 ], [ 39.235301824175124, -6.860669857318896 ], [ 39.235257759944652, -6.860676152208963 ], [ 39.235213695714172, -6.860682447099031 ], [ 39.235157041703566, -6.860682447099031 ], [ 39.235125567253228, -6.860688741989099 ], [ 39.235087797912819, -6.860701331769235 ], [ 39.23505632346248, -6.860701331769235 ], [ 39.235031143902212, -6.860701331769235 ], [ 39.235012259232008, -6.860701331769235 ], [ 39.234987079671733, -6.860701331769235 ], [ 39.234961900111465, -6.860707626659303 ], [ 39.234930425661126, -6.860713921549371 ], [ 39.234892656320717, -6.860720216439439 ], [ 39.234880066540583, -6.860720216439439 ], [ 39.234842297200174, -6.860726511329506 ], [ 39.234810822749836, -6.860726511329506 ], [ 39.234779348299497, -6.860726511329506 ], [ 39.234747873849159, -6.860732806219573 ], [ 39.234728989178954, -6.860732806219573 ], [ 39.234703809618686, -6.860732806219573 ], [ 39.234672335168348, -6.860732806219573 ], [ 39.234653450498143, -6.860739101109641 ], [ 39.234628270937868, -6.860739101109641 ], [ 39.234590501597467, -6.860739101109641 ], [ 39.234552732257058, -6.860739101109641 ], [ 39.234527552696782, -6.860739101109641 ], [ 39.234502373136515, -6.860739101109641 ], [ 39.234464603796106, -6.860739101109641 ], [ 39.234439424235838, -6.860739101109641 ], [ 39.234426834455704, -6.860739101109641 ], [ 39.234414244675563, -6.860732806219573 ], [ 39.234376475335161, -6.860732806219573 ], [ 39.234357590664956, -6.860732806219573 ], [ 39.234338705994752, -6.860732806219573 ], [ 39.234319821324547, -6.860726511329506 ], [ 39.234307231544413, -6.860726511329506 ], [ 39.234288346874209, -6.860726511329506 ], [ 39.234263167313941, -6.860720216439439 ], [ 39.2342505775338, -6.860713921549371 ], [ 39.234231692863602, -6.860701331769235 ], [ 39.234200218413264, -6.860695036879167 ], [ 39.234175038852989, -6.860688741989099 ], [ 39.234149859292721, -6.860688741989099 ], [ 39.234118384842382, -6.860688741989099 ], [ 39.234093205282107, -6.860688741989099 ], [ 39.234074320611903, -6.860688741989099 ], [ 39.234042846161564, -6.860688741989099 ], [ 39.234017666601297, -6.860688741989099 ], [ 39.233992487041021, -6.860688741989099 ], [ 39.233979897260888, -6.860688741989099 ], [ 39.233967307480754, -6.860688741989099 ], [ 39.23395471770062, -6.860688741989099 ], [ 39.233929538140345, -6.860682447099031 ], [ 39.233916948360211, -6.860682447099031 ], [ 39.233898063690006, -6.860676152208963 ], [ 39.233885473909872, -6.860676152208963 ], [ 39.233872884129738, -6.860676152208963 ], [ 39.233860294349597, -6.860676152208963 ], [ 39.233835114789329, -6.860676152208963 ], [ 39.233803640338991, -6.860676152208963 ], [ 39.233784755668786, -6.860676152208963 ], [ 39.233759576108518, -6.860676152208963 ], [ 39.23372810165818, -6.860676152208963 ], [ 39.233702922097905, -6.860676152208963 ], [ 39.233677742537637, -6.860676152208963 ], [ 39.233665152757496, -6.860676152208963 ], [ 39.233639973197228, -6.860676152208963 ], [ 39.23361479363696, -6.860676152208963 ], [ 39.233589614076685, -6.860669857318896 ], [ 39.23357072940648, -6.860669857318896 ], [ 39.233551844736276, -6.860669857318896 ], [ 39.233539254956142, -6.860669857318896 ], [ 39.233507780505803, -6.860663562428828 ], [ 39.233495190725669, -6.860663562428828 ], [ 39.233482600945536, -6.86065726753876 ], [ 39.233463716275331, -6.86065726753876 ], [ 39.233444831605127, -6.86065726753876 ], [ 39.233425946934922, -6.86065726753876 ], [ 39.233394472484584, -6.86065726753876 ], [ 39.233375587814379, -6.86065726753876 ], [ 39.233356703144175, -6.860650972648693 ], [ 39.233337818473977, -6.860650972648693 ], [ 39.233325228693836, -6.860644677758625 ], [ 39.233300049133568, -6.860638382868557 ], [ 39.233287459353434, -6.860632087978489 ], [ 39.23326857468323, -6.860625793088421 ], [ 39.233249690013025, -6.860613203308286 ], [ 39.233224510452757, -6.860594318638082 ], [ 39.233211920672616, -6.860588023748015 ], [ 39.233193036002412, -6.860575433967879 ], [ 39.233180446222278, -6.860562844187744 ], [ 39.233161561552073, -6.86054395951754 ], [ 39.23315526666201, -6.860531369737404 ], [ 39.233142676881876, -6.860525074847336 ], [ 39.233136381991805, -6.860512485067201 ], [ 39.233130087101735, -6.860499895287066 ], [ 39.233104907541467, -6.860481010616862 ], [ 39.233104907541467, -6.860468420836726 ], [ 39.233092317761333, -6.860455831056591 ], [ 39.233086022871262, -6.860436946386388 ], [ 39.233079727981192, -6.860424356606252 ], [ 39.233067138201058, -6.860399177045981 ], [ 39.233060843310994, -6.860386587265845 ], [ 39.233060843310994, -6.86037399748571 ], [ 39.233060843310994, -6.860361407705574 ], [ 39.233060843310994, -6.860348817925439 ], [ 39.233067138201058, -6.860323638365167 ], [ 39.233073433091128, -6.860298458804897 ], [ 39.233098612651396, -6.860273279244625 ], [ 39.233104907541467, -6.860254394574421 ], [ 39.233123792211671, -6.860229215014151 ], [ 39.233130087101735, -6.860216625234015 ], [ 39.233130087101735, -6.860197740563811 ], [ 39.233136381991805, -6.860185150783676 ], [ 39.233142676881876, -6.860172561003541 ], [ 39.233148971771939, -6.860159971223405 ], [ 39.233161561552073, -6.860147381443269 ], [ 39.233167856442144, -6.860128496773066 ], [ 39.233180446222278, -6.860122201882998 ], [ 39.233193036002412, -6.860109612102863 ], [ 39.233224510452757, -6.860071842762456 ], [ 39.233237100232891, -6.86005925298232 ], [ 39.233255984903096, -6.860046663202185 ], [ 39.233274869573293, -6.860040368312117 ], [ 39.233287459353434, -6.860021483641914 ], [ 39.233306344023632, -6.860008893861778 ], [ 39.233318933803773, -6.86000259897171 ], [ 39.233331523583907, -6.86000259897171 ], [ 39.233344113364041, -6.859996304081642 ], [ 39.233356703144175, -6.859983714301507 ], [ 39.233369292924316, -6.85997741941144 ], [ 39.233394472484584, -6.859964829631304 ], [ 39.233425946934922, -6.8599459449611 ], [ 39.233444831605127, -6.859939650071032 ], [ 39.233463716275331, -6.859927060290897 ], [ 39.233482600945536, -6.859920765400829 ], [ 39.233495190725669, -6.859908175620694 ], [ 39.233507780505803, -6.859895585840558 ], [ 39.233520370285937, -6.859895585840558 ], [ 39.233520370285937, -6.859882996060422 ], [ 39.233539254956142, -6.859870406280287 ], [ 39.233551844736276, -6.859857816500151 ], [ 39.233564434516417, -6.859845226720015 ], [ 39.233583319186614, -6.859826342049812 ], [ 39.233608498746889, -6.859794867599473 ], [ 39.233633678307157, -6.859757098259067 ], [ 39.233665152757496, -6.85971932891866 ], [ 39.233677742537637, -6.859694149358389 ], [ 39.2336840374277, -6.859681559578253 ], [ 39.233696627207841, -6.859656380017982 ], [ 39.233702922097905, -6.859631200457711 ], [ 39.233715511878039, -6.859612315787508 ], [ 39.23372810165818, -6.859593431117304 ], [ 39.233734396548243, -6.8595745464471 ], [ 39.233746986328377, -6.859536777106694 ], [ 39.233778460778716, -6.859486417986152 ], [ 39.23379734544892, -6.859480123096084 ], [ 39.233816230119125, -6.859454943535813 ], [ 39.233835114789329, -6.85943605886561 ], [ 39.233847704569463, -6.859423469085474 ], [ 39.233860294349597, -6.85940458441527 ], [ 39.233866589239668, -6.859391994635135 ], [ 39.233885473909872, -6.859379404854999 ], [ 39.233898063690006, -6.859360520184796 ], [ 39.233904358580077, -6.859347930404661 ], [ 39.23391065347014, -6.859335340624525 ], [ 39.233923243250281, -6.859329045734457 ], [ 39.233929538140345, -6.859303866174185 ], [ 39.233942127920479, -6.859297571284118 ], [ 39.233948422810549, -6.859278686613915 ], [ 39.23395471770062, -6.859266096833779 ], [ 39.233967307480754, -6.859247212163575 ], [ 39.233986192150958, -6.859234622383441 ], [ 39.233992487041021, -6.859209442823169 ], [ 39.233998781931092, -6.859190558152966 ], [ 39.23402396149136, -6.859165378592695 ], [ 39.234036551271501, -6.859152788812559 ], [ 39.234055435941698, -6.85912131436222 ], [ 39.234086910392044, -6.859102429692016 ], [ 39.234124679732446, -6.85906466035161 ], [ 39.234162449072855, -6.859045775681406 ], [ 39.234175038852989, -6.859026891011204 ], [ 39.234212808193398, -6.859020596121136 ], [ 39.2342505775338, -6.859001711450932 ], [ 39.234288346874209, -6.858970237000593 ], [ 39.234300936654343, -6.858970237000593 ], [ 39.234326116214618, -6.85895135233039 ], [ 39.234351295774886, -6.858926172770119 ], [ 39.234376475335161, -6.858919877880051 ], [ 39.234389065115295, -6.858907288099915 ], [ 39.234395360005365, -6.85889469831978 ], [ 39.234426834455704, -6.858869518759509 ], [ 39.234452014015972, -6.858838044309169 ], [ 39.23448348846631, -6.858800274968763 ], [ 39.234508668026585, -6.858775095408491 ], [ 39.234521257806719, -6.858749915848221 ], [ 39.234533847586853, -6.858737326068085 ], [ 39.234552732257058, -6.858718441397881 ], [ 39.234571616927262, -6.858693261837611 ], [ 39.234584206707396, -6.858661787387272 ], [ 39.234615681157734, -6.858642902717068 ], [ 39.234628270937868, -6.858630312936932 ], [ 39.234647155608073, -6.858605133376662 ], [ 39.234666040278277, -6.858586248706458 ], [ 39.234678630058411, -6.858573658926322 ], [ 39.234691219838545, -6.858561069146186 ], [ 39.234703809618686, -6.858554774256119 ], [ 39.23471639939882, -6.858542184475984 ], [ 39.234728989178954, -6.858529594695848 ], [ 39.234735284069025, -6.858517004915712 ], [ 39.234747873849159, -6.858504415135577 ], [ 39.234754168739229, -6.858491825355442 ], [ 39.234754168739229, -6.858472940685238 ], [ 39.234760463629293, -6.858460350905102 ], [ 39.234773053409427, -6.858441466234899 ], [ 39.234779348299497, -6.858428876454763 ], [ 39.234798232969702, -6.858397402004424 ], [ 39.234810822749836, -6.858372222444153 ], [ 39.234817117639906, -6.85835333777395 ], [ 39.23482970742004, -6.858334453103747 ], [ 39.234836002310111, -6.858321863323611 ], [ 39.234848592090245, -6.858309273543475 ], [ 39.234854886980308, -6.858290388873272 ], [ 39.234854886980308, -6.858271504203069 ], [ 39.234861181870379, -6.858258914422933 ], [ 39.234861181870379, -6.858246324642797 ], [ 39.234867476760449, -6.858227439972594 ], [ 39.234873771650513, -6.858214850192459 ], [ 39.234873771650513, -6.858195965522255 ], [ 39.234886361430647, -6.85818337574212 ], [ 39.234898951210788, -6.858164491071916 ], [ 39.234930425661126, -6.85812672173151 ], [ 39.234955605221394, -6.858107837061306 ], [ 39.234968195001528, -6.858088952391102 ], [ 39.234980784781669, -6.858076362610968 ], [ 39.234993374561803, -6.858063772830832 ], [ 39.234999669451867, -6.858051183050696 ], [ 39.235012259232008, -6.85803859327056 ], [ 39.235024849012142, -6.858019708600357 ], [ 39.235031143902212, -6.858000823930154 ], [ 39.235037438792276, -6.857956759699679 ], [ 39.23505632346248, -6.857937875029476 ], [ 39.235062618352551, -6.85792528524934 ], [ 39.234181333743059, -6.856200485370766 ] ] ] ] } },
{ "type": "Feature", "properties": { "fid": 19, "class": -1.0 }, "geometry": { "type": "MultiPolygon", "coordinates": [ [ [ [ 39.222096819675265, -6.81380662391645 ], [ 39.221863328520428, -6.817731361615722 ], [ 39.225765966393901, -6.820745273389891 ], [ 39.228234301459167, -6.821109591111076 ], [ 39.231553211445565, -6.819735118259231 ], [ 39.230552535067751, -6.81889056069554 ], [ 39.227633895632472, -6.818874000728432 ], [ 39.226416406039483, -6.817218001127376 ], [ 39.22541572966167, -6.81642311928637 ], [ 39.224498442981997, -6.815495755472513 ], [ 39.222096819675265, -6.81380662391645 ] ] ] ] } },
{ "type": "Feature", "properties": { "fid": 20, "class": -1.0 }, "geometry": { "type": "MultiPolygon", "coordinates": [ [ [ [ 39.275166023578443, -6.78805491179387 ], [ 39.27471571920843, -6.791102131691725 ], [ 39.275099311819915, -6.793039756046298 ], [ 39.278951915874487, -6.793586264068494 ], [ 39.280102693708969, -6.792559490908123 ], [ 39.278585001202629, -6.788319888203079 ], [ 39.277050630756641, -6.789114816555454 ], [ 39.275166023578443, -6.78805491179387 ] ] ] ] } },
{ "type": "Feature", "properties": { "fid": 21, "class": -1.0 }, "geometry": { "type": "MultiPolygon", "coordinates": [ [ [ [ 39.267850662308149, -6.783175593566565 ], [ 39.270027133429885, -6.77853843582602 ], [ 39.266441376409396, -6.777553034058127 ], [ 39.264023075163024, -6.777395700816277 ], [ 39.263998058253584, -6.778811698144396 ], [ 39.263973041344137, -6.780575478472121 ], [ 39.263739550189314, -6.781585715939971 ], [ 39.267850662308149, -6.783175593566565 ] ] ] ] } },
{ "type": "Feature", "properties": { "fid": 22, "class": -1.0 }, "geometry": { "type": "MultiPolygon", "coordinates": [ [ [ [ 39.259768115814929, -6.765585210302853 ], [ 39.261711095781841, -6.767978384752935 ], [ 39.262820178767242, -6.767026084921989 ], [ 39.264471294790631, -6.766405018802985 ], [ 39.264296176424516, -6.765941288913262 ], [ 39.265004988858792, -6.765676300204923 ], [ 39.264996649888978, -6.765419592255071 ], [ 39.264246142605629, -6.764955861419153 ], [ 39.263937600722471, -6.764334792637904 ], [ 39.264613057277487, -6.76361435185128 ], [ 39.264888243281391, -6.763208585877804 ], [ 39.263170415499474, -6.763109214567043 ], [ 39.262336518517976, -6.763034686070561 ], [ 39.259768115814929, -6.765585210302853 ] ] ] ] } },
{ "type": "Feature", "properties": { "fid": 23, "class": 1.0 }, "geometry": { "type": "MultiPolygon", "coordinates": [ [ [ [ 39.264179430847136, -6.768179195564444 ], [ 39.265321869711798, -6.768228880700792 ], [ 39.265501157562824, -6.767429777470976 ], [ 39.265784682536534, -6.766754886148274 ], [ 39.26600149575173, -6.766373965476066 ], [ 39.265559530351531, -6.766125538788835 ], [ 39.26523431052874, -6.766034448971498 ], [ 39.265163429285316, -6.766179364581911 ], [ 39.265034175253177, -6.766117257897059 ], [ 39.264813192553078, -6.766444353014215 ], [ 39.26497997194938, -6.766518880984601 ], [ 39.265038344738088, -6.76639880813776 ], [ 39.265109225981512, -6.766465055229363 ], [ 39.265034175253177, -6.766589268501625 ], [ 39.264867395856882, -6.766585128059733 ], [ 39.264821531522891, -6.766734183945545 ], [ 39.264708955430393, -6.766721762623487 ], [ 39.264675599551119, -6.766845975829716 ], [ 39.264788175643631, -6.76685839714858 ], [ 39.26472980285493, -6.766945346371693 ], [ 39.264909090705956, -6.767007452950044 ], [ 39.264879904311606, -6.767098542583841 ], [ 39.264800684098354, -6.767135806519988 ], [ 39.26472980285493, -6.767235177002318 ], [ 39.264646413156783, -6.767367670946948 ], [ 39.2645546844888, -6.767541569194098 ], [ 39.264450447366123, -6.767603675695758 ], [ 39.264179430847136, -6.768179195564444 ] ] ] ] } },
{ "type": "Feature", "properties": { "fid": 24, "class": 1.0 }, "geometry": { "type": "MultiPolygon", "coordinates": [ [ [ [ 39.266591477866143, -6.766454704121901 ], [ 39.266430952697192, -6.767337652790803 ], [ 39.267575476304316, -6.767178245999318 ], [ 39.267573391561854, -6.76723414189323 ], [ 39.266453884864177, -6.767389408231265 ], [ 39.266447630636826, -6.767718572702768 ], [ 39.266952138310643, -6.768033245446849 ], [ 39.267977831597896, -6.767283827126834 ], [ 39.26751084928825, -6.766749710597673 ], [ 39.26722732431454, -6.76654682897053 ], [ 39.266591477866143, -6.766454704121901 ] ] ] ] } },
{ "type": "Feature", "properties": { "fid": 25, "class": -1.0 }, "geometry": { "type": "MultiPolygon", "coordinates": [ [ [ [ 39.272384977145158, -6.76396318610196 ], [ 39.272076435261994, -6.766141065460531 ], [ 39.274736566633024, -6.766414334800672 ], [ 39.275295277610631, -6.764675345451843 ], [ 39.272384977145158, -6.76396318610196 ] ] ] ] } },
{ "type": "Feature", "properties": { "fid": 26, "class": 1.0 }, "geometry": { "type": "MultiPolygon", "coordinates": [ [ [ [ 39.25250070362106, -6.781828959276193 ], [ 39.252965601188258, -6.782069097257863 ], [ 39.25374321012351, -6.782172604971666 ], [ 39.253943345399072, -6.781646785555089 ], [ 39.253989209733064, -6.781350753111383 ], [ 39.25350137999888, -6.781023668101944 ], [ 39.25250070362106, -6.781828959276193 ] ] ] ] } },
{ "type": "Feature", "properties": { "fid": 27, "class": 1.0 }, "geometry": { "type": "MultiPolygon", "coordinates": [ [ [ [ 39.252498618878597, -6.78028048045135 ], [ 39.252504873105956, -6.780466795011798 ], [ 39.252744618488158, -6.780446093397529 ], [ 39.253497210513956, -6.780967773805964 ], [ 39.254155989129352, -6.780249428017605 ], [ 39.253926667459432, -6.779872658328751 ], [ 39.252498618878597, -6.78028048045135 ] ] ] ] } },
{ "type": "Feature", "properties": { "fid": 28, "class": 1.0 }, "geometry": { "type": "MultiPolygon", "coordinates": [ [ [ [ 39.253561837530015, -6.783292557012886 ], [ 39.253566007014918, -6.783805953751027 ], [ 39.253824515079188, -6.783913601384788 ], [ 39.253678583107416, -6.784211702398868 ], [ 39.253486786801673, -6.784472540634833 ], [ 39.25345760040733, -6.784696116153221 ], [ 39.253528481650761, -6.785217791959145 ], [ 39.253857870958441, -6.785491050489088 ], [ 39.254591700302178, -6.785279896184113 ], [ 39.254654242575789, -6.784654713287275 ], [ 39.254683428970147, -6.783946723728798 ], [ 39.254429090390772, -6.783681744912949 ], [ 39.254291497388841, -6.783483010705397 ], [ 39.254491632664404, -6.78322217193355 ], [ 39.254470785239867, -6.782837123964589 ], [ 39.254299836358655, -6.782679792447835 ], [ 39.253866209928262, -6.782278182816831 ], [ 39.253082346765645, -6.782220218512545 ], [ 39.253086516250548, -6.782356848647211 ], [ 39.253507634226224, -6.782435514464741 ], [ 39.253407566588422, -6.782596986365749 ], [ 39.25353682062056, -6.782837123964589 ], [ 39.253732786411227, -6.782994455429953 ], [ 39.253736955896123, -6.783102103245071 ], [ 39.253603532379088, -6.783102103245071 ], [ 39.253591023924372, -6.783230452531654 ], [ 39.253561837530015, -6.783292557012886 ] ] ] ] } },
{ "type": "Feature", "properties": { "fid": 29, "class": 1.0 }, "geometry": { "type": "MultiPolygon", "coordinates": [ [ [ [ 39.231123754500025, -6.840539122743981 ], [ 39.231915956632456, -6.840448047039333 ], [ 39.232399616881729, -6.840191379050982 ], [ 39.23294581940462, -6.840129281936304 ], [ 39.233333581501014, -6.84001750710954 ], [ 39.233312734076478, -6.839814656431201 ], [ 39.233125107255653, -6.839529009411562 ], [ 39.233537886261495, -6.839479331651579 ], [ 39.233833919689921, -6.839288900190456 ], [ 39.234121614148549, -6.839168845534647 ], [ 39.234263376635404, -6.83925578166773 ], [ 39.234367613758096, -6.83921438351109 ], [ 39.234517715214757, -6.839359277043627 ], [ 39.234676155641246, -6.839322018710889 ], [ 39.234805409673385, -6.83939239555918 ], [ 39.234613613367642, -6.839582826979045 ], [ 39.234567749033651, -6.839702881530817 ], [ 39.23474703688467, -6.839698741719186 ], [ 39.235005544948947, -6.839748419456351 ], [ 39.23542666292461, -6.840278314997966 ], [ 39.23545584931896, -6.840539122743981 ], [ 39.235113951556549, -6.840514283917161 ], [ 39.23523486661886, -6.840994501006714 ], [ 39.235272391983031, -6.842058428528228 ], [ 39.235214019194323, -6.84206670811054 ], [ 39.235084765162192, -6.842174342667533 ], [ 39.234455172941146, -6.842174342667533 ], [ 39.234084088784378, -6.842277837410992 ], [ 39.233287717167038, -6.8422902567787 ], [ 39.232578904732762, -6.84211224581069 ], [ 39.23177002466069, -6.841739664500054 ], [ 39.231261347501963, -6.841379502290116 ], [ 39.231069551196221, -6.840932403996455 ], [ 39.231123754500025, -6.840539122743981 ] ] ] ] } },
{ "type": "Feature", "properties": { "fid": 30, "class": 1.0 }, "geometry": { "type": "MultiPolygon", "coordinates": [ [ [ [ 39.241455738100917, -6.794609929886037 ], [ 39.241743432559531, -6.793914375594116 ], [ 39.241818483287865, -6.793711505402809 ], [ 39.242102008261583, -6.793529336178511 ], [ 39.24220624538426, -6.793363727732911 ], [ 39.242777464816591, -6.793583158911056 ], [ 39.243106854124292, -6.793918515801209 ], [ 39.243365362188563, -6.793988899316369 ], [ 39.24370725995098, -6.793959917870196 ], [ 39.243665565101914, -6.793885394143453 ], [ 39.243365362188563, -6.793877113728659 ], [ 39.243060989790315, -6.7937901693647 ], [ 39.242919227303467, -6.793583158911056 ], [ 39.242660719239197, -6.793405129849658 ], [ 39.242214584354087, -6.793289203913787 ], [ 39.242802481726052, -6.79243217916396 ], [ 39.243069328760129, -6.792514983554255 ], [ 39.244161733805903, -6.793823291029012 ], [ 39.244920580059073, -6.794651331895498 ], [ 39.245921256436887, -6.795777465185719 ], [ 39.244878885209999, -6.796125241109952 ], [ 39.244303496292773, -6.796150082237769 ], [ 39.244270140413498, -6.795752624038649 ], [ 39.243486277250888, -6.795620137899258 ], [ 39.242652380269377, -6.795437969397992 ], [ 39.241526619344341, -6.79546281056132 ], [ 39.240826145879879, -6.795487651723365 ], [ 39.240450892238186, -6.795355165510963 ], [ 39.241455738100917, -6.794609929886037 ] ] ] ] } },
{ "type": "Feature", "properties": { "fid": 31, "class": 1.0 }, "geometry": { "type": "MultiPolygon", "coordinates": [ [ [ [ 39.236813016656342, -6.793997179729243 ], [ 39.236654576229853, -6.794315975516361 ], [ 39.236450271469394, -6.794527125856423 ], [ 39.23640440713541, -6.794742416303774 ], [ 39.236466949409021, -6.795123314551425 ], [ 39.236617050865675, -6.795566315394709 ], [ 39.236813016656342, -6.795736063273226 ], [ 39.236679593139307, -6.796253586923206 ], [ 39.237480134241558, -6.796373652330386 ], [ 39.238339048132495, -6.796381932702191 ], [ 39.238576708772236, -6.796166642988942 ], [ 39.239093724900776, -6.795785745567797 ], [ 39.239202131508371, -6.79535102531624 ], [ 39.239293860176339, -6.794597509282507 ], [ 39.239206300993281, -6.794245592049072 ], [ 39.238860233745939, -6.79421661061837 ], [ 39.238535013923162, -6.793922656008273 ], [ 39.238343217617413, -6.793744627072546 ], [ 39.236813016656342, -6.793997179729243 ] ] ] ] } },
{ "type": "Feature", "properties": { "fid": 32, "class": 1.0 }, "geometry": { "type": "MultiPolygon", "coordinates": [ [ [ [ 39.267844408080727, -6.786615135083498 ], [ 39.267690137139141, -6.787670902754482 ], [ 39.267727662503312, -6.787923458599247 ], [ 39.268715830426395, -6.788151172771915 ], [ 39.269111931492617, -6.7877661287443 ], [ 39.269332914192724, -6.787501152030259 ], [ 39.269295388828546, -6.787087125622582 ], [ 39.267844408080727, -6.786615135083498 ] ] ] ] } },
{ "type": "Feature", "properties": { "fid": 33, "class": 1.0 }, "geometry": { "type": "MultiPolygon", "coordinates": [ [ [ [ 39.257888720492701, -6.819323189633568 ], [ 39.257771974915286, -6.819588148790251 ], [ 39.257705263156772, -6.819935907461027 ], [ 39.257709432641683, -6.82029608581821 ], [ 39.257621873458611, -6.820627284068578 ], [ 39.25750929736612, -6.820768043255645 ], [ 39.257851195128531, -6.821070261370489 ], [ 39.258155567526771, -6.821438718814198 ], [ 39.258605871896791, -6.821451138723092 ], [ 39.259093701630981, -6.821227580313715 ], [ 39.259819192004898, -6.821397319115556 ], [ 39.260269496374917, -6.821115801069893 ], [ 39.260940783445015, -6.821211020427386 ], [ 39.26119512202439, -6.820888102529576 ], [ 39.261578714635881, -6.820850842758126 ], [ 39.260882410656322, -6.820705943619389 ], [ 39.260661427956222, -6.820312645736165 ], [ 39.260515495984457, -6.820250546040875 ], [ 39.260803190443077, -6.820089086795449 ], [ 39.261503663907547, -6.819981447268268 ], [ 39.261336884511245, -6.819724768298159 ], [ 39.260748987139287, -6.819869667733674 ], [ 39.260436275771205, -6.819869667733674 ], [ 39.260327869163611, -6.819141030128351 ], [ 39.257888720492701, -6.819323189633568 ] ] ] ] } },
{ "type": "Feature", "properties": { "fid": 34, "class": -1.0 }, "geometry": { "type": "MultiPolygon", "coordinates": [ [ [ [ 39.273766119020614, -6.805611353411343 ], [ 39.275117032130666, -6.808360376143108 ], [ 39.273799474899874, -6.811672430807534 ], [ 39.277201774584427, -6.812881325063588 ], [ 39.27915309352116, -6.813129727615523 ], [ 39.284223187168735, -6.809436796416858 ], [ 39.285724201735455, -6.811225304762878 ], [ 39.286774911932156, -6.810016406333303 ], [ 39.286041082588433, -6.803773142681947 ], [ 39.282371935869776, -6.799252107985048 ], [ 39.2816047506468, -6.800113260731274 ], [ 39.279986990502678, -6.802100530408707 ], [ 39.279520008193032, -6.803607537766196 ], [ 39.277418587799623, -6.803971868505461 ], [ 39.277368553980729, -6.805064859064722 ], [ 39.273766119020614, -6.805611353411343 ] ] ] ] } },
{ "type": "Feature", "properties": { "fid": 35, "class": 1.0 }, "geometry": { "type": "MultiPolygon", "coordinates": [ [ [ [ 39.229208918556139, -6.804447982123089 ], [ 39.22876695315594, -6.806319311071809 ], [ 39.232907251669133, -6.807118349750175 ], [ 39.233799521439352, -6.807598600336569 ], [ 39.234800197817158, -6.807499238185707 ], [ 39.23544229849292, -6.807532358904947 ], [ 39.235542366130701, -6.807134910123222 ], [ 39.234291520658431, -6.806836823320957 ], [ 39.233232471491931, -6.80628205016834 ], [ 39.229208918556139, -6.804447982123089 ] ] ] ] } },
{ "type": "Feature", "properties": { "fid": 36, "class": -1.0 }, "geometry": { "type": "MultiPolygon", "coordinates": [ [ [ [ 39.259948446037015, -6.805783167793296 ], [ 39.25933553175561, -6.807720732952154 ], [ 39.260982478294089, -6.808279644525236 ], [ 39.261632917939657, -6.806387622720653 ], [ 39.259948446037015, -6.805783167793296 ] ] ] ] } },
{ "type": "Feature", "properties": { "fid": 37, "class": 1.0 }, "geometry": { "type": "MultiPolygon", "coordinates": [ [ [ [ 39.247625533392814, -6.83700682161263 ], [ 39.247913227851434, -6.837532580364653 ], [ 39.247913227851434, -6.837760270983266 ], [ 39.248546989557376, -6.837718872697041 ], [ 39.248893056804704, -6.837400105772991 ], [ 39.249076514140633, -6.837213813316326 ], [ 39.249139056414258, -6.837259351479104 ], [ 39.249009802382126, -6.837487042227913 ], [ 39.24879298916693, -6.837689893894553 ], [ 39.248496955738496, -6.837826508233762 ], [ 39.248859700925451, -6.837917584438202 ], [ 39.249234954567122, -6.838033499582377 ], [ 39.249776987605102, -6.838141135048224 ], [ 39.249956275456128, -6.83786376668313 ], [ 39.250189766610944, -6.837685754065482 ], [ 39.250514986433743, -6.837429084593055 ], [ 39.250694274284768, -6.837217953149485 ], [ 39.250423257765775, -6.837031660621808 ], [ 39.250073021033543, -6.836928164741718 ], [ 39.249818682454176, -6.836746011938319 ], [ 39.249943767001405, -6.836356867080275 ], [ 39.249756140180565, -6.836187133585502 ], [ 39.2490514972312, -6.836414824845172 ], [ 39.248684582559328, -6.836497621639977 ], [ 39.247625533392814, -6.83700682161263 ] ] ] ] } }
]
}
