{"type":"FeatureCollection","name":"kyc_cleaned_settlements","crs":{"type":"name","properties":{"name":"urn:ogc:def:crs:OGC:1.3:CRS84"}},"features":[{"type":"Feature","properties":{"Id":2,"Country":"Nigeria","City":"Lagos","Settlement":"Majidun","Last_updat":"17.01.2019","kyc_pop":2672,"kyc_area":0.0,"kyc_struct":242,"kyc_year":2019},"geometry":{"type":"Polygon","coordinates":[[[3.471320874020272,6.619858793228321],[3.4705135774410696,6.619774381197207],[3.4692063389391605,6.619337605020881],[3.468897355293243,6.619857014484349],[3.4684932997563194,6.620860417582172],[3.4684457638107844,6.621604115032714],[3.468647791579279,6.622560295822517],[3.4686208822592017,6.623357624990673],[3.4687714670181404,6.624221862674868],[3.4693905376938043,6.624803560263756],[3.4699259501699617,6.624354822184235],[3.470323433658992,6.624260168207422],[3.471250384596646,6.624047684479608],[3.4713335725013335,6.6230915065718206],[3.4713648711997873,6.621579284994116],[3.471320874020272,6.619858793228321]]]}},{"type":"Feature","properties":{"Id":4,"Country":"Nigeria","City":"Lagos","Settlement":"Agbojedo","Last_updat":"25.10.2018","kyc_pop":161,"kyc_area":4.917,"kyc_struct":94,"kyc_year":2018},"geometry":{"type":"Polygon","coordinates":[[[3.358859088451346,6.417184706768542],[3.3589190476059088,6.41749959192731],[3.3595251309113596,6.417281115773953],[3.359608318816015,6.416796925046096],[3.3598935344891308,6.416141495400948],[3.35952513091136,6.416100161971635],[3.359506116533192,6.415862789926969],[3.359382523074785,6.415730522869024],[3.3592874511837465,6.415415207512077],[3.35899272832153,6.415305378521647],[3.358650213737728,6.4153239441464995],[3.358213138814918,6.415428198036253],[3.358259486361778,6.41581673265179],[3.358461514130274,6.415810827872664],[3.358467456123449,6.416147400176272],[3.3584479625202324,6.416324485706526],[3.358526876055402,6.41662568675171],[3.358540532691167,6.416784971710918],[3.358608490281477,6.416943870159209],[3.358728415440824,6.4170352367445],[3.3587708957774596,6.41719515518393],[3.358859088451346,6.417184706768542]]]}},{"type":"Feature","properties":{"Id":5,"Country":"Nigeria","City":"Lagos","Settlement":"Ebute Oko","Last_updat":"17.11.2018","kyc_pop":224,"kyc_area":7.0,"kyc_struct":103,"kyc_year":2018},"geometry":{"type":"Polygon","coordinates":[[[3.3835811619306675,6.413493383279105],[3.3842368970695498,6.4128582485661605],[3.3844361077446727,6.411587976766356],[3.3845772153062472,6.41108481628223],[3.3842036952903793,6.410903348444819],[3.383728243981562,6.410679706411573],[3.382809220564555,6.411521988534428],[3.382402498769551,6.41200865154404],[3.3829835299052995,6.413047964212665],[3.3835811619306675,6.413493383279105]]]}},{"type":"Feature","properties":{"Id":6,"Country":"Nigeria","City":"Lagos","Settlement":"Araromi New Site","Last_updat":"24.10.2018","kyc_pop":272,"kyc_area":13.0,"kyc_struct":128,"kyc_year":2018},"geometry":{"type":"Polygon","coordinates":[[[3.3589190476059088,6.4174995919273226],[3.358859088451346,6.417184706768542],[3.3587708957774596,6.41719515518393],[3.358728415440824,6.4170352367445],[3.358608490281477,6.416943870159197],[3.358540532691167,6.416784971710918],[3.358526876055402,6.41662568675171],[3.3584479625202333,6.416324485706514],[3.358467456123449,6.416147400176272],[3.358461514130274,6.415810827872651],[3.358259486361778,6.41581673265179],[3.358213138814918,6.415428198036253],[3.35851957161222,6.415355105739193],[3.3584967591035477,6.4150587058411705],[3.3585680630218517,6.4144847601317965],[3.3583256296996717,6.414399731082832],[3.3582400649977324,6.414831961934502],[3.3579191973654647,6.4151437347802025],[3.35689955133399,6.415285449647029],[3.3557943406005752,6.41519333498805],[3.3556232111966984,6.416546710225317],[3.355894166086182,6.416589224572473],[3.357120593480686,6.416645910363052],[3.3578051110962246,6.41685139630126],[3.3581758914712796,6.417744196311766],[3.358496759103548,6.417701682061059],[3.3589190476059088,6.4174995919273226]]]}},{"type":"Feature","properties":{"Id":7,"Country":"Nigeria","City":"Lagos","Settlement":"Isale Akoka","Last_updat":"04.09.2018","kyc_pop":608,"kyc_area":0.0,"kyc_struct":41,"kyc_year":2018},"geometry":{"type":"Polygon","coordinates":[[[3.3983508752284126,6.524940896729739],[3.3987258873247086,6.524887670591266],[3.3997643970279334,6.524601543008227],[3.4000511013936974,6.524522550913272],[3.3999424705749592,6.5240784492716895],[3.399912533730269,6.523929734352281],[3.3990892705025186,6.523959477339738],[3.3985878283546747,6.523885119867911],[3.3981238072627007,6.5236992261400415],[3.3979142493501393,6.523818198133795],[3.3983508752284126,6.524940896729739]]]}},{"type":"Feature","properties":{"Id":8,"Country":"Nigeria","City":"Lagos","Settlement":"Igbayilola Tie Gate","Last_updat":"12.10.2018","kyc_pop":613,"kyc_area":38.0,"kyc_struct":194,"kyc_year":2018},"geometry":{"type":"Polygon","coordinates":[[[3.367474497064519,6.420950260237511],[3.3668089938271804,6.41974097222208],[3.366181519346277,6.417643606510991],[3.3655149735383434,6.417751748365594],[3.3655700638278527,6.4180375588681695],[3.3648438708627895,6.4182575715500905],[3.3644321965510096,6.418399414969883],[3.36389981140065,6.41854331203012],[3.3638427682660805,6.418675578357722],[3.3632852127914985,6.418856005563962],[3.3630372444619536,6.419331232074065],[3.3628394819050853,6.419534038677259],[3.3624572842206812,6.419601422765684],[3.3624387907843456,6.4200914885947995],[3.362567507898882,6.420748644534165],[3.3629752523796337,6.421196931862298],[3.3635801345458063,6.420864936512471],[3.3637755782666483,6.421191050512739],[3.3641322435733385,6.421300857725761],[3.364200652360945,6.421512080069453],[3.364285942121381,6.421971371275871],[3.3650216422754777,6.422121755263367],[3.367474497064519,6.420950260237511]]]}},{"type":"Feature","properties":{"Id":11,"Country":"Nigeria","City":"Lagos","Settlement":"Chiku","Last_updat":"15.10.2018","kyc_pop":1877,"kyc_area":0.0,"kyc_struct":375,"kyc_year":2018},"geometry":{"type":"Polygon","coordinates":[[[3.362693313392783,6.418422948897093],[3.363292266306384,6.415541423268672],[3.3626838062036826,6.4153808131639645],[3.362027810155479,6.415191860034836],[3.3613147709726374,6.415059592802773],[3.3609249762193145,6.4148989825462],[3.3604591239532215,6.414927325536297],[3.3593943187734934,6.414653343232367],[3.358937973696433,6.414606104889211],[3.3585680630218517,6.4144847601317965],[3.3584967591035477,6.4150587058411705],[3.35851957161222,6.415355105739193],[3.35899272832153,6.4153053785216345],[3.3592874511837465,6.415415207512077],[3.359382523074785,6.41573052286901],[3.359506116533192,6.415862789926969],[3.35952513091136,6.416100161971635],[3.3598935344891308,6.416141495400936],[3.359608318816015,6.416796925046096],[3.3595251309113596,6.417281115773953],[3.3599647501197603,6.417402607259796],[3.3602404586037746,6.417440397727206],[3.3604496167641216,6.417298683459776],[3.36077286119364,6.417223102501052],[3.3612482206489,6.417383712024941],[3.3617425944822954,6.417591559569042],[3.36217041799202,6.4179222259415765],[3.3623035186395285,6.418347368105159],[3.362693313392783,6.418422948897093]]]}},{"type":"Feature","properties":{"Id":12,"Country":"Nigeria","City":"Lagos","Settlement":"Ganvie Kodji","Last_updat":"07.09.2018","kyc_pop":2548,"kyc_area":7.0,"kyc_struct":165,"kyc_year":2018},"geometry":{"type":"Polygon","coordinates":[[[3.3828637936531014,6.432484967237932],[3.382407067938012,6.433337091529452],[3.382619044311966,6.43423830914458],[3.383777786161816,6.434153131295259],[3.3847665338287407,6.433813028159952],[3.384918648854416,6.433472924797005],[3.3848045625851086,6.433265083740968],[3.3845954044248643,6.433208399801787],[3.3844432893991545,6.432811612050858],[3.383853843674654,6.432773822725039],[3.383511584866935,6.432641560062708],[3.3828637936531014,6.432484967237932]]]}},{"type":"Feature","properties":{"Id":13,"Country":"Nigeria","City":"Lagos","Settlement":"Igboeseiyore","Last_updat":"19.03.2018","kyc_pop":6031,"kyc_area":0.0,"kyc_struct":578,"kyc_year":2018},"geometry":{"type":"Polygon","coordinates":[[[3.32161387202757,6.420322652542495],[3.326227182890818,6.419679332704731],[3.327252867478933,6.416808783731085],[3.323490234623704,6.415996953105605],[3.3214201035485758,6.4152831148039136],[3.321490118597637,6.414485692733308],[3.3201555828666756,6.4146354219502655],[3.317874716561789,6.415497358768504],[3.315079852319855,6.416135829262089],[3.3138269820925643,6.416614681819851],[3.3165313433190704,6.420779509055477],[3.32161387202757,6.420322652542495]]]}},{"type":"Feature","properties":{"Id":17,"Country":"Nigeria","City":"Lagos","Settlement":"Bayeku Itunmegba 36","Last_updat":"30.10.2016","kyc_pop":1269,"kyc_area":30.0,"kyc_struct":0,"kyc_year":2016},"geometry":{"type":"Polygon","coordinates":[[[3.5490811313795625,6.540235348685343],[3.5513871030714097,6.5385406596009386],[3.5518609328711355,6.5387132670852735],[3.552571677570691,6.53821113605614],[3.5528717697771066,6.538509276415476],[3.5533298052501867,6.538666192322728],[3.5542458761962803,6.538415126847525],[3.5546091457093154,6.53737948042971],[3.5554778336754698,6.536924422991941],[3.5560622237617205,6.536296756880998],[3.55675717413463,6.535574939879447],[3.556583436541419,6.535151264197711],[3.5560148407817813,6.535057113997461],[3.55539886204217,6.535449406381516],[3.5548302662825315,6.53548078975893],[3.5543248478295126,6.535355256237411],[3.5531560676569764,6.535982923530096],[3.552176819404231,6.536689048292638],[3.5516714009512107,6.536689048292638],[3.550186734245513,6.537332405541597],[3.548291415046774,6.537944378741737],[3.5490811313795625,6.540235348685343]]]}},{"type":"Feature","properties":{"Id":22,"Country":"Nigeria","City":"Lagos","Settlement":"Ebutte Ilaje","Last_updat":"16.05.2016","kyc_pop":7576,"kyc_area":0.0,"kyc_struct":286,"kyc_year":2016},"geometry":{"type":"Polygon","coordinates":[[[3.400322367391888,6.529688645524693],[3.39999914926986,6.52764528777599],[3.4003628141366904,6.527258172693304],[3.3999687845581947,6.526047999127623],[3.400354511285875,6.525441222154915],[3.4003330820232396,6.524727992141912],[3.4000511013936974,6.524522550913258],[3.3987258873247086,6.524887670591266],[3.3988128790025436,6.525757666692649],[3.3977508558742713,6.525813804593706],[3.3982730465972444,6.526413642275363],[3.397975863132049,6.526644130174443],[3.3982403788515234,6.527103201351358],[3.3983886334310225,6.527000095805199],[3.3987522982978535,6.527671095437558],[3.3988562025454954,6.528367901796339],[3.3989601067932043,6.529813126708169],[3.400322367391888,6.529688645524693]]]}},{"type":"Feature","properties":{"Id":19,"Country":"Nigeria","City":"Lagos","Settlement":"Agboyi 1 / Agboyi Town","Last_updat":"30.09.2016","kyc_pop":2160,"kyc_area":0.0,"kyc_struct":200,"kyc_year":2016},"geometry":{"type":"Polygon","coordinates":[[[3.4091025869154614,6.578924998164549],[3.409921266488485,6.579900943463491],[3.410958260614303,6.57998227215185],[3.4125683304412875,6.581337748330591],[3.413414299333406,6.582422126609861],[3.415297262351411,6.583479393152018],[3.416334256477195,6.583560721254364],[3.4174804078794616,6.581364857816497],[3.4165525710300573,6.580009381711669],[3.414451293459225,6.579060546237426],[3.4115586256345654,6.577894831602384],[3.411776940187326,6.576051370318451],[3.411367600400831,6.5748043191020615],[3.410521631508713,6.574533220597569],[3.4091298762345232,6.575590503929008],[3.4092663228300664,6.577515296014727],[3.4091025869154614,6.578924998164549]]]}},{"type":"Feature","properties":{"Id":20,"Country":"Nigeria","City":"Lagos","Settlement":"Agbajowo","Last_updat":"30.10.2016","kyc_pop":2220,"kyc_area":0.0,"kyc_struct":678,"kyc_year":2016},"geometry":{"type":"Polygon","coordinates":[[[3.391383879105197,6.48144636386605],[3.3908665936863853,6.480652516610689],[3.390400201905301,6.47960398837898],[3.389755721322137,6.478675591781034],[3.389360143465854,6.479123670478989],[3.388400742190907,6.4797965690518655],[3.388104456503061,6.4803853545668995],[3.3884430687177596,6.480623672318027],[3.388795789774755,6.481380680898366],[3.388640592509634,6.4816890914756815],[3.3894165788350032,6.482039557811928],[3.3906440481132374,6.481801240729773],[3.391383879105197,6.48144636386605]]]}},{"type":"Feature","properties":{"Id":21,"Country":"Nigeria","City":"Lagos","Settlement":"Itowolo","Last_updat":"05.01.2016","kyc_pop":2660,"kyc_area":87.0,"kyc_struct":171,"kyc_year":2016},"geometry":{"type":"Polygon","coordinates":[[[3.4391039962944556,6.611792543613137],[3.4400009695778015,6.613192696419338],[3.441081572064355,6.6143593288947296],[3.442315618410377,6.61378177000455],[3.443050782134438,6.614841840074262],[3.4443079065131244,6.615625941837046],[3.4444429146673436,6.6162268248869545],[3.4459450917503993,6.616148675654192],[3.4472022161291185,6.61748454845141],[3.448459340507738,6.618907539413027],[3.4500965257450797,6.62030148576645],[3.451499827377088,6.621375983394263],[3.4520260654890316,6.6215792664661635],[3.4526107745023853,6.622566640195661],[3.4540725470357345,6.622450478682921],[3.456323676737033,6.622014872766769],[3.4561482640330405,6.620708052711532],[3.45345860257171,6.621201740694609],[3.451938359137085,6.621114619321689],[3.4504181157024276,6.619982040074774],[3.448868636817065,6.618500970985249],[3.447640747889084,6.617165100937275],[3.4462959171584187,6.615742104955317],[3.446083793272099,6.614956014279494],[3.4450881415085113,6.614735003405372],[3.444541790118459,6.61519032990027],[3.4436647265984295,6.614667595069048],[3.4429338403317877,6.613854450899128],[3.441910599558471,6.612228158545144],[3.442349131318435,6.611821584620563],[3.441764422305115,6.610688984067174],[3.4407411815317968,6.6110955589233145],[3.4391039962944556,6.611792543613137]]]}},{"type":"Feature","properties":{"Id":23,"Country":"Nigeria","City":"Lagos","Settlement":"Idi-Iroko","Last_updat":"16.09.2016","kyc_pop":9380,"kyc_area":81.0,"kyc_struct":687,"kyc_year":2016},"geometry":{"type":"Polygon","coordinates":[[[3.4766775842618953,6.628307057750226],[3.4778148030374907,6.628088422067131],[3.478268409502481,6.628033473930474],[3.4774327887174192,6.627414914911132],[3.478002883766886,6.626769665097524],[3.4781065029905673,6.62687219703412],[3.480259852519594,6.624582718683653],[3.481641634472657,6.6222581014326645],[3.480919008512329,6.621160281367378],[3.479686293638904,6.62048469857516],[3.477985997261782,6.619851338867686],[3.476625760160025,6.619429098611332],[3.47479794155457,6.619640218784653],[3.474712926735738,6.621920310903397],[3.474287852641407,6.624242616122092],[3.475223015648834,6.6250026409106635],[3.4756055823336984,6.626480463536184],[3.4755630749242656,6.627493825063052],[3.4766775842618953,6.628307057750226]]]}},{"type":"Feature","properties":{"Id":26,"Country":"Nigeria","City":"Lagos","Settlement":"Daramola Abete","Last_updat":"01.12.2015","kyc_pop":1184,"kyc_area":6.838,"kyc_struct":43,"kyc_year":2015},"geometry":{"type":"Polygon","coordinates":[[[3.3562341711999872,6.466190472972668],[3.357204271804181,6.465985381592219],[3.3571113898314477,6.465349597784321],[3.3567273087581824,6.464716181120326],[3.356329587770838,6.463648979256199],[3.356361154674821,6.463393568312884],[3.3563791929057407,6.462573563886482],[3.3567625053116976,6.462582525690652],[3.356786582024265,6.4622710165878425],[3.3563064127342765,6.462129648158434],[3.356275452076776,6.463390968447999],[3.35611032856962,6.463913953987041],[3.355914244404897,6.4643241383450105],[3.3556355984866624,6.464816359135425],[3.3560071263776643,6.465308579446698],[3.3562341711999872,6.466190472972668]]]}},{"type":"Feature","properties":{"Id":28,"Country":"Nigeria","City":"Lagos","Settlement":"Irede","Last_updat":"15.03.2015","kyc_pop":2000,"kyc_area":34.0,"kyc_struct":152,"kyc_year":2015},"geometry":{"type":"Polygon","coordinates":[[[3.3708920356867993,6.42991703586341],[3.3721319747672065,6.430667033171046],[3.3725492462012663,6.430779017847538],[3.3728285602211794,6.429847696314244],[3.3734227595402135,6.42931628056379],[3.3742427546005107,6.429150951105927],[3.3748814049019984,6.427613465786836],[3.3745755062191964,6.4268009051428105],[3.3740169588592814,6.42558454543013],[3.372226317958112,6.4248411321513235],[3.3720241539775957,6.426113461057945],[3.3708920356867993,6.42991703586341]]]}},{"type":"Feature","properties":{"Id":27,"Country":"Nigeria","City":"Lagos","Settlement":"Akponawa","Last_updat":"22.02.2015","kyc_pop":1209,"kyc_area":36.0,"kyc_struct":118,"kyc_year":2015},"geometry":{"type":"Polygon","coordinates":[[[3.3725492462012663,6.430779017847538],[3.3736533088760097,6.431104197123639],[3.374708606866604,6.431387617929571],[3.3749082578378493,6.431019170851056],[3.375549993102386,6.430509012916854],[3.3767478989295885,6.428638429444934],[3.3748814049019984,6.427613465786823],[3.3742427546005107,6.429150951105927],[3.3734227595402135,6.429316280563776],[3.3728285602211794,6.429847696314231],[3.3725492462012663,6.430779017847538]]]}},{"type":"Feature","properties":{"Id":29,"Country":"Nigeria","City":"Lagos","Settlement":"Abete Ojora","Last_updat":"31.08.2015","kyc_pop":5760,"kyc_area":7.0,"kyc_struct":102,"kyc_year":2015},"geometry":{"type":"Polygon","coordinates":[[[3.358503857275572,6.464621963620126],[3.358334911942252,6.4645100495374965],[3.3583912270533474,6.464164980960041],[3.3573306257943702,6.4625328966603774],[3.3568637045707463,6.462293722520335],[3.3568017832555785,6.462673144278614],[3.3567580888315094,6.463493495485867],[3.3566079152019324,6.463558778835022],[3.3570396643870213,6.46458465892867],[3.357217995572112,6.464547354234412],[3.3576215872016864,6.464556680408232],[3.3576403589053965,6.464845791711053],[3.3584850855718624,6.464892422550885],[3.358503857275572,6.464621963620126]]]}},{"type":"Feature","properties":{"Id":30,"Country":"Nigeria","City":"Lagos","Settlement":"Itun Agan","Last_updat":"20.07.2015","kyc_pop":12465,"kyc_area":72.0,"kyc_struct":950,"kyc_year":2015},"geometry":{"type":"Polygon","coordinates":[[[3.3627752156376887,6.428070363230334],[3.362775215637688,6.425686259346204],[3.3631964459768398,6.4244851035383075],[3.362592072011961,6.424084717638906],[3.361621410795596,6.423666132043589],[3.3589108851347267,6.422956355682044],[3.3580501100937905,6.423429540033025],[3.357500679216611,6.424175714461892],[3.3575373079417763,6.42601384680166],[3.356566646725344,6.42676001744044],[3.356566646725344,6.427360593013199],[3.357665508479771,6.42772457786366],[3.358947513859859,6.427706378627332],[3.35991817507629,6.427597183195647],[3.360797264479759,6.427924769420367],[3.3620426411347815,6.428197757779813],[3.3627752156376887,6.428070363230334]]]}},{"type":"Feature","properties":{"Id":31,"Country":"Nigeria","City":"Lagos","Settlement":"Bishopkoji","Last_updat":"08.08.2014","kyc_pop":8015,"kyc_area":38.0,"kyc_struct":1421,"kyc_year":2014},"geometry":{"type":"Polygon","coordinates":[[[3.382619044311966,6.43423830914458],[3.382407067938012,6.433337091529452],[3.3828637936531014,6.432484967237932],[3.3823056844445794,6.432221742876531],[3.3818113106111176,6.431730480852049],[3.381351904756259,6.431401592474858],[3.3806251932268077,6.4303511691571344],[3.380073238256931,6.430625410319694],[3.379691334441549,6.430530589442764],[3.379373446022192,6.430301148945021],[3.378738763463696,6.4306839121821255],[3.379027653455831,6.431118870056241],[3.378948099279973,6.432481808144361],[3.378672121795068,6.433346718451686],[3.378607449830859,6.433506782154033],[3.3787782669815947,6.433642053341406],[3.3793584558221434,6.433893919669721],[3.3804422753800383,6.434300153879078],[3.3810317211045398,6.434281259271897],[3.382619044311966,6.43423830914458]]]}},{"type":"Feature","properties":{"Id":32,"Country":"Nigeria","City":"Lagos","Settlement":"Ilaje Otumara","Last_updat":"27.08.2014","kyc_pop":23760,"kyc_area":47.0,"kyc_struct":563,"kyc_year":2014},"geometry":{"type":"Polygon","coordinates":[[[3.378350790911931,6.477387439058756],[3.378049174835987,6.476789761942004],[3.377592829758994,6.476052933567456],[3.377036659196329,6.475613669986234],[3.377227006120399,6.475147177853438],[3.3769031014810844,6.475007714523918],[3.3765684000204086,6.4749004350135],[3.3759529812056335,6.475318824975239],[3.3750244545727064,6.476134148006893],[3.3735545670870613,6.477261475589498],[3.371450706718351,6.479019951840165],[3.3719180096091166,6.479459400847803],[3.3720877191757834,6.479813813197009],[3.372679338545703,6.479679788489129],[3.3733687308899403,6.479358141628901],[3.373668466691765,6.479113928135124],[3.374028400516285,6.478730390162493],[3.3744306294005253,6.478773210893686],[3.3743766452939785,6.479127230474914],[3.374527800792356,6.479416882674721],[3.375477921067841,6.4788590338452705],[3.3757802320645633,6.478998496110461],[3.3760501525973976,6.478687387927538],[3.3763416667727904,6.479030679704608],[3.377244628958033,6.478304743825857],[3.378350790911931,6.477387439058756]]]}},{"type":"Feature","properties":{"Id":33,"Country":"Nigeria","City":"Lagos","Settlement":"Ago Egun","Last_updat":"27.08.2015","kyc_pop":282,"kyc_area":7.0,"kyc_struct":37,"kyc_year":2015},"geometry":{"type":"Polygon","coordinates":[[[3.617975797227386,6.510857179909889],[3.6182738775231087,6.510869782369],[3.6192251976157785,6.510283767685294],[3.620030648627561,6.509533919941957],[3.6206712041566353,6.508721058518271],[3.6203794659948967,6.508557225823959],[3.6196628048584034,6.509149543773793],[3.618965170123797,6.509515016202806],[3.618305588192834,6.5099371995397],[3.617684059065646,6.5103215751049195],[3.617975797227386,6.510857179909889]]]}},{"type":"Feature","properties":{"Id":34,"Country":"Nigeria","City":"Lagos","Settlement":"Agbojedo Igbologun","Last_updat":"18.08.2017","kyc_pop":3190,"kyc_area":0.0,"kyc_struct":169,"kyc_year":2017},"geometry":{"type":"Polygon","coordinates":[[[3.3353803231454604,6.420647792179275],[3.3353752158202115,6.420531060485049],[3.3353752158202115,6.420272220545808],[3.3350177030543247,6.420023531068586],[3.3347010488901954,6.419653034275143],[3.3342618189205924,6.419637808373719],[3.3341596724160487,6.419927100422261],[3.334338428798992,6.420125036992349],[3.3343128921728824,6.420358500540224],[3.3349462005011072,6.420815276737288],[3.3353803231454604,6.420647792179275]]]}},{"type":"Feature","properties":{"Id":35,"Country":"Nigeria","City":"Lagos","Settlement":"Ago Egun","Last_updat":"08.09.2015","kyc_pop":2500,"kyc_area":8.0,"kyc_struct":286,"kyc_year":2015},"geometry":{"type":"Polygon","coordinates":[[[3.400707713753007,6.533983569146278],[3.4008092196289432,6.533818547494508],[3.4006984859460947,6.533415161005536],[3.4004308795458678,6.53331431433249],[3.4005139298080125,6.5330209420770995],[3.4003847405113383,6.5326358907308],[3.4003293736698637,6.532159160082038],[3.400357057090601,6.53164575733693],[3.40060620787707,6.531389055766812],[3.4006523469115324,6.531040674853926],[3.400080222883463,6.5311231861447],[3.3994711876277757,6.53120569742186],[3.3994527320139176,6.53170076479902],[3.399120530965371,6.531746604346262],[3.3991851256137244,6.532379189668632],[3.399268175875836,6.532709233867243],[3.399498871048446,6.5331492924599885],[3.3995357822760632,6.533479336150603],[3.3997757052555855,6.533846051106926],[3.3998956667453806,6.534157758608512],[3.400707713753007,6.533983569146278]]]}}]}