{
"type": "FeatureCollection",
"name": "Training_polygons",
"crs": { "type": "name", "properties": { "name": "urn:ogc:def:crs:OGC:1.3:CRS84" } },
"features": [
{ "type": "Feature", "properties": { "fid": 1, "class": 1.0 }, "geometry": { "type": "MultiPolygon", "coordinates": [ [ [ [ 3.33435781536609, 6.420352206887688 ], [ 3.334428264303326, 6.420159687326549 ], [ 3.334261926534853, 6.419994392695775 ], [ 3.334193434512539, 6.419978835551293 ], [ 3.334306935578087, 6.419739644395045 ], [ 3.334349987706398, 6.419743533683037 ], [ 3.334377384515322, 6.419716308666468 ], [ 3.334404781324247, 6.419714364022372 ], [ 3.334459574942096, 6.419646301474322 ], [ 3.33457698983749, 6.419675471138888 ], [ 3.334668964838881, 6.419710474734157 ], [ 3.33480790579843, 6.419737699751038 ], [ 3.334888139310281, 6.41982520872401 ], [ 3.334864656331203, 6.41990882839524 ], [ 3.334903794629667, 6.419957444476855 ], [ 3.334948803672901, 6.419941887331243 ], [ 3.334997726545982, 6.419998281981822 ], [ 3.335019252610137, 6.420062455197297 ], [ 3.335105356866758, 6.420171355180811 ], [ 3.335218857932304, 6.42023358373236 ], [ 3.335324531338158, 6.420258864079256 ], [ 3.335353885062007, 6.42030553548561 ], [ 3.335306919103849, 6.420393044360996 ], [ 3.335214944102459, 6.420531113889349 ], [ 3.335091658462296, 6.420622512007241 ], [ 3.334946846757978, 6.42080336355387 ], [ 3.334535894624103, 6.420501944273803 ], [ 3.334483057921175, 6.420451383602895 ], [ 3.334481101006252, 6.420422213982778 ], [ 3.33435781536609, 6.420352206887688 ] ] ] ] } },
{ "type": "Feature", "properties": { "fid": 2, "class": 1.0 }, "geometry": { "type": "MultiPolygon", "coordinates": [ [ [ [ 3.332192489003553, 6.420034257876346 ], [ 3.33236078368695, 6.420012866804234 ], [ 3.332491896986804, 6.420051759661949 ], [ 3.332691502308972, 6.419569488016314 ], [ 3.332601484222505, 6.419520871897662 ], [ 3.332619096456813, 6.419468366484306 ], [ 3.332515379965883, 6.419425584291641 ], [ 3.332462543262956, 6.419487812934328 ], [ 3.332296205494484, 6.419425584291641 ], [ 3.332356869857103, 6.419314739503018 ], [ 3.332255110281096, 6.419252510839181 ], [ 3.332106384746931, 6.419203894690267 ], [ 3.33196548687246, 6.419396414612763 ], [ 3.331983099106769, 6.419452809323752 ], [ 3.331912650169534, 6.41942752893684 ], [ 3.331857856551684, 6.41948975757929 ], [ 3.331949831553074, 6.419551986214135 ], [ 3.332000711341077, 6.419480034354407 ], [ 3.332100514002162, 6.419534484411352 ], [ 3.332249239536326, 6.419565598726993 ], [ 3.332217928897555, 6.419692000614733 ], [ 3.33218466134386, 6.419820347114796 ], [ 3.332167049109552, 6.41984951676939 ], [ 3.332192489003553, 6.420034257876346 ] ] ] ] } },
{ "type": "Feature", "properties": { "fid": 3, "class": -1.0 }, "geometry": { "type": "MultiPolygon", "coordinates": [ [ [ [ 3.337787308769018, 6.424606092754181 ], [ 3.338354814096749, 6.423544326171443 ], [ 3.340057330079945, 6.424462190453336 ], [ 3.339458514113442, 6.425516176633132 ], [ 3.337787308769018, 6.424606092754181 ] ] ] ] } },
{ "type": "Feature", "properties": { "fid": 4, "class": 1.0 }, "geometry": { "type": "MultiPolygon", "coordinates": [ [ [ [ 3.357834368277305, 6.427667859602222 ], [ 3.357767612618077, 6.426993442834657 ], [ 3.357901123936533, 6.426429585506567 ], [ 3.358145894687035, 6.425672246739263 ], [ 3.357934501766147, 6.425152612188371 ], [ 3.358401791380742, 6.425064163701319 ], [ 3.358485235954777, 6.425429013611301 ], [ 3.358902458824951, 6.425401373475764 ], [ 3.358958088540974, 6.42517472430773 ], [ 3.359074910944623, 6.425008883389105 ], [ 3.359175044433464, 6.424688257459818 ], [ 3.359175044433464, 6.424478192086254 ], [ 3.359392000325955, 6.424373159366954 ], [ 3.359325244666727, 6.42426259858637 ], [ 3.359575578388831, 6.424185206025671 ], [ 3.3611777142103, 6.424433967786034 ], [ 3.360710424595706, 6.42530739700371 ], [ 3.360215320123099, 6.425246588689014 ], [ 3.360232009037905, 6.425423485584314 ], [ 3.360465653845203, 6.425694358836042 ], [ 3.360376646299566, 6.426014984131286 ], [ 3.360053993946631, 6.426407473441751 ], [ 3.359775845366516, 6.426573313904458 ], [ 3.359542200559218, 6.426788906425143 ], [ 3.359058222029816, 6.427037666912387 ], [ 3.359058222029816, 6.427568355545215 ], [ 3.357834368277305, 6.427667859602222 ] ] ] ] } },
{ "type": "Feature", "properties": { "fid": 5, "class": 1.0 }, "geometry": { "type": "MultiPolygon", "coordinates": [ [ [ [ 3.379518831583153, 6.4338812965868 ], [ 3.379785854220066, 6.432659621470381 ], [ 3.379607839128791, 6.431880180155569 ], [ 3.381237789808272, 6.431283160467695 ], [ 3.382367073043543, 6.432322416509267 ], [ 3.383613178682463, 6.43277018042532 ], [ 3.384219542587116, 6.432991298263037 ], [ 3.383963645893409, 6.434041606678189 ], [ 3.382189057952268, 6.434218500513433 ], [ 3.380553544301185, 6.434257196031682 ], [ 3.379518831583153, 6.4338812965868 ] ] ] ] } },
{ "type": "Feature", "properties": { "fid": 6, "class": -1.0 }, "geometry": { "type": "MultiPolygon", "coordinates": [ [ [ [ 3.379841483936091, 6.444724225439526 ], [ 3.376948738702883, 6.436985222639305 ], [ 3.38422510555872, 6.437714905083982 ], [ 3.39263631862143, 6.434132817569682 ], [ 3.393237119554481, 6.435149956098614 ], [ 3.394416469534174, 6.434840392414084 ], [ 3.395684827059502, 6.438179247911934 ], [ 3.379841483936091, 6.444724225439526 ] ] ] ] } },
{ "type": "Feature", "properties": { "fid": 7, "class": -1.0 }, "geometry": { "type": "MultiPolygon", "coordinates": [ [ [ [ 3.353534191228712, 6.447941404723131 ], [ 3.352566234169909, 6.445829787632571 ], [ 3.357400456492326, 6.443900580039347 ], [ 3.358257154119084, 6.446089594398215 ], [ 3.353534191228712, 6.447941404723131 ] ] ] ] } },
{ "type": "Feature", "properties": { "fid": 8, "class": 1.0 }, "geometry": { "type": "MultiPolygon", "coordinates": [ [ [ [ 3.347726448875888, 6.445630786615677 ], [ 3.347398233551351, 6.444503112711739 ], [ 3.348872421025966, 6.44401666437134 ], [ 3.34928964389614, 6.445282534648222 ], [ 3.348421820326178, 6.445558925118164 ], [ 3.347726448875888, 6.445630786615677 ] ] ] ] } },
{ "type": "Feature", "properties": { "fid": 9, "class": -1.0 }, "geometry": { "type": "MultiPolygon", "coordinates": [ [ [ [ 3.322790428668483, 6.440202450991614 ], [ 3.32350248903358, 6.43786415818213 ], [ 3.324904357877366, 6.438267694116735 ], [ 3.324247927228292, 6.440655735821815 ], [ 3.322790428668483, 6.440202450991614 ] ] ] ] } },
{ "type": "Feature", "properties": { "fid": 10, "class": 1.0 }, "geometry": { "type": "MultiPolygon", "coordinates": [ [ [ [ 3.356298398990284, 6.463677712802213 ], [ 3.356815024530012, 6.464902730970296 ], [ 3.357092906449108, 6.465392737406551 ], [ 3.357163355386344, 6.465952744180754 ], [ 3.356290571330591, 6.466092745777383 ], [ 3.356180984094892, 6.465649407255059 ], [ 3.356016603241341, 6.465248846676902 ], [ 3.35577785962071, 6.464805507414584 ], [ 3.356298398990284, 6.463677712802213 ] ] ] ] } },
{ "type": "Feature", "properties": { "fid": 11, "class": 1.0 }, "geometry": { "type": "MultiPolygon", "coordinates": [ [ [ [ 3.352108644139686, 6.468443600128579 ], [ 3.352715287765883, 6.468387210863535 ], [ 3.352578303721256, 6.467731928253205 ], [ 3.352548949997409, 6.467475259462098 ], [ 3.352674192552494, 6.467311924708985 ], [ 3.352482414890019, 6.46712525635508 ], [ 3.352087118075531, 6.46724192408435 ], [ 3.352161480842613, 6.46767359444849 ], [ 3.352083204245684, 6.468008041504163 ], [ 3.352067548926299, 6.46817137603231 ], [ 3.352108644139686, 6.468443600128579 ] ] ] ] } },
{ "type": "Feature", "properties": { "fid": 12, "class": 1.0 }, "geometry": { "type": "MultiPolygon", "coordinates": [ [ [ [ 3.393029303723481, 6.462177434331048 ], [ 3.393622687361062, 6.462445918976822 ], [ 3.394035936680091, 6.462940772656423 ], [ 3.394242561339606, 6.462688081476265 ], [ 3.394470378271891, 6.462303780064459 ], [ 3.394639916454058, 6.461840512221009 ], [ 3.394708791340562, 6.461361450709434 ], [ 3.394655810658635, 6.460935032938407 ], [ 3.394560445431168, 6.460508614807993 ], [ 3.394332628498882, 6.460103254029842 ], [ 3.394126003839367, 6.459908470163789 ], [ 3.393914081111659, 6.459740008381335 ], [ 3.393739244861301, 6.460066403033905 ], [ 3.3933048032695, 6.460361210926236 ], [ 3.393061092132637, 6.46050335038438 ], [ 3.393161755428298, 6.461187724994253 ], [ 3.39322533224661, 6.46158782049122 ], [ 3.393156457360106, 6.461893156315496 ], [ 3.393246524519381, 6.461903685133735 ], [ 3.393161755428298, 6.462135319079565 ], [ 3.393029303723481, 6.462177434331048 ] ] ] ] } },
{ "type": "Feature", "properties": { "fid": 13, "class": -1.0 }, "geometry": { "type": "MultiPolygon", "coordinates": [ [ [ [ 3.410081136201654, 6.447644832375823 ], [ 3.415040128030013, 6.44782909184746 ], [ 3.415124897121095, 6.445249453151304 ], [ 3.413699716777262, 6.445149426080443 ], [ 3.413376534617508, 6.445033605236908 ], [ 3.411877181318977, 6.445712736169587 ], [ 3.411940758137289, 6.446149695901285 ], [ 3.411728835409581, 6.446197077054385 ], [ 3.411712941205003, 6.446644565504204 ], [ 3.410097030406233, 6.446602448961055 ], [ 3.410081136201654, 6.447644832375823 ] ] ] ] } },
{ "type": "Feature", "properties": { "fid": 14, "class": 1.0 }, "geometry": { "type": "MultiPolygon", "coordinates": [ [ [ [ 3.40990894898539, 6.455191519061026 ], [ 3.40919900784757, 6.453548998986847 ], [ 3.409490401598168, 6.452453982644971 ], [ 3.410708957282487, 6.453143632636222 ], [ 3.410841408987304, 6.452990962108386 ], [ 3.411969897512346, 6.453522676506392 ], [ 3.412102349217163, 6.453327890108537 ], [ 3.412467915922459, 6.453522676506392 ], [ 3.412150031830898, 6.454175473617892 ], [ 3.411683801829942, 6.453996480945232 ], [ 3.411662609557171, 6.454222854020654 ], [ 3.411991089785117, 6.454412375587381 ], [ 3.411821551602951, 6.454854592300607 ], [ 3.409564574552865, 6.453764843274951 ], [ 3.409511593870938, 6.453928042553676 ], [ 3.411445388761271, 6.454870385747509 ], [ 3.411312937056453, 6.455133609790031 ], [ 3.410465246145622, 6.454665070899362 ], [ 3.410343390577191, 6.454880914711836 ], [ 3.40990894898539, 6.455191519061026 ] ] ] ] } },
{ "type": "Feature", "properties": { "fid": 15, "class": 1.0 }, "geometry": { "type": "MultiPolygon", "coordinates": [ [ [ [ 3.376394360420625, 6.474158419571869 ], [ 3.376770088085882, 6.4743995294925 ], [ 3.37711059128252, 6.474197308276533 ], [ 3.37716538490037, 6.474333418719267 ], [ 3.377024487025899, 6.474485084597949 ], [ 3.377353248732998, 6.475021748110523 ], [ 3.377607647673017, 6.474912859907727 ], [ 3.377678096610252, 6.475060636748689 ], [ 3.377838563633955, 6.475060636748689 ], [ 3.378014685977045, 6.475192858096039 ], [ 3.379055764716194, 6.474730083228807 ], [ 3.379764167918397, 6.474512306673917 ], [ 3.379983342389797, 6.474496751202116 ], [ 3.380441260481829, 6.474407307229958 ], [ 3.379940290261486, 6.473135645563969 ], [ 3.379779823237782, 6.473143423320892 ], [ 3.379693718981161, 6.472995645918806 ], [ 3.37910273067435, 6.473116201171127 ], [ 3.378946177480494, 6.473104534535063 ], [ 3.378409982791534, 6.473279534047716 ], [ 3.377912926401038, 6.473454533499718 ], [ 3.377807252995185, 6.473520644388025 ], [ 3.377568509374552, 6.473660643887631 ], [ 3.37743935298962, 6.473567310892208 ], [ 3.377243661497299, 6.473575088642487 ], [ 3.377169298730217, 6.473711199252953 ], [ 3.376989262557281, 6.473738421370644 ], [ 3.376617448721871, 6.473555644266566 ], [ 3.376394360420625, 6.474158419571869 ] ] ] ] } },
{ "type": "Feature", "properties": { "fid": 16, "class": 1.0 }, "geometry": { "type": "MultiPolygon", "coordinates": [ [ [ [ 3.393994853240001, 6.491008614530694 ], [ 3.3952003128327, 6.492797432058826 ], [ 3.395607351136729, 6.493995158503416 ], [ 3.393055534076859, 6.495955068355877 ], [ 3.38973660636709, 6.494617352934264 ], [ 3.393994853240001, 6.491008614530694 ] ] ] ] } },
{ "type": "Feature", "properties": { "fid": 17, "class": -1.0 }, "geometry": { "type": "MultiPolygon", "coordinates": [ [ [ [ 3.387572258462016, 6.50524509271615 ], [ 3.387572258462016, 6.504078502179694 ], [ 3.387791432933417, 6.503464096741785 ], [ 3.388190643577752, 6.502904131637849 ], [ 3.38881685635318, 6.502398607049897 ], [ 3.389223894657207, 6.501784199558593 ], [ 3.3896700712597, 6.501247564553126 ], [ 3.390366732972365, 6.501457552232175 ], [ 3.390703322339157, 6.501939745829909 ], [ 3.390726805318235, 6.502593039643888 ], [ 3.389936211689257, 6.503432987585709 ], [ 3.389505690406151, 6.504062947620913 ], [ 3.388949926567958, 6.505416192433753 ], [ 3.387572258462016, 6.50524509271615 ] ] ] ] } },
{ "type": "Feature", "properties": { "fid": 18, "class": -1.0 }, "geometry": { "type": "MultiPolygon", "coordinates": [ [ [ [ 3.372691877385908, 6.509219257477536 ], [ 3.374077373151542, 6.50602281823577 ], [ 3.375431558278405, 6.506497230211567 ], [ 3.377928581720425, 6.505976154738542 ], [ 3.378374758322917, 6.508542640649189 ], [ 3.377325851924075, 6.511093559103188 ], [ 3.372691877385908, 6.509219257477536 ] ] ] ] } },
{ "type": "Feature", "properties": { "fid": 19, "class": 1.0 }, "geometry": { "type": "MultiPolygon", "coordinates": [ [ [ [ 3.362692042128291, 6.456308188203361 ], [ 3.363592222992969, 6.456331522250306 ], [ 3.364014916616384, 6.456654309789371 ], [ 3.363917070870223, 6.457688784130293 ], [ 3.363369134691723, 6.45774323008968 ], [ 3.362688128298446, 6.456759312920368 ], [ 3.362645076170135, 6.456560973654645 ], [ 3.362692042128291, 6.456308188203361 ] ] ] ] } },
{ "type": "Feature", "properties": { "fid": 20, "class": -1.0 }, "geometry": { "type": "MultiPolygon", "coordinates": [ [ [ [ 3.409679526349552, 6.455798727910357 ], [ 3.410337049763751, 6.454997590840306 ], [ 3.41155425084599, 6.455748170754085 ], [ 3.410642328491773, 6.456980986125391 ], [ 3.410035684865576, 6.456557084648654 ], [ 3.410125702952045, 6.45636263431122 ], [ 3.40981259656433, 6.456133182816996 ], [ 3.409648215710781, 6.45583761802713 ], [ 3.409679526349552, 6.455798727910357 ] ] ] ] } },
{ "type": "Feature", "properties": { "fid": 21, "class": -1.0 }, "geometry": { "type": "MultiPolygon", "coordinates": [ [ [ [ 3.415534615799805, 6.459644945996189 ], [ 3.416943594544519, 6.457723785104851 ], [ 3.418407366907082, 6.458392692153621 ], [ 3.417107975398068, 6.460733859862182 ], [ 3.415534615799805, 6.459644945996189 ] ] ] ] } },
{ "type": "Feature", "properties": { "fid": 22, "class": 1.0 }, "geometry": { "type": "MultiPolygon", "coordinates": [ [ [ [ 3.374562688052502, 6.47853532447472 ], [ 3.375271091254705, 6.478527546800872 ], [ 3.375736837006429, 6.478690877926458 ], [ 3.375787716794433, 6.47853532447472 ], [ 3.376046029564297, 6.478589768188283 ], [ 3.376183013608922, 6.478228106266644 ], [ 3.37637087744155, 6.477812000294177 ], [ 3.376605707232336, 6.478037553106888 ], [ 3.377118418942217, 6.477504781645719 ], [ 3.377482405117935, 6.477217007045865 ], [ 3.378073393424745, 6.476995342715181 ], [ 3.377709407249027, 6.476244794346266 ], [ 3.376997090216977, 6.475708132133914 ], [ 3.376355222122164, 6.475474800559278 ], [ 3.375165417848851, 6.476929232281917 ], [ 3.374703585926972, 6.47788588829565 ], [ 3.374562688052502, 6.47853532447472 ] ] ] ] } },
{ "type": "Feature", "properties": { "fid": 23, "class": -1.0 }, "geometry": { "type": "MultiPolygon", "coordinates": [ [ [ [ 3.361195815310188, 6.48813623762986 ], [ 3.360307788844097, 6.484831957649011 ], [ 3.363225590089821, 6.483598474283294 ], [ 3.366052776390025, 6.482202923771045 ], [ 3.365400348782285, 6.483949612191044 ], [ 3.364503260821644, 6.48631753579794 ], [ 3.363551803893691, 6.488919537881358 ], [ 3.361195815310188, 6.48813623762986 ] ] ] ] } },
{ "type": "Feature", "properties": { "fid": 24, "class": 1.0 }, "geometry": { "type": "MultiPolygon", "coordinates": [ [ [ [ 3.388726060467728, 6.481327838531612 ], [ 3.388534137947449, 6.480606510103439 ], [ 3.388962486760827, 6.480783387667882 ], [ 3.389746865756754, 6.480001256718354 ], [ 3.390041703251678, 6.480938155485887 ], [ 3.389819184387584, 6.480998957115684 ], [ 3.389885940046813, 6.481349948198941 ], [ 3.390517337323676, 6.481208999053123 ], [ 3.39050342989467, 6.481269800650269 ], [ 3.389746865756754, 6.481474315059594 ], [ 3.389493750548849, 6.480752986840907 ], [ 3.389415868946416, 6.480808261070408 ], [ 3.389605009980896, 6.481399694946883 ], [ 3.388867916243588, 6.481413513487107 ], [ 3.388726060467728, 6.481327838531612 ] ] ] ] } },
{ "type": "Feature", "properties": { "fid": 25, "class": -1.0 }, "geometry": { "type": "MultiPolygon", "coordinates": [ [ [ [ 3.368062402450904, 6.494527137373135 ], [ 3.371016340371737, 6.492758407178906 ], [ 3.3714057483839, 6.493598554796079 ], [ 3.371461378099923, 6.494173391831491 ], [ 3.369703479073589, 6.495162773268509 ], [ 3.368991418708492, 6.495101973348023 ], [ 3.368613136639533, 6.494996955286242 ], [ 3.368062402450904, 6.494527137373135 ] ] ] ] } },
{ "type": "Feature", "properties": { "fid": 26, "class": 1.0 }, "geometry": { "type": "MultiPolygon", "coordinates": [ [ [ [ 3.391969272911882, 6.503564146162009 ], [ 3.391807946735415, 6.503425966822183 ], [ 3.392069406400724, 6.503099863429577 ], [ 3.391546487070106, 6.502751651098817 ], [ 3.391023567739488, 6.50407817297264 ], [ 3.391296153348001, 6.504232933629855 ], [ 3.391685561360164, 6.504437438710935 ], [ 3.391969272911882, 6.503564146162009 ] ] ] ] } },
{ "type": "Feature", "properties": { "fid": 27, "class": -1.0 }, "geometry": { "type": "MultiPolygon", "coordinates": [ [ [ [ 3.412107230112285, 6.430224286651091 ], [ 3.412129481998694, 6.426918546954385 ], [ 3.412696905102131, 6.426288353336168 ], [ 3.414999975345492, 6.426465249869225 ], [ 3.415033353175107, 6.430445405596372 ], [ 3.412107230112285, 6.430224286651091 ] ] ] ] } },
{ "type": "Feature", "properties": { "fid": 28, "class": -1.0 }, "geometry": { "type": "MultiPolygon", "coordinates": [ [ [ [ 3.458869569401404, 6.445680269146727 ], [ 3.458825065628585, 6.440660995949957 ], [ 3.462307485851638, 6.440727330280711 ], [ 3.462329737738048, 6.446763718077076 ], [ 3.460605216541328, 6.446454161476039 ], [ 3.458869569401404, 6.445680269146727 ] ] ] ] } },
{ "type": "Feature", "properties": { "fid": 29, "class": -1.0 }, "geometry": { "type": "MultiPolygon", "coordinates": [ [ [ [ 3.361912537344541, 6.495809462877309 ], [ 3.362168434038248, 6.493874918837363 ], [ 3.363570302882033, 6.490204791999381 ], [ 3.365105683044273, 6.490746469028664 ], [ 3.366474174058444, 6.494648737345668 ], [ 3.364860912293771, 6.495234627710539 ], [ 3.361912537344541, 6.495809462877309 ] ] ] ] } },
{ "type": "Feature", "properties": { "fid": 30, "class": -1.0 }, "geometry": { "type": "MultiPolygon", "coordinates": [ [ [ [ 3.364260111360722, 6.49934136838176 ], [ 3.363425665620374, 6.495638117848218 ], [ 3.366585433490492, 6.494842191786851 ], [ 3.367775909413389, 6.498755482799293 ], [ 3.364260111360722, 6.49934136838176 ] ] ] ] } },
{ "type": "Feature", "properties": { "fid": 31, "class": 1.0 }, "geometry": { "type": "MultiPolygon", "coordinates": [ [ [ [ 3.495414120599966, 6.447096767601994 ], [ 3.495458624372785, 6.446933697737468 ], [ 3.496106710564455, 6.44703872579182 ], [ 3.496106710564455, 6.44713269824306 ], [ 3.496827115386956, 6.447367629294964 ], [ 3.496749233784523, 6.447679949230709 ], [ 3.495825780498538, 6.447420143279915 ], [ 3.495703395123287, 6.447284712465545 ], [ 3.49556710231903, 6.447234962361384 ], [ 3.49556710231903, 6.447154809405529 ], [ 3.495414120599966, 6.447096767601994 ] ] ] ] } },
{ "type": "Feature", "properties": { "fid": 32, "class": -1.0 }, "geometry": { "type": "MultiPolygon", "coordinates": [ [ [ [ 3.502143133556803, 6.449270991158657 ], [ 3.49767401480923, 6.447322749334325 ], [ 3.497702847833407, 6.443292539057328 ], [ 3.500144043880469, 6.443091982733216 ], [ 3.502162355572921, 6.443111083338928 ], [ 3.502143133556803, 6.449270991158657 ] ] ] ] } }
]
}
