{
"type": "FeatureCollection",
"name": "Training_polygons",
"features": [
{ "type": "Feature", "id": "1_0", "properties": { "class": 1 }, "geometry": { "type": "MultiPolygon", "coordinates": [ [ [ [ 36.867224261029101, -1.279611970991575 ], [ 36.86798600838933, -1.280276992855874 ], [ 36.868822857601977, -1.279665601793472 ], [ 36.869176909191943, -1.279016669015186 ], [ 36.869530960781908, -1.27809421883307 ], [ 36.869166180355883, -1.277461374911835 ], [ 36.867224261029101, -1.279611970991575 ] ] ], [ [ [ 36.868785306675768, -1.279805041873175 ], [ 36.869107171757555, -1.280148278960112 ], [ 36.870029851658678, -1.279558340188558 ], [ 36.870362445576525, -1.279408173934126 ], [ 36.870641395314074, -1.278587622460079 ], [ 36.871210023625231, -1.278389188404088 ], [ 36.871762558682299, -1.277944052492991 ], [ 36.871923491223193, -1.277439922572782 ], [ 36.871984031371447, -1.276731486861242 ], [ 36.872126188449236, -1.276468695620972 ], [ 36.872220065764758, -1.275873392916159 ], [ 36.872461464576098, -1.275385351857187 ], [ 36.872053768805834, -1.274752507269283 ], [ 36.871517327002856, -1.274591614552649 ], [ 36.870326426200243, -1.277573491266446 ], [ 36.870090391806933, -1.277906002484241 ], [ 36.869543221167895, -1.27845303697466 ], [ 36.86916771190581, -1.279407665512066 ], [ 36.868785306675768, -1.279805041873175 ] ] ], [ [ [ 36.841092256891791, -1.28846561578337 ], [ 36.841685025084082, -1.288776673341266 ], [ 36.842768637526099, -1.288232322590013 ], [ 36.842658666956488, -1.288063386126319 ], [ 36.842776684153144, -1.288012437031887 ], [ 36.842859832632605, -1.288049978469994 ], [ 36.842905430185859, -1.287964169467815 ], [ 36.842661349165503, -1.287881041994201 ], [ 36.842090038645331, -1.287618251898511 ], [ 36.841666249620978, -1.287639704152236 ], [ 36.841344384539191, -1.288299360866142 ], [ 36.841274647104804, -1.288261819431724 ], [ 36.841092256891791, -1.28846561578337 ] ] ], [ [ [ 36.837336247210473, -1.286106430088579 ], [ 36.837346976046533, -1.286176149953856 ], [ 36.838993852381677, -1.28638530953825 ], [ 36.840200846438378, -1.286229780618149 ], [ 36.840522711520165, -1.286438940198154 ], [ 36.840613906626672, -1.286310226612484 ], [ 36.839857523684472, -1.285484314283358 ], [ 36.83992189670083, -1.285698836991941 ], [ 36.839739506487817, -1.285854365944382 ], [ 36.838972394709558, -1.286063525555162 ], [ 36.838323300127954, -1.286160060754335 ], [ 36.837336247210473, -1.286106430088579 ] ] ], [ [ [ 36.841363463962871, -1.285049173292101 ], [ 36.841615591610271, -1.285405817345972 ], [ 36.84176847752412, -1.285700786074691 ], [ 36.841918681228954, -1.285971620968322 ], [ 36.842068156598636, -1.286104729404987 ], [ 36.84227193717421, -1.285752751984414 ], [ 36.842065407080064, -1.285570407687123 ], [ 36.841868264717469, -1.285420241785452 ], [ 36.841711355490098, -1.285264712806549 ], [ 36.841888381285081, -1.285039463923782 ], [ 36.841508848709474, -1.284733768979661 ], [ 36.841244651121507, -1.284938906380408 ], [ 36.841363463962871, -1.285049173292101 ] ] ], [ [ [ 36.786483861499448, -1.313923038120994 ], [ 36.786564327769895, -1.313059593756931 ], [ 36.786709167056699, -1.312517929748979 ], [ 36.78594205527844, -1.312324861361341 ], [ 36.784171797328611, -1.3131883059792 ], [ 36.783967949443479, -1.313558353581264 ], [ 36.784407831721921, -1.313654887729315 ], [ 36.784761883311887, -1.313660250737439 ], [ 36.785137392573972, -1.313869408044964 ], [ 36.785706020885129, -1.314223366525494 ], [ 36.786365844302793, -1.314309174634446 ], [ 36.786483861499448, -1.313923038120994 ] ] ], [ [ [ 36.790308691554685, -1.313435004386661 ], [ 36.790512539439817, -1.313386737308858 ], [ 36.790609098964353, -1.313038141719255 ], [ 36.790528632693906, -1.312861162401308 ], [ 36.790587641292234, -1.312796806282578 ], [ 36.790480352931638, -1.312609100926843 ], [ 36.790292598300596, -1.312319498350354 ], [ 36.790405251079221, -1.312244416195427 ], [ 36.790743209415098, -1.311970902611952 ], [ 36.79067347198071, -1.311863642374983 ], [ 36.790721751742979, -1.311708115023213 ], [ 36.79093632846417, -1.311847553339044 ], [ 36.791006065898557, -1.311713478035498 ], [ 36.790394522243162, -1.31112890962812 ], [ 36.789825893932004, -1.310817854823579 ], [ 36.789166070514341, -1.311220080856592 ], [ 36.788130737834592, -1.311520409585776 ], [ 36.790308691554685, -1.313435004386661 ] ] ], [ [ [ 36.866709072261415, -1.314385284139285 ], [ 36.866741258769594, -1.31464270844057 ], [ 36.866768080859742, -1.315972733574247 ], [ 36.867358166843019, -1.316015637599016 ], [ 36.867352802424989, -1.31582793248522 ], [ 36.867422539859376, -1.31562950134955 ], [ 36.867626387744508, -1.315372077150043 ], [ 36.868028719096742, -1.314766057575531 ], [ 36.868393499522767, -1.314133222818569 ], [ 36.868484694629274, -1.313875798464766 ], [ 36.868645627170167, -1.313618374084438 ], [ 36.868699271350465, -1.313409216755897 ], [ 36.86858661857184, -1.313398490738579 ], [ 36.868007261424623, -1.313312682598355 ], [ 36.86732598033484, -1.31329659357173 ], [ 36.867218691974244, -1.313334134633678 ], [ 36.866902191310487, -1.313543291968504 ], [ 36.866730529933534, -1.31363446310899 ], [ 36.866639334827028, -1.313773901317382 ], [ 36.866446215777955, -1.313875798464766 ], [ 36.866709072261415, -1.314385284139285 ] ] ], [ [ [ 36.870798209406949, -1.311122736008473 ], [ 36.870787755420388, -1.311975160344492 ], [ 36.871151936083614, -1.312091866889078 ], [ 36.871452668406583, -1.312163160421171 ], [ 36.871684849100461, -1.312267629757431 ], [ 36.872123553219872, -1.312371681375496 ], [ 36.872139313914396, -1.312184612466354 ], [ 36.872091034152128, -1.312066626215514 ], [ 36.872128585078336, -1.311921824900057 ], [ 36.872428992488004, -1.312012996099663 ], [ 36.872386077143766, -1.312168523432476 ], [ 36.872348526217557, -1.312318687744646 ], [ 36.872214415766813, -1.312291872689571 ], [ 36.872209325499632, -1.312450423140518 ], [ 36.872702867633961, -1.312903188289395 ], [ 36.873088139841393, -1.312939746966013 ], [ 36.873107825282645, -1.312776639024181 ], [ 36.8728631633699, -1.312717582700414 ], [ 36.87288003660526, -1.31246729637588 ], [ 36.87302627131173, -1.312509479464285 ], [ 36.873082515429601, -1.312419488875688 ], [ 36.873164069400516, -1.312458859758199 ], [ 36.873135947341581, -1.312605094464669 ], [ 36.873268121018583, -1.312624779905924 ], [ 36.873450914401673, -1.31279913667133 ], [ 36.874199250437833, -1.312576112258825 ], [ 36.874252894618131, -1.31227578365638 ], [ 36.873367765643216, -1.312130982353022 ], [ 36.872788408496, -1.311814564660976 ], [ 36.872091034152128, -1.311487420903408 ], [ 36.871865728594877, -1.311487420903408 ], [ 36.87128100702963, -1.311149551076093 ], [ 36.871141532160856, -1.311106646967777 ], [ 36.870798209406949, -1.311122736008473 ] ] ], [ [ [ 36.836131727641188, -1.307728302428468 ], [ 36.835809862559401, -1.308645378820048 ], [ 36.836115634387099, -1.309010064075568 ], [ 36.836652076190077, -1.307910645129514 ], [ 36.836131727641188, -1.307728302428468 ] ] ], [ [ [ 36.836163914149367, -1.309042242183805 ], [ 36.836850559657179, -1.309755523476967 ], [ 36.837006127780043, -1.30950346168979 ], [ 36.837016856616103, -1.309160228577134 ], [ 36.837188517993056, -1.308800906361976 ], [ 36.837204611247145, -1.308570296554971 ], [ 36.837483560984694, -1.308001816475069 ], [ 36.837605536572759, -1.307871684183429 ], [ 36.83678075730068, -1.307907884571595 ], [ 36.836163914149367, -1.309042242183805 ] ] ], [ [ [ 36.839340926644049, -1.308623888292698 ], [ 36.839306057926855, -1.308800867910139 ], [ 36.839099527832708, -1.309256724442998 ], [ 36.840038300987921, -1.309457837592903 ], [ 36.840075851914129, -1.309141419563095 ], [ 36.839979292389593, -1.308462997720546 ], [ 36.839268507000646, -1.308350374313918 ], [ 36.839340926644049, -1.308623888292698 ] ] ], [ [ [ 36.845625847584287, -1.311627486588268 ], [ 36.845175236469785, -1.312426575318649 ], [ 36.846084505325834, -1.31290388323044 ], [ 36.846392959362547, -1.311809829005596 ], [ 36.845625847584287, -1.311627486588268 ] ] ], [ [ [ 36.793654822354213, -1.315608368685135 ], [ 36.793847941403286, -1.315747806783288 ], [ 36.794180535321132, -1.315967689922246 ], [ 36.794255637173549, -1.316117854006001 ], [ 36.794464849476711, -1.316273381083213 ], [ 36.794620417599575, -1.316327011107591 ], [ 36.795038842205898, -1.316541531193566 ], [ 36.795113944058315, -1.316380641130825 ], [ 36.795189045910732, -1.316048134968241 ], [ 36.795274876599208, -1.315468930579182 ], [ 36.795419715886013, -1.314825369989209 ], [ 36.795583622173552, -1.314504619618392 ], [ 36.795320765690093, -1.314256580564843 ], [ 36.795134352163558, -1.314150661177707 ], [ 36.794997559503798, -1.314149320425949 ], [ 36.79477627726007, -1.314054127048816 ], [ 36.794738726333861, -1.314114460879805 ], [ 36.794387128193776, -1.313707988801077 ], [ 36.793893601735036, -1.314110214369245 ], [ 36.794311404399345, -1.314680448162522 ], [ 36.793968081645438, -1.314943235438739 ], [ 36.793892979793021, -1.315071947563925 ], [ 36.793640852145622, -1.315248926725223 ], [ 36.793345809153983, -1.315350823812406 ], [ 36.793276071719596, -1.315474172912368 ], [ 36.793654822354213, -1.315608368685135 ] ] ], [ [ [ 36.858435148563636, -1.26140464634216 ], [ 36.858488792743934, -1.261876600687215 ], [ 36.859035963382972, -1.261876600687215 ], [ 36.859883541431678, -1.261554813643059 ], [ 36.860157126751197, -1.261383193869905 ], [ 36.860398525562537, -1.261136490426162 ], [ 36.860516542759193, -1.260879060720797 ], [ 36.860478991832984, -1.26058408915211 ], [ 36.859760159816993, -1.26070744090309 ], [ 36.859524125423683, -1.26077179833605 ], [ 36.859352464046729, -1.260948781268519 ], [ 36.859137887325538, -1.261045317408424 ], [ 36.858885759678138, -1.261168669137534 ], [ 36.858435148563636, -1.26140464634216 ] ] ], [ [ [ 36.861177680532364, -1.25772778779508 ], [ 36.861486134569077, -1.258475943710571 ], [ 36.862060127298264, -1.2583418656053 ], [ 36.86191528801146, -1.257397955549155 ], [ 36.861698029081253, -1.257317508653579 ], [ 36.861327884237198, -1.257494491820569 ], [ 36.861301062147049, -1.257663430286957 ], [ 36.861177680532364, -1.25772778779508 ] ] ], [ [ [ 36.878460358433479, -1.316332200288619 ], [ 36.878202866368049, -1.31677196644407 ], [ 36.878835867695564, -1.317351170530429 ], [ 36.879501055531257, -1.317619320524819 ], [ 36.879780005268806, -1.317522786530161 ], [ 36.88068122749781, -1.318284332386312 ], [ 36.881357144169563, -1.317512060530527 ], [ 36.87968344574427, -1.316975760489802 ], [ 36.879254292301887, -1.316965034487814 ], [ 36.878460358433479, -1.316332200288619 ] ] ], [ [ [ 36.873868715571433, -1.319070389910235 ], [ 36.875038158701926, -1.319864113261655 ], [ 36.876572382258445, -1.317611654442051 ], [ 36.875413667964011, -1.316817930372526 ], [ 36.873868715571433, -1.319070389910235 ] ] ], [ [ [ 36.849558747103984, -1.262673372263997 ], [ 36.849252975276286, -1.263981972098831 ], [ 36.849977171710307, -1.263880072955025 ], [ 36.850325858882243, -1.263644095975087 ], [ 36.850476062587077, -1.263392029631931 ], [ 36.850873029521281, -1.263472476339855 ], [ 36.851500666430766, -1.263842531164195 ], [ 36.8516508701356, -1.262657282917675 ], [ 36.850245392611797, -1.262550020606246 ], [ 36.849558747103984, -1.262673372263997 ] ] ], [ [ [ 36.854974439553317, -1.26424872311594 ], [ 36.855081727913912, -1.265315982219402 ], [ 36.856739333085116, -1.26533743465919 ], [ 36.856910994462069, -1.265069279149069 ], [ 36.857495716027316, -1.265031737375439 ], [ 36.857447436265048, -1.264565146715001 ], [ 36.856428196839389, -1.264506152487588 ], [ 36.855425050667819, -1.264254086228119 ], [ 36.854974439553317, -1.26424872311594 ] ] ], [ [ [ 36.847000959305781, -1.311993007496771 ], [ 36.846998277096766, -1.312727739989877 ], [ 36.848304512887019, -1.313041476061668 ], [ 36.848355474858302, -1.312805503635266 ], [ 36.848661246686, -1.312797459120344 ], [ 36.84876585283758, -1.312017141049248 ], [ 36.848114076046961, -1.312025185566689 ], [ 36.847000959305781, -1.311993007496771 ] ] ], [ [ [ 36.837830943294172, -1.307800870089203 ], [ 36.837771934695844, -1.308921741156518 ], [ 36.838962835498457, -1.309307878441675 ], [ 36.839284700580244, -1.308642864191356 ], [ 36.839193505473737, -1.308304993980492 ], [ 36.839102310367231, -1.307500540914347 ], [ 36.837830943294172, -1.307800870089203 ] ] ], [ [ [ 36.868734447366968, -1.316970876976032 ], [ 36.871094791300074, -1.318606591742444 ], [ 36.871588317758814, -1.317823593988293 ], [ 36.869077770120875, -1.316397035803539 ], [ 36.868734447366968, -1.316970876976032 ] ] ], [ [ [ 36.840608882510352, -1.286451586111964 ], [ 36.841284799182105, -1.28727213506383 ], [ 36.84166567286222, -1.287470568430849 ], [ 36.842309403025794, -1.287379396345217 ], [ 36.842776107394386, -1.287175599906717 ], [ 36.843103336894202, -1.286682197935567 ], [ 36.842808293902564, -1.286505216770481 ], [ 36.842212843501258, -1.287068338616767 ], [ 36.84254099033636, -1.286571122814103 ], [ 36.842138658984126, -1.286297606450989 ], [ 36.841894577963771, -1.286190345124107 ], [ 36.84167463682455, -1.286522855222742 ], [ 36.841325949652614, -1.286418275438331 ], [ 36.841084550841273, -1.28617961899117 ], [ 36.840864609702052, -1.286142077525545 ], [ 36.840608882510352, -1.286451586111964 ] ] ], [ [ [ 36.90969332560536, -1.284699343159461 ], [ 36.909258807744948, -1.285530618810366 ], [ 36.912010754194228, -1.286823117833168 ], [ 36.912423814382521, -1.285900670464685 ], [ 36.90969332560536, -1.284699343159461 ] ] ], [ [ [ 36.914571181964348, -1.282615184088488 ], [ 36.9170119921679, -1.283698524798928 ], [ 36.917151467036675, -1.28329629439068 ], [ 36.914796487521599, -1.282261221182674 ], [ 36.914571181964348, -1.282615184088488 ] ] ], [ [ [ 36.913965002726982, -1.28388623230113 ], [ 36.91628243131585, -1.284991024748989 ], [ 36.916432635020684, -1.284685329799091 ], [ 36.914168850612114, -1.28355908493124 ], [ 36.913965002726982, -1.28388623230113 ] ] ], [ [ [ 36.910215274524163, -1.283092497626363 ], [ 36.910435215663384, -1.283183669865044 ], [ 36.910574690532158, -1.283146128355387 ], [ 36.912725822162102, -1.284004219866887 ], [ 36.912741915416191, -1.28367170944035 ], [ 36.91029037637658, -1.282722445565428 ], [ 36.910215274524163, -1.283092497626363 ] ] ] ] } },
{ "type": "Feature", "id": "2_0", "properties": { "class": -1 }, "geometry": { "type": "MultiPolygon", "coordinates": [ [ [ [ 36.773980084448738, -1.287350353040922 ], [ 36.773888889342231, -1.288385424186147 ], [ 36.774103466063423, -1.288498048482288 ], [ 36.77616876700489, -1.288642851141427 ], [ 36.776383343726081, -1.288540952974739 ], [ 36.776501360922737, -1.288117271080068 ], [ 36.776742759734077, -1.286594160902342 ], [ 36.776560369521064, -1.286481536522083 ], [ 36.773980084448738, -1.287350353040922 ] ] ], [ [ [ 36.78713331612169, -1.289364472607755 ], [ 36.786940197072617, -1.289589721108448 ], [ 36.787262062154404, -1.291906561672218 ], [ 36.787530283055894, -1.292206892701795 ], [ 36.790502170644395, -1.292871911283774 ], [ 36.790748933873765, -1.292657389179585 ], [ 36.790191034398667, -1.289107045725424 ], [ 36.78713331612169, -1.289364472607755 ] ] ], [ [ [ 36.800143513892529, -1.310261604051781 ], [ 36.799156460975048, -1.311870508153542 ], [ 36.80210689089143, -1.314498382627491 ], [ 36.802933011268017, -1.310722823333333 ], [ 36.800143513892529, -1.310261604051781 ] ] ], [ [ [ 36.797206244814923, -1.308361230340671 ], [ 36.797967992175153, -1.308892169211123 ], [ 36.798016271937421, -1.309240765378072 ], [ 36.798381052363446, -1.30920858727238 ], [ 36.798305950511029, -1.308742004693514 ], [ 36.798879943240216, -1.307894647604177 ], [ 36.797994814265301, -1.307234996001117 ], [ 36.797222338069012, -1.30831832618462 ], [ 36.797206244814923, -1.308361230340671 ] ] ], [ [ [ 36.87562986252231, -1.274420943511654 ], [ 36.875694235538667, -1.275901156223564 ], [ 36.876064380382722, -1.276249756919522 ], [ 36.877335747455781, -1.275992328717833 ], [ 36.877351840189164, -1.274418262008775 ], [ 36.87562986252231, -1.274420943511654 ] ] ], [ [ [ 36.863477347667121, -1.302531305933067 ], [ 36.864206908519172, -1.307154235182287 ], [ 36.86676037150135, -1.306843179884697 ], [ 36.866234658534431, -1.303131965433885 ], [ 36.86551582651844, -1.302306058583353 ], [ 36.863477347667121, -1.302531305933067 ] ] ], [ [ [ 36.877836149949538, -1.321748577150753 ], [ 36.87927917839955, -1.323180495253366 ], [ 36.879579585809218, -1.323062509523336 ], [ 36.880164307374464, -1.322456491821586 ], [ 36.880121392030226, -1.322199068328276 ], [ 36.878799430968172, -1.320801277770696 ], [ 36.877857975603945, -1.321739801322979 ], [ 36.877836149949538, -1.321748577150753 ] ] ], [ [ [ 36.830440701832138, -1.300274631802287 ], [ 36.83139556824144, -1.302140967881933 ], [ 36.836481036533677, -1.299652519468998 ], [ 36.836556138386094, -1.299341463244887 ], [ 36.83564418732103, -1.297689646792516 ], [ 36.830440701832138, -1.300274631802287 ] ] ], [ [ [ 36.82735473513312, -1.28268972188521 ], [ 36.826249665018985, -1.28450244018836 ], [ 36.826882666346499, -1.286089908415476 ], [ 36.830197876688906, -1.28450244018836 ], [ 36.82735473513312, -1.28268972188521 ] ] ], [ [ [ 36.84459638407025, -1.270562565996708 ], [ 36.848287103674743, -1.269827821315539 ], [ 36.847965238592955, -1.268293974081896 ], [ 36.844269154570433, -1.2690823502212 ], [ 36.84459638407025, -1.270562565996708 ] ] ], [ [ [ 36.827123263050339, -1.317432183782124 ], [ 36.826897957493088, -1.318483331560702 ], [ 36.825921633411667, -1.318343893615597 ], [ 36.823722222019455, -1.317904127737591 ], [ 36.823411085773728, -1.319094713227784 ], [ 36.822885372806809, -1.319748998705101 ], [ 36.824988224674485, -1.321701128122338 ], [ 36.825653412510178, -1.320907405357463 ], [ 36.827681162525437, -1.321197006936199 ], [ 36.828872063328049, -1.321432978567984 ], [ 36.829537251163742, -1.317882675741554 ], [ 36.827123263050339, -1.317432183782124 ] ] ], [ [ [ 36.895693278652622, -1.313669082758922 ], [ 36.896884179455235, -1.315454963814651 ], [ 36.898568606716587, -1.314430629791739 ], [ 36.897683477741673, -1.312993343648104 ], [ 36.896674967152073, -1.313095240827294 ], [ 36.895693278652622, -1.313669082758922 ] ] ], [ [ [ 36.875020327101566, -1.288398009751082 ], [ 36.87616831255994, -1.290543233572537 ], [ 36.876511635313847, -1.291851819215278 ], [ 36.881092848311283, -1.291787462560078 ], [ 36.881114305983402, -1.29004983225372 ], [ 36.88018089724622, -1.287196683621836 ], [ 36.879751743803837, -1.287046517815874 ], [ 36.87966591311536, -1.286553115819738 ], [ 36.875020327101566, -1.288398009751082 ] ] ] ] } }
]
}
