{"type":"FeatureCollection","name":"kyc_cleaned_settlements","crs":{"type":"name","properties":{"name":"urn:ogc:def:crs:OGC:1.3:CRS84"}},"features":[{"type":"Feature","properties":{"Country":"Sierra Leone","City":"Freetown","Settlement":"Gray Bush","Establishe":"1990","Last_Updat":"31-03-2017","Population":"2100","Structures":"211","url":"https://sdinet.org/settlement/1860/16731634","pop":2100.0,"kyc_year":2017.0},"geometry":{"type":"Polygon","coordinates":[[[-13.2496285328792,8.48507517481151],[-13.250302532887,8.48500756591012],[-13.2504399985247,8.48530378525497],[-13.2500558092942,8.4855601769546],[-13.2499276100321,8.48563915422859],[-13.249642934115,8.48529096088485],[-13.2495402826573,8.48544469762411],[-13.2489238493136,8.48544460307332],[-13.2483882042133,8.48519209803516],[-13.2480792627374,8.48517356582753],[-13.2471655894237,8.48491699580753],[-13.2471104005562,8.48472905744338],[-13.2470787995514,8.48458362296867],[-13.2478210677075,8.48465919655914],[-13.2479686189586,8.48461105000961],[-13.2480475190754,8.48453352995767],[-13.2483289781236,8.48449220844555],[-13.2485116623073,8.4845978983049],[-13.2496285328792,8.48507517481151]]]}},{"type":"Feature","properties":{"Country":"Sierra Leone","City":"Freetown","Settlement":"Kanikay","Establishe":"1908","Last_Updat":"13-03-2017","Population":"7425","Structures":"503","url":"https://sdinet.org/settlement/1860/13581275","pop":7425.0,"kyc_year":2017.0},"geometry":{"type":"Polygon","coordinates":[[[-13.2058375159083,8.48752643639206],[-13.2058375159083,8.48752643639207],[-13.2058044362288,8.48768446176356],[-13.2058267568065,8.48773584057127],[-13.2058414673628,8.48780537348963],[-13.2058709810805,8.4878581418824],[-13.205898655132,8.48789362022084],[-13.2059741437813,8.487918275175],[-13.2060219706926,8.48790003220614],[-13.2060802364784,8.48794286319658],[-13.2060742915364,8.48800114106963],[-13.2061145537837,8.488008210093],[-13.2061539925384,8.48799951494982],[-13.2061787260523,8.487980079412],[-13.2062128535099,8.48795123996204],[-13.2062158109,8.48789825463],[-13.2062693143256,8.4878911780906],[-13.2063167238157,8.48785122225399],[-13.2063565438325,8.48785051982626],[-13.206396686591,8.48780759986952],[-13.2064363894545,8.48776860217892],[-13.206478966087,8.48772993273265],[-13.206566914324,8.48772852117377],[-13.2065503658746,8.48769799963507],[-13.2065655726605,8.48760653847676],[-13.2065583991794,8.48753652109153],[-13.2066526971295,8.4874924965921],[-13.2066638098399,8.48743071431427],[-13.2067357006014,8.4873376860778],[-13.2067736033876,8.48728118755659],[-13.2067851332587,8.48718940000801],[-13.2068168672,8.4871560658],[-13.2069249659344,8.48715515084002],[-13.2070089535908,8.4871628070751],[-13.2070445653708,8.487162195487],[-13.2071193715381,8.48720586334906],[-13.2070576185472,8.48733600295731],[-13.2070153635634,8.48742871209748],[-13.2070084650693,8.4875558463497],[-13.207065558865,8.48764553279488],[-13.207108245,8.4876648008],[-13.2071507964393,8.4876693262221],[-13.2071312918634,8.487791338883],[-13.2071127320941,8.48790313570288],[-13.20706564697,8.48793283144876],[-13.2070131352341,8.48793415687004],[-13.2069964657132,8.48796206780612],[-13.2069659994668,8.48800130308371],[-13.2069132337046,8.4880418952589],[-13.2068261871534,8.48805091865361],[-13.2068586422616,8.4881044721076],[-13.2068340661239,8.48814172344982],[-13.2067199442331,8.48814962398546],[-13.2065902802178,8.48821025814586],[-13.2065214027498,8.48814850972288],[-13.2064746124364,8.48813988039065],[-13.2062878243871,8.48812572477354],[-13.2062245630042,8.48815200437351],[-13.2061391715469,8.48813786363648],[-13.2060835547158,8.48813885506842],[-13.2060253329363,8.4881667802608],[-13.2058931610371,8.48819869125271],[-13.2058218810344,8.48819918180952],[-13.2057518314466,8.48823332891903],[-13.2056515124247,8.4882868922649],[-13.2054063304867,8.48827525509207],[-13.2053558452368,8.48819948983466],[-13.2052640408771,8.48819885788589],[-13.2052172480562,8.48816144827535],[-13.2051844648356,8.48812004536471],[-13.2051603303591,8.48807306535892],[-13.2050932983956,8.48802694284005],[-13.2049984319705,8.48804166298663],[-13.204962276917,8.48804192803809],[-13.2049645892438,8.48799242231801],[-13.2049508085308,8.4879330893825],[-13.204947408485,8.48786757813916],[-13.2048779473634,8.48787478660059],[-13.2047510698429,8.48790852254024],[-13.2046681364763,8.48791843559792],[-13.2046650983375,8.487873644346],[-13.2046981675983,8.48782607051358],[-13.2047480653033,8.48776563088725],[-13.2047059899798,8.4877280575123],[-13.2046452399889,8.48772718763524],[-13.2046106098615,8.487686699229],[-13.2045671262463,8.48767616561544],[-13.2044753707523,8.48764528507453],[-13.2044167811243,8.48760838974442],[-13.204375586334,8.4875881688815],[-13.204369183229,8.4875199749165],[-13.204365737814,8.48747065881462],[-13.2043953108462,8.4874185786863],[-13.2044585447189,8.48735147229111],[-13.2045038130025,8.48731041462386],[-13.2045827525494,8.48728271615228],[-13.20466721924,8.4872553014],[-13.2047340746873,8.4872216393465],[-13.2047979088569,8.48720364496414],[-13.2048712820699,8.4872012463691],[-13.2049435247268,8.48719204956631],[-13.2050391163752,8.4871920492955],[-13.20506798703,8.48715493211771],[-13.2051232121946,8.48713923723355],[-13.2051995172205,8.48716435597131],[-13.2052467467032,8.4871303250057],[-13.2052916810869,8.48716435576725],[-13.2054071292032,8.48721955388391],[-13.2054536770266,8.4872599047093],[-13.205519701262,8.4872974331848],[-13.205613925644,8.48734798835256],[-13.2056588099904,8.48739791448779],[-13.2057563197768,8.48744567298416],[-13.2058375159083,8.48752643639206]]]}},{"type":"Feature","properties":{"Country":"Sierra Leone","City":"Freetown","Settlement":"Mabella","Establishe":"1979","Last_Updat":"10-06-2014","Population":"1800","Structures":"383","url":"https://sdinet.org/settlement/1860/1703779","pop":1800.0,"kyc_year":2014.0},"geometry":{"type":"Polygon","coordinates":[[[-13.2254826794421,8.49092273775754],[-13.22545492593895,8.490584106288848],[-13.22608996995109,8.4908699500071],[-13.22659153598261,8.491260405908287],[-13.22686586354833,8.490867070860324],[-13.22699677772554,8.490678851852262],[-13.22704726044464,8.490639783256237],[-13.22755329045809,8.491382141626065],[-13.22759346552912,8.49192178266664],[-13.22699905449499,8.491986923234288],[-13.22570402004266,8.491365724541541],[-13.22539719526383,8.491127432709424],[-13.2254826794421,8.49092273775754]]]}},{"type":"Feature","properties":{"Country":"Sierra Leone","City":"Freetown","Settlement":"Madina","Establishe":"1990","Last_Updat":"20-02-2017","Population":"11368","Structures":"268","url":"https://sdinet.org/settlement/1860/13581248","pop":11368.0,"kyc_year":2017.0},"geometry":{"type":"Polygon","coordinates":[[[-13.27827627490162,8.475949825538732],[-13.27818214525675,8.476193430142176],[-13.2780760935145,8.476299437176914],[-13.27802315397928,8.476260518075591],[-13.27801997037164,8.47622828428772],[-13.27795100895283,8.476134035195347],[-13.27790509505165,8.476106781871366],[-13.27782699061336,8.47597028029746],[-13.27776861747119,8.47589170009729],[-13.27770260683384,8.475783622549205],[-13.27762130692983,8.475736929854556],[-13.27773136539778,8.47567488385678],[-13.2778524975914,8.47557680952631],[-13.27791642546734,8.475530394451026],[-13.27794483256013,8.475473777338811],[-13.27797868098787,8.475396458087788],[-13.27800984953689,8.475356420761946],[-13.27805044573225,8.475309311075884],[-13.27808137255203,8.475244666163261],[-13.27815141948097,8.47517518162172],[-13.27817540755458,8.475128588137169],[-13.27822652631995,8.475071495868479],[-13.27826285510817,8.47501779270611],[-13.27832225303149,8.47492723169675],[-13.27836612781753,8.474869882555836],[-13.27842687301286,8.474800836846823],[-13.27848338861899,8.474730424829385],[-13.27850151214074,8.474683850653802],[-13.27853946476665,8.474596123549343],[-13.27856888297125,8.474549576759948],[-13.27858975207826,8.474495517553658],[-13.27859979561428,8.474434441194067],[-13.27870674418172,8.474408494621809],[-13.27872963581722,8.474372855390582],[-13.27871857961856,8.474291869242903],[-13.27871826972512,8.474202054381488],[-13.27873067875512,8.474127480735646],[-13.27875131026928,8.47407112856863],[-13.27876671096655,8.473931874560906],[-13.27878636633774,8.473781564050777],[-13.27881652539429,8.473624247411392],[-13.27881365326894,8.473477879947847],[-13.27881491768824,8.473412281769715],[-13.27881718767987,8.473323963835737],[-13.2788594173489,8.473254614244734],[-13.27885738786149,8.473152172718239],[-13.27886536457119,8.473005484942442],[-13.27891330430993,8.472966429301081],[-13.27886773313711,8.47286977318811],[-13.2788765831399,8.472788360615066],[-13.27888643947073,8.472692938370981],[-13.27890753539848,8.47259055454349],[-13.2789060750246,8.472518535866023],[-13.27890173677214,8.472443241764596],[-13.27892294659166,8.472334310046358],[-13.27892115219661,8.472243069174265],[-13.27889274896882,8.47216562729867],[-13.27881315312744,8.472033689378929],[-13.27879890171622,8.471908090613033],[-13.2787569975082,8.471792197575919],[-13.27871424107977,8.471675754680524],[-13.27869612327062,8.471581647849659],[-13.27869774809443,8.471481354158445],[-13.27868552770963,8.471399512036738],[-13.27865531643448,8.471331987440507],[-13.27863264231105,8.471159079742812],[-13.2786336909012,8.471050690731992],[-13.27863866983328,8.470908085315942],[-13.27874814340549,8.470894022460168],[-13.2787093385935,8.470810636607213],[-13.27872368099403,8.4707125705124],[-13.27870219977561,8.470589261861544],[-13.27867183852985,8.470493832711059],[-13.27863761688394,8.470418213096094],[-13.2786072421091,8.470384487545841],[-13.27856510017727,8.470287212860605],[-13.27847542557836,8.470223284505705],[-13.27843134085134,8.47016138487636],[-13.27840290009801,8.470078553053554],[-13.27839387457513,8.470039520588056],[-13.27845700962648,8.470031901186498],[-13.278524174333,8.469999731442202],[-13.27861765714108,8.46995785298946],[-13.27868777166938,8.469950085034213],[-13.27877033402982,8.46994408977574],[-13.27881607041819,8.469907353422588],[-13.27885608547134,8.469893451913256],[-13.2789509055574,8.469842430536254],[-13.27901161633033,8.469842948761675],[-13.27904866478734,8.469861318824321],[-13.27907256108695,8.469913826742193],[-13.27910114969866,8.470008238875025],[-13.2790730099643,8.470063286968289],[-13.27906769797308,8.470126396962945],[-13.27909079324492,8.470184292630854],[-13.27911212265483,8.470249819971515],[-13.27916019842483,8.470305276249931],[-13.2791744604153,8.470369347436087],[-13.2791979438225,8.470401699903015],[-13.27923898038902,8.470447730493426],[-13.27925113699702,8.470545984929876],[-13.27925331745054,8.470619456796761],[-13.27928818866539,8.470709911779108],[-13.27933583782365,8.470765935097695],[-13.27930235580677,8.47079987851779],[-13.27927946531931,8.470837198606088],[-13.27932597970586,8.470893369196393],[-13.27932679937531,8.47099336373044],[-13.27934111569274,8.471097514176991],[-13.27936903147687,8.471159597621549],[-13.27939271310915,8.471253650947796],[-13.27940610852285,8.4713580684177],[-13.27942552368502,8.471455632917111],[-13.27947082797694,8.471610767078124],[-13.27944456832953,8.47173311126753],[-13.27946500800494,8.471758026423348],[-13.2794826465687,8.47183797478215],[-13.27951784179805,8.471909138160914],[-13.27954551562815,8.4719555105866],[-13.27953226370215,8.472053438826382],[-13.27952060452814,8.472118546123522],[-13.27951380986688,8.472193820177374],[-13.27946474769829,8.47224547570304],[-13.27945305954307,8.472350157422973],[-13.27943898469422,8.47241733363164],[-13.27944273792731,8.472502516371087],[-13.27945131286624,8.47258136053399],[-13.27941129601272,8.472705483876611],[-13.27941363954154,8.472777255722054],[-13.2794184468518,8.472856001602654],[-13.27941953263724,8.472963718605902],[-13.27943290010316,8.473076159458246],[-13.27943624804629,8.473170256299579],[-13.27947438390203,8.473252751232081],[-13.27948643095597,8.473345918820822],[-13.27948287637912,8.473434708031833],[-13.27948611228251,8.47350748435338],[-13.27945081650297,8.473627570766768],[-13.27941559082595,8.473625468351445],[-13.27944473735292,8.473715213497726],[-13.27944217116671,8.473774964739516],[-13.27942187475705,8.473833607627636],[-13.27939049326612,8.473933460537335],[-13.27937129599182,8.474027992992703],[-13.27934890207864,8.474126642706626],[-13.27932549285043,8.474178573400307],[-13.27932549342217,8.474252891286223],[-13.27927654122471,8.474336597007005],[-13.27922658935843,8.47438916708411],[-13.27916471006685,8.474470787416704],[-13.27909919577464,8.474535296968103],[-13.27905777854575,8.47459938230261],[-13.27903697667539,8.474693977195791],[-13.27902303466033,8.474806509299764],[-13.2789713718254,8.474843758655709],[-13.27892014142531,8.474867278639957],[-13.2788818661693,8.474926402539367],[-13.27880770624022,8.474952671977103],[-13.2787403470278,8.474997496928502],[-13.27875011634688,8.475059030406465],[-13.27875523371051,8.475122012122844],[-13.27870256275101,8.475210017779228],[-13.27865881005486,8.475237573618962],[-13.27859592263269,8.47531127584474],[-13.27856758431382,8.475351147555637],[-13.27855057663995,8.475406226006376],[-13.27853920801865,8.475486165372445],[-13.27853448122979,8.475536193056902],[-13.27848240438136,8.475612769611168],[-13.27842187177068,8.475613032426152],[-13.2783979078001,8.475611913899867],[-13.27833027864043,8.475693279875786],[-13.2782879112103,8.475740746378202],[-13.27820877159099,8.475900664461749],[-13.27827627490162,8.475949825538732]]]}},{"type":"Feature","properties":{"Country":"Sierra Leone","City":"Freetown","Settlement":"Moa Wharf","Establishe":"2014","Last_Updat":"10-06-2014","Population":"6402","Structures":"422","url":"https://sdinet.org/settlement/1860/83705","pop":6402.0,"kyc_year":2014.0},"geometry":{"type":"Polygon","coordinates":[[[-13.22191160107005,8.490741449506258],[-13.22189618528864,8.490719651967428],[-13.22157154050573,8.490721248356458],[-13.2212850240163,8.490656861931335],[-13.22077762513635,8.490784374227253],[-13.22046609064521,8.491018648242198],[-13.22008226832767,8.49096315244944],[-13.21971359093975,8.491002387532468],[-13.21917060035373,8.491110256563108],[-13.2188223040218,8.491302087859722],[-13.21852513971232,8.49144154708258],[-13.21759363725872,8.49169767244557],[-13.2165224997073,8.492792778493323],[-13.21568687300625,8.49261997718198],[-13.2155450458038,8.492428549855907],[-13.21549621885505,8.492275223604677],[-13.21550554765884,8.49214337399134],[-13.21568850574484,8.491639068756129],[-13.21587416080821,8.491318344825146],[-13.21697366074172,8.491672392225283],[-13.2187259014955,8.490943891525259],[-13.21953507638922,8.490316666258675],[-13.21984181604175,8.489918483942546],[-13.21995417851777,8.489897069258179],[-13.21998705861768,8.489930123324605],[-13.22004747955877,8.489978974454825],[-13.22009910058931,8.489902863265593],[-13.22011512701054,8.489806445066076],[-13.2201638535089,8.489711102753056],[-13.22022772549192,8.489726325212624],[-13.22038163070718,8.489821855337775],[-13.22035946661793,8.489902283130183],[-13.22036559946152,8.49000290117738],[-13.22041778606095,8.490146519758998],[-13.22048288883154,8.490296119470484],[-13.22057249755724,8.490413100017813],[-13.22082224429163,8.490404544858935],[-13.22089956440702,8.490398345394668],[-13.22097253564188,8.490394187744862],[-13.22106338289756,8.490386002431483],[-13.22116987116208,8.490379831462292],[-13.2212420724614,8.49038771437394],[-13.22137595386988,8.490391512733982],[-13.22141893427413,8.490351706771726],[-13.22155174398198,8.490327920204042],[-13.22170561565975,8.490351630141388],[-13.22182220824847,8.490381329870862],[-13.22191097969069,8.49069779219748],[-13.22191160107005,8.490741449506258]]]}},{"type":"Feature","properties":{"Country":"Sierra Leone","City":"Freetown","Settlement":"Aberdeen Crab Tong","Establishe":"1984","Last_Updat":"13-02-2017","Population":"1705","Structures":"368","url":"https://sdinet.org/settlement/1860/3948844","pop":1705.0,"kyc_year":2017.0},"geometry":{"type":"Polygon","coordinates":[[[-13.29513753011283,8.49729694802943],[-13.29490709033597,8.497346914979147],[-13.29457603420305,8.497342841435465],[-13.29423455050283,8.497158291263654],[-13.29405651134467,8.496954409896805],[-13.29397014125716,8.496773056011648],[-13.29388185830464,8.49645646344935],[-13.29394396883918,8.496306459159804],[-13.29397208693785,8.496029457754304],[-13.29417756789979,8.495766095802912],[-13.29432206577666,8.495660013284347],[-13.29435081942923,8.495452531507908],[-13.29447290053438,8.49531141035959],[-13.29454704968752,8.495153441047659],[-13.29436534723386,8.494981154108743],[-13.29425717507044,8.494832279737174],[-13.29406696127831,8.494626899932925],[-13.29393386758488,8.494426206946699],[-13.29378663401216,8.494249183398603],[-13.29390818779837,8.494219450777996],[-13.29408331787511,8.49422628318991],[-13.2942595341971,8.49440359763491],[-13.29448091143276,8.494625404751073],[-13.29463430195018,8.494898273471733],[-13.29485895749407,8.49494547567511],[-13.29509024766416,8.494974034702254],[-13.29527926176625,8.494922557514766],[-13.29546767919999,8.495147115732221],[-13.29558925556677,8.495343414059604],[-13.29582563412741,8.495458290073266],[-13.295897436865,8.49561782697599],[-13.29583063539869,8.49586031660756],[-13.29583362015068,8.496115718891813],[-13.29582617802532,8.496439879634343],[-13.2957896654367,8.496596732253707],[-13.29555744479408,8.49683492547083],[-13.2954069933586,8.496985324415746],[-13.29525990840446,8.497095205333313],[-13.29513753011283,8.49729694802943]]]}},{"type":"Feature","properties":{"Country":"Sierra Leone","City":"Freetown","Settlement":"Bonzo","Establishe":"1968","Last_Updat":"11-03-2017","Population":"672","Structures":"NaN","url":"https://sdinet.org/settlement/1860/13581256","pop":672.0,"kyc_year":2017.0},"geometry":{"type":"Polygon","coordinates":[[[-13.24364114491044,8.484305161737876],[-13.24359957480226,8.484335539740805],[-13.24356184851071,8.484334895781537],[-13.24353046974024,8.484334360201089],[-13.24348580900222,8.484311828638045],[-13.24347668721087,8.484287376008457],[-13.24347589275589,8.484253452904019],[-13.24346990581464,8.484226226709106],[-13.24345533037307,8.484181027375916],[-13.24342903682538,8.484155366778852],[-13.24340304259667,8.484118530030909],[-13.24339063183944,8.484074057627273],[-13.24339991793062,8.484069513079708],[-13.24341796587733,8.48405471018354],[-13.24343241753441,8.484041207990865],[-13.24345998828745,8.484044981005322],[-13.24347654046313,8.484053185050184],[-13.24349553206178,8.48407535193528],[-13.24351560110384,8.484070870439357],[-13.24352655428882,8.484052492218652],[-13.24351943103942,8.484027585313084],[-13.24353518712458,8.483983107925438],[-13.24357123865411,8.483984757046358],[-13.24358555354337,8.483999428000695],[-13.24359264843021,8.484021518700851],[-13.24360147538718,8.484063540676194],[-13.2436010352417,8.484085806055138],[-13.24360939722801,8.484119660984286],[-13.24361036309695,8.484130774997276],[-13.24363761489724,8.48414356864216],[-13.24366294214571,8.48415651407287],[-13.24368725256996,8.484160629815946],[-13.24371975770959,8.484163578665504],[-13.24377586474614,8.484220656214822],[-13.24380513086362,8.4842409588673],[-13.24387010089165,8.48429967740908],[-13.24389398477849,8.484290939191915],[-13.2439093941451,8.484276159916206],[-13.24395761891851,8.484312498931953],[-13.24399905078949,8.484355340423537],[-13.24406194958869,8.484358298761554],[-13.24407239797995,8.484435069300496],[-13.24404641729091,8.4844531294291],[-13.24402761144983,8.484476659815533],[-13.24400969630158,8.484499292806657],[-13.24390136527449,8.484559738598685],[-13.24382802625416,8.48446859181966],[-13.2437960880256,8.484430934052252],[-13.24367644122411,8.484332122397161],[-13.24364114491044,8.484305161737876]]]}},{"type":"Feature","properties":{"Country":"Sierra Leone","City":"Freetown","Settlement":"Congo Town Wharf","Establishe":"1944","Last_Updat":"15-01-2018","Population":"1750","Structures":"350","url":"https://sdinet.org/settlement/1860/13298043","pop":1750.0,"kyc_year":2018.0},"geometry":{"type":"Polygon","coordinates":[[[-13.25450704707256,8.484247322213923],[-13.25456678163279,8.484454701124013],[-13.25441380014853,8.484534525062799],[-13.25417344354414,8.484569054267423],[-13.25403025387854,8.484644296354286],[-13.25394634500659,8.484681636247279],[-13.25366246144933,8.484780736564765],[-13.25354509905837,8.484913146508124],[-13.25343525758871,8.484970516501756],[-13.25328731500077,8.485089998124538],[-13.25315511213691,8.485177845705074],[-13.2530736173123,8.485203180872231],[-13.25296422705643,8.485285973181885],[-13.25289411427382,8.485395389910883],[-13.25278275863765,8.4854818248574],[-13.25266362955557,8.485494254566175],[-13.25248734521493,8.485556712023957],[-13.25249289476568,8.485723433219793],[-13.25249277776465,8.485848734980745],[-13.25238790241798,8.485924735402888],[-13.25223100109095,8.485905512093405],[-13.25211667050711,8.485816427428622],[-13.25196269815198,8.485735634733997],[-13.25184928303255,8.485601629560158],[-13.25171921445578,8.485518178923593],[-13.2515432179302,8.485468087843362],[-13.25132466743356,8.485420033780656],[-13.25123479559598,8.485407931064296],[-13.25108889605982,8.485389808410233],[-13.25088322239475,8.485250264735079],[-13.25082086998005,8.485127433800166],[-13.25074779617716,8.485011786910642],[-13.25075628986074,8.484930908506668],[-13.25073297309533,8.484727159654152],[-13.25075024250453,8.484545342637865],[-13.25078962801107,8.484464222608949],[-13.2508101552398,8.484356748803314],[-13.2508622575511,8.484245475532187],[-13.2508809547784,8.484150980578503],[-13.25092917720087,8.484026212198582],[-13.25095785573205,8.483870521499776],[-13.25105448662235,8.483667000839207],[-13.25114425166907,8.483538938600422],[-13.25125635994955,8.483373585629991],[-13.25133909336856,8.483308607008853],[-13.25140966235274,8.483250053554894],[-13.25151419516694,8.483174197028976],[-13.251566642821,8.483122513380867],[-13.25159756456137,8.483043661880481],[-13.25165646847258,8.482953673564777],[-13.25173847263323,8.482814902214855],[-13.25177884746761,8.482749125028768],[-13.25179871013486,8.482625199705405],[-13.25181283276325,8.482518104960452],[-13.25181607654979,8.482417199733781],[-13.25181861632629,8.482338198392366],[-13.25181137048837,8.482234497273069],[-13.2519514024009,8.48215830384925],[-13.25187818261973,8.482162744139028],[-13.25195642207575,8.48218119670841],[-13.25216064175596,8.482291105717849],[-13.25223428246104,8.482350848522307],[-13.25232210493137,8.482402101381343],[-13.25232303940358,8.482467448307094],[-13.25224216436547,8.482545692846717],[-13.25218438820519,8.482592727619227],[-13.25211897020243,8.482706277833312],[-13.25211025694462,8.482834243837713],[-13.25197562895455,8.483006712725512],[-13.25186588725422,8.483198468851677],[-13.25183208449673,8.483320165382324],[-13.25180678142381,8.483320904469927],[-13.25168930485772,8.483304950881317],[-13.25156251784805,8.483385651737184],[-13.25154834349288,8.483513039769198],[-13.25155124537943,8.483666380603962],[-13.25155205507448,8.48380419537134],[-13.25156387596707,8.483952113057878],[-13.25154860247791,8.484028124989035],[-13.2516967525118,8.484090014939262],[-13.25180317226466,8.484117718678572],[-13.25188663504564,8.484237088690573],[-13.25179727140518,8.48443113970415],[-13.25172940533133,8.484759806859211],[-13.25187688546793,8.48483086026417],[-13.25199149325964,8.48490841760197],[-13.25222635645891,8.484990471243284],[-13.25240018440421,8.485069046802478],[-13.25255421690915,8.48502412708836],[-13.25276356437231,8.48498506259223],[-13.25302688154831,8.484860870281304],[-13.25327995742214,8.48473806158763],[-13.25337104330554,8.48465506298878],[-13.25349232362505,8.484638718253535],[-13.25354271706898,8.484550343877292],[-13.25376805558382,8.484459243512903],[-13.25390136130775,8.484408489202815],[-13.25411941529306,8.48433595630244],[-13.25423772331361,8.48432558480455],[-13.25442232351976,8.484299049986134],[-13.25450704707256,8.484247322213923]]]}}]}