{
"type": "FeatureCollection",
"name": "Training_polygons",
"crs": { "type": "name", "properties": { "name": "urn:ogc:def:crs:OGC:1.3:CRS84" } },
"features": [
{ "type": "Feature", "properties": { "fid": 1, "class": 1.0 }, "geometry": { "type": "MultiPolygon", "coordinates": [ [ [ [ -0.254665802633872, 5.525675475398732 ], [ -0.254711821731111, 5.52527340692774 ], [ -0.254783406993484, 5.524942590892508 ], [ -0.254808973158617, 5.524428553301951 ], [ -0.25436923511833, 5.523512445599116 ], [ -0.25436923511833, 5.523375029321515 ], [ -0.254752727595324, 5.523201986556234 ], [ -0.255100427441132, 5.523166360098287 ], [ -0.255509486083259, 5.523151091615653 ], [ -0.255800940365775, 5.523079838691492 ], [ -0.256547472387657, 5.522871169364309 ], [ -0.257140607418741, 5.522759200426747 ], [ -0.257846233576411, 5.522631962972018 ], [ -0.259303504988988, 5.522311324464931 ], [ -0.260719870537354, 5.522056849335828 ], [ -0.261722064210565, 5.522056849335828 ], [ -0.261957272929788, 5.522311324464932 ], [ -0.262172028716905, 5.523125644143724 ], [ -0.262376558037968, 5.523604056433149 ], [ -0.261906140599522, 5.523909425777607 ], [ -0.261425496695023, 5.523675309294265 ], [ -0.260822135197885, 5.523593877452289 ], [ -0.260157414904429, 5.523593877452289 ], [ -0.259339297620175, 5.523593877452289 ], [ -0.25852118033592, 5.523675309294265 ], [ -0.25745762786639, 5.523675309294265 ], [ -0.257611024857187, 5.523950141678309 ], [ -0.258889333113835, 5.523950141678309 ], [ -0.259891526787046, 5.523817814990798 ], [ -0.260607379410769, 5.523807636013609 ], [ -0.261108476247374, 5.523807636013609 ], [ -0.261507308423448, 5.523899246801993 ], [ -0.261670931880299, 5.524174079082152 ], [ -0.261947046463735, 5.524130818453917 ], [ -0.26250950209666, 5.523713480466342 ], [ -0.262795843146149, 5.524079923593122 ], [ -0.262836749010361, 5.524639766821368 ], [ -0.262754937281936, 5.525097819978204 ], [ -0.262458369766394, 5.525443904350672 ], [ -0.262110669920586, 5.525789988520912 ], [ -0.26141527022897, 5.525393009602697 ], [ -0.260382397157599, 5.525708556969637 ], [ -0.260177867836535, 5.524853525005304 ], [ -0.260423303021811, 5.524772093325281 ], [ -0.260259679564961, 5.524548156147497 ], [ -0.260413076555758, 5.524252966101982 ], [ -0.260280132497067, 5.524079923593122 ], [ -0.26006537670995, 5.524466724425495 ], [ -0.259993791447578, 5.524792451246336 ], [ -0.260269906031014, 5.525749272746673 ], [ -0.259502921077025, 5.525963030530195 ], [ -0.258582539132239, 5.525393009602697 ], [ -0.25768261011956, 5.525199609520508 ], [ -0.256128187279477, 5.525372651702283 ], [ -0.254665802633872, 5.525675475398732 ] ] ] ] } },
{ "type": "Feature", "properties": { "fid": 2, "class": -1.0 }, "geometry": { "type": "MultiPolygon", "coordinates": [ [ [ [ -0.265135147255813, 5.534447116414389 ], [ -0.265247638382398, 5.529856462369032 ], [ -0.264848806206324, 5.52921519300414 ], [ -0.264398841699984, 5.529113404152166 ], [ -0.262394454353562, 5.530416300135355 ], [ -0.260829805047425, 5.531342576003749 ], [ -0.260901390309798, 5.532482605850991 ], [ -0.261382034214297, 5.534457295208608 ], [ -0.261760413458264, 5.535851788359642 ], [ -0.265032882595282, 5.535332670855602 ], [ -0.265135147255813, 5.534447116414389 ] ] ] ] } },
{ "type": "Feature", "properties": { "fid": 3, "class": 1.0 }, "geometry": { "type": "MultiPolygon", "coordinates": [ [ [ [ -0.246274987237239, 5.52647961152184 ], [ -0.246259647538159, 5.525924859503086 ], [ -0.246234081373027, 5.525538059622898 ], [ -0.246336346033558, 5.525181796351876 ], [ -0.24643861069409, 5.524947680371381 ], [ -0.246673819413313, 5.524713564298355 ], [ -0.246673819413313, 5.524448911234819 ], [ -0.245799456565766, 5.524672848450124 ], [ -0.244950659883353, 5.524850980265477 ], [ -0.244168335230285, 5.525029112027266 ], [ -0.24355986050012, 5.525029112027266 ], [ -0.242128155252675, 5.525329391161584 ], [ -0.241289585036315, 5.525573685938214 ], [ -0.240537939781406, 5.525690743816308 ], [ -0.240072635575987, 5.52605209625056 ], [ -0.239878332720976, 5.526505058849682 ], [ -0.239479500544902, 5.5270089157158 ], [ -0.239494840243982, 5.527080168167314 ], [ -0.246274987237239, 5.52647961152184 ] ] ] ] } },
{ "type": "Feature", "properties": { "fid": 4, "class": -1.0 }, "geometry": { "type": "MultiPolygon", "coordinates": [ [ [ [ -0.242588346225068, 5.532678548259733 ], [ -0.242486081564537, 5.530912519530901 ], [ -0.239418141748583, 5.531151722578053 ], [ -0.239510179943062, 5.532286663377354 ], [ -0.242588346225068, 5.532678548259733 ] ] ] ] } },
{ "type": "Feature", "properties": { "fid": 5, "class": -1.0 }, "geometry": { "type": "MultiPolygon", "coordinates": [ [ [ [ -0.234540117441217, 5.543745371862075 ], [ -0.233660641360644, 5.540813917961102 ], [ -0.236810392905023, 5.540793560591466 ], [ -0.235685481639173, 5.535358117802704 ], [ -0.229664649750364, 5.536574480596401 ], [ -0.227067127372857, 5.54046275323654 ], [ -0.231975831078383, 5.543495995273714 ], [ -0.234540117441217, 5.543745371862075 ] ] ] ] } },
{ "type": "Feature", "properties": { "fid": 6, "class": 1.0 }, "geometry": { "type": "MultiPolygon", "coordinates": [ [ [ [ -0.224413359432058, 5.546707346955631 ], [ -0.223968508158744, 5.54682948993927 ], [ -0.223922489061505, 5.54625439983722 ], [ -0.223748639138601, 5.545750559375654 ], [ -0.223661714177149, 5.54509912864627 ], [ -0.223559449516617, 5.544569840649181 ], [ -0.22339071282674, 5.543999837659971 ], [ -0.223232202602915, 5.543546888463569 ], [ -0.222853823358948, 5.543088849596936 ], [ -0.22339071282674, 5.542676614313131 ], [ -0.224024753722037, 5.54323643993721 ], [ -0.224311094771526, 5.543155010788519 ], [ -0.224362227101792, 5.543266975865078 ], [ -0.224137244848622, 5.543429834120345 ], [ -0.224413359432058, 5.544060909435146 ], [ -0.224730379879706, 5.543969301770017 ], [ -0.22490422980261, 5.54425430334817 ], [ -0.224914456268663, 5.544651269602708 ], [ -0.224801965142078, 5.545343415254057 ], [ -0.224628115219174, 5.545903238348831 ], [ -0.224311094771526, 5.546188238993064 ], [ -0.224413359432058, 5.546707346955631 ] ] ] ] } },
{ "type": "Feature", "properties": { "fid": 7, "class": 1.0 }, "geometry": { "type": "MultiPolygon", "coordinates": [ [ [ [ -0.212052118590279, 5.537984236853177 ], [ -0.210594847177701, 5.537085962948293 ], [ -0.210397987706177, 5.537538917099314 ], [ -0.211579144535319, 5.538561879691057 ], [ -0.212052118590279, 5.537984236853177 ] ] ] ] } },
{ "type": "Feature", "properties": { "fid": 8, "class": -1.0 }, "geometry": { "type": "MultiPolygon", "coordinates": [ [ [ [ -0.228866985398217, 5.561389770113314 ], [ -0.221340306383078, 5.55687057451516 ], [ -0.220913351425357, 5.560985181380985 ], [ -0.220606557443762, 5.564567944880751 ], [ -0.223285891549695, 5.56703108212648 ], [ -0.228866985398217, 5.561389770113314 ] ] ] ] } },
{ "type": "Feature", "properties": { "fid": 9, "class": 1.0 }, "geometry": { "type": "MultiPolygon", "coordinates": [ [ [ [ -0.223101815160738, 5.548941541698539 ], [ -0.222802691028682, 5.548432614255371 ], [ -0.221440014427096, 5.548829577698723 ], [ -0.221332636533538, 5.548862657973609 ], [ -0.22207916855542, 5.549664217913242 ], [ -0.222378292687475, 5.549391942119425 ], [ -0.222623727872752, 5.549183282080199 ], [ -0.222848710125921, 5.549033148591672 ], [ -0.223101815160738, 5.548941541698539 ] ] ] ] } },
{ "type": "Feature", "properties": { "fid": 10, "class": 1.0 }, "geometry": { "type": "MultiPolygon", "coordinates": [ [ [ [ -0.224188377178888, 5.551453092198277 ], [ -0.224426142514624, 5.550878006604742 ], [ -0.223771648687221, 5.550323277491824 ], [ -0.223395826059766, 5.550972157824388 ], [ -0.223193853355216, 5.551498895451517 ], [ -0.223436731923979, 5.552086703552192 ], [ -0.223717959740442, 5.552519289225867 ], [ -0.22380232808538, 5.552509110743074 ], [ -0.223960838309204, 5.552096882042276 ], [ -0.224188377178888, 5.551453092198277 ] ] ] ] } },
{ "type": "Feature", "properties": { "fid": 11, "class": 1.0 }, "geometry": { "type": "MultiPolygon", "coordinates": [ [ [ [ -0.252418536718686, 5.553735616653824 ], [ -0.252352064689341, 5.553259773377406 ], [ -0.252349508072827, 5.552944240725563 ], [ -0.252364847771907, 5.552687234166556 ], [ -0.252454329349872, 5.552170676090148 ], [ -0.251367767331722, 5.55240478128432 ], [ -0.251331974700536, 5.552845000582397 ], [ -0.250956152073082, 5.552852634440158 ], [ -0.250945925607029, 5.553119819399455 ], [ -0.250715830120832, 5.553117274781366 ], [ -0.25085388741255, 5.553776330499201 ], [ -0.251130001995986, 5.553692358190028 ], [ -0.251424012895015, 5.553562582779584 ], [ -0.251587636351866, 5.553537136617325 ], [ -0.251648995148185, 5.55367200126479 ], [ -0.251950675896753, 5.553710170499035 ], [ -0.251989025144453, 5.553862847411287 ], [ -0.252418536718686, 5.553735616653824 ] ] ] ] } },
{ "type": "Feature", "properties": { "fid": 12, "class": 1.0 }, "geometry": { "type": "MultiPolygon", "coordinates": [ [ [ [ -0.234314479055225, 5.554716518890151 ], [ -0.234798349518035, 5.553113820693917 ], [ -0.234869740242057, 5.55286117821599 ], [ -0.234865774090722, 5.552557217591199 ], [ -0.23492526636074, 5.552249309265995 ], [ -0.234441395897929, 5.552119040310754 ], [ -0.234251020633873, 5.552651958581976 ], [ -0.234159799153179, 5.55309803054222 ], [ -0.23410823918583, 5.553445413781823 ], [ -0.233989254645795, 5.553887537608783 ], [ -0.233834574743749, 5.554412559222412 ], [ -0.233786980927735, 5.554570460368083 ], [ -0.234314479055225, 5.554716518890151 ] ] ] ] } },
{ "type": "Feature", "properties": { "fid": 13, "class": 1.0 }, "geometry": { "type": "MultiPolygon", "coordinates": [ [ [ [ -0.237598452360202, 5.554726387707904 ], [ -0.237854269121278, 5.553982278385681 ], [ -0.237229600286092, 5.553806613183112 ], [ -0.237029309643699, 5.554600066828184 ], [ -0.237598452360202, 5.554726387707904 ] ] ] ] } },
{ "type": "Feature", "properties": { "fid": 14, "class": -1.0 }, "geometry": { "type": "MultiPolygon", "coordinates": [ [ [ [ -0.267039193716307, 5.569223502340727 ], [ -0.265881077526629, 5.565102371177155 ], [ -0.263065110079123, 5.565307638930247 ], [ -0.262724021064355, 5.565291849105631 ], [ -0.262462255076277, 5.565718174221457 ], [ -0.264421533835527, 5.569665614312444 ], [ -0.267039193716307, 5.569223502340727 ] ] ] ] } },
{ "type": "Feature", "properties": { "fid": 15, "class": 1.0 }, "geometry": { "type": "MultiPolygon", "coordinates": [ [ [ [ -0.200786618748901, 5.542769206966011 ], [ -0.199985456179329, 5.542828421069559 ], [ -0.200108406870699, 5.543483723418917 ], [ -0.200128237627371, 5.543925854713559 ], [ -0.200247222167407, 5.544415356832061 ], [ -0.200512954306819, 5.544956177249023 ], [ -0.20075092338689, 5.545465416458695 ], [ -0.201103910855662, 5.545496997170405 ], [ -0.201076147796321, 5.544845644649355 ], [ -0.201175301579683, 5.544845644649355 ], [ -0.201171335428349, 5.544553522679145 ], [ -0.20104045243431, 5.544091653863673 ], [ -0.201111843158331, 5.543692946304978 ], [ -0.201004757072299, 5.543302133684116 ], [ -0.201302218422388, 5.543057382214053 ], [ -0.20124272615237, 5.542615250269002 ], [ -0.200786618748901, 5.542769206966011 ] ] ] ] } },
{ "type": "Feature", "properties": { "fid": 16, "class": 1.0 }, "geometry": { "type": "MultiPolygon", "coordinates": [ [ [ [ -0.221053652068273, 5.543921907114179 ], [ -0.220847412198878, 5.543862693120314 ], [ -0.220902938317561, 5.542978430105292 ], [ -0.220851378350213, 5.542540245709763 ], [ -0.221160738154305, 5.542334970025228 ], [ -0.221719965492471, 5.542350760465034 ], [ -0.222033291447898, 5.542595512228023 ], [ -0.221831017729838, 5.54315212473063 ], [ -0.221454233353059, 5.543617941882653 ], [ -0.221208331970319, 5.543606099078255 ], [ -0.221053652068273, 5.543921907114179 ] ] ] ] } },
{ "type": "Feature", "properties": { "fid": 17, "class": 1.0 }, "geometry": { "type": "MultiPolygon", "coordinates": [ [ [ [ -0.234276800617546, 5.557088977920174 ], [ -0.234308529828222, 5.556629092681825 ], [ -0.234443378973596, 5.556457375784011 ], [ -0.234580211194636, 5.556194865946902 ], [ -0.233943643905447, 5.556034991477503 ], [ -0.233745336338721, 5.556017227644892 ], [ -0.233745336338721, 5.556131705667882 ], [ -0.233642216404023, 5.556131705667882 ], [ -0.233636267177022, 5.556459349541742 ], [ -0.233618419496016, 5.556723833017811 ], [ -0.233784997852066, 5.556804757042725 ], [ -0.233773099398062, 5.557012001446074 ], [ -0.234276800617546, 5.557088977920174 ] ] ] ] } },
{ "type": "Feature", "properties": { "fid": 18, "class": 1.0 }, "geometry": { "type": "MultiPolygon", "coordinates": [ [ [ [ -0.237398161717809, 5.555657016479128 ], [ -0.238016881325994, 5.555852418727894 ], [ -0.237929625996634, 5.556291580111033 ], [ -0.237643071562716, 5.556179075877785 ], [ -0.237280168715607, 5.556062624104948 ], [ -0.237398161717809, 5.555657016479128 ] ] ] ] } },
{ "type": "Feature", "properties": { "fid": 19, "class": 1.0 }, "geometry": { "type": "MultiPolygon", "coordinates": [ [ [ [ -0.218288253050282, 5.551388744119496 ], [ -0.217679448820434, 5.550891352682096 ], [ -0.217255070627641, 5.551445983583382 ], [ -0.217943197884179, 5.551872318725729 ], [ -0.218288253050282, 5.551388744119496 ] ] ] ] } },
{ "type": "Feature", "properties": { "fid": 20, "class": 1.0 }, "geometry": { "type": "MultiPolygon", "coordinates": [ [ [ [ -0.218904989582799, 5.552728935625781 ], [ -0.218657105124392, 5.553129610845205 ], [ -0.218540103660024, 5.55306842400666 ], [ -0.218435000649659, 5.553171059990286 ], [ -0.217669533442098, 5.552588797923162 ], [ -0.21792138405184, 5.552018377916542 ], [ -0.218085979332222, 5.551801262890086 ], [ -0.218627358989383, 5.552280889614458 ], [ -0.218476645238672, 5.552424974932787 ], [ -0.218904989582799, 5.552728935625781 ] ] ] ] } },
{ "type": "Feature", "properties": { "fid": 21, "class": -1.0 }, "geometry": { "type": "MultiPolygon", "coordinates": [ [ [ [ -0.204028947464867, 5.548371821752765 ], [ -0.203695790752768, 5.54792969378935 ], [ -0.203124664960598, 5.545884847648281 ], [ -0.205464694247962, 5.542916255312228 ], [ -0.206408638265576, 5.545940113853383 ], [ -0.205591611090666, 5.547069122338886 ], [ -0.204028947464867, 5.548371821752765 ] ] ] ] } },
{ "type": "Feature", "properties": { "fid": 22, "class": 1.0 }, "geometry": { "type": "MultiPolygon", "coordinates": [ [ [ [ -0.220617375421477, 5.530710131114283 ], [ -0.21936407159977, 5.53084435247888 ], [ -0.219193527092386, 5.53048116518676 ], [ -0.218011613994701, 5.530931201580925 ], [ -0.217908494060003, 5.530860143225655 ], [ -0.217265977543812, 5.531247016389985 ], [ -0.217710186493277, 5.531325970065913 ], [ -0.217357199024506, 5.531740476691664 ], [ -0.218638265905554, 5.531416766780204 ], [ -0.219375970053774, 5.531203591863735 ], [ -0.220038317326638, 5.53097857381303 ], [ -0.220351643282064, 5.530875933972006 ], [ -0.220617375421477, 5.530710131114283 ] ] ] ] } },
{ "type": "Feature", "properties": { "fid": 23, "class": 1.0 }, "geometry": { "type": "MultiPolygon", "coordinates": [ [ [ [ -0.223831941078102, 5.549996244415262 ], [ -0.223419461339312, 5.549562012793008 ], [ -0.221698151660132, 5.551066031865678 ], [ -0.221979748404883, 5.551350255511363 ], [ -0.222717452553103, 5.551918702391615 ], [ -0.223129932291892, 5.551500262380228 ], [ -0.223213221469917, 5.551144982892112 ], [ -0.223697091932728, 5.55035152459562 ], [ -0.223831941078102, 5.549996244415262 ] ] ] ] } },
{ "type": "Feature", "properties": { "fid": 24, "class": 1.0 }, "geometry": { "type": "MultiPolygon", "coordinates": [ [ [ [ -0.251503778939013, 5.550187700983495 ], [ -0.251533525074022, 5.549650832923571 ], [ -0.251596983495374, 5.549650832923571 ], [ -0.251666391143728, 5.548960009333221 ], [ -0.25138281132331, 5.548960009333221 ], [ -0.251113113032563, 5.548961983116059 ], [ -0.251069485367883, 5.549078436291897 ], [ -0.250829533212145, 5.549129754633273 ], [ -0.250569750299735, 5.549127780850995 ], [ -0.250581648753738, 5.549327132827709 ], [ -0.250952483903515, 5.549376477365994 ], [ -0.251061553065214, 5.549453454837477 ], [ -0.251111129956896, 5.549575829258638 ], [ -0.251230114496931, 5.54982847314457 ], [ -0.251261843707607, 5.54992716213311 ], [ -0.251343149809965, 5.549937031031056 ], [ -0.251368929793639, 5.550195596098376 ], [ -0.251503778939013, 5.550187700983495 ] ] ] ] } },
{ "type": "Feature", "properties": { "fid": 25, "class": 1.0 }, "geometry": { "type": "MultiPolygon", "coordinates": [ [ [ [ -0.222364465084331, 5.546917140553237 ], [ -0.222055105280239, 5.546471063917253 ], [ -0.221710050114136, 5.546534225231341 ], [ -0.221420521066717, 5.546644757514721 ], [ -0.221206348894653, 5.546865822019361 ], [ -0.221400690310044, 5.547153995267117 ], [ -0.221658490146788, 5.547517172310373 ], [ -0.222364465084331, 5.546917140553237 ] ] ] ] } },
{ "type": "Feature", "properties": { "fid": 26, "class": 1.0 }, "geometry": { "type": "MultiPolygon", "coordinates": [ [ [ [ -0.223808144170095, 5.546932930870455 ], [ -0.223903331802123, 5.546668443001323 ], [ -0.223851771834775, 5.546218418593295 ], [ -0.223712956538067, 5.545894716613879 ], [ -0.223641565814045, 5.545369687416035 ], [ -0.223562242787355, 5.544817024597889 ], [ -0.223423427490647, 5.544252518470801 ], [ -0.22282850479047, 5.543170875851938 ], [ -0.222146326760933, 5.543770911418124 ], [ -0.22196784995088, 5.54415777613083 ], [ -0.221428453369386, 5.545093356071656 ], [ -0.221281705770009, 5.545946035232218 ], [ -0.221817136200169, 5.545673651745408 ], [ -0.221955951496877, 5.546024986944022 ], [ -0.222102699096254, 5.546482906664161 ], [ -0.222301006662979, 5.546747394616466 ], [ -0.222812640185132, 5.547422430494558 ], [ -0.222999049297854, 5.547754026783346 ], [ -0.223121999989224, 5.548271158718827 ], [ -0.223732787294739, 5.548042199597214 ], [ -0.22413733473086, 5.548215892732093 ], [ -0.224498254502301, 5.547915877285176 ], [ -0.224307879238244, 5.547580333512466 ], [ -0.224153199336198, 5.547351374122711 ], [ -0.223831941078102, 5.547240841971716 ], [ -0.223593971998031, 5.547114519488077 ], [ -0.223526547425345, 5.546988196977388 ], [ -0.223546378182017, 5.546921088132583 ], [ -0.223808144170095, 5.546932930870455 ] ] ] ] } }
]
}
