{"type":"FeatureCollection","name":"kyc_cleaned_settlements","crs":{"type":"name","properties":{"name":"urn:ogc:def:crs:OGC:1.3:CRS84"}},"features":[{"type":"Feature","properties":{"Country":"Ghana","City":"Accra","Settlement":"Maamobi","Establishe":"1925","Last_Updat":"03-05-2017","Population":"42000","Structures":"6800","url":"https://sdinet.org/settlement/1846/15082576","Area":42000.0,"pop":42000.0,"kyc_year":2017.0},"geometry":{"type":"Polygon","coordinates":[[[-0.1936617479205438,5.598505020920754],[-0.19365987374283103,5.598503386785637],[-0.1930703595317033,5.598081892617017],[-0.19249215050723495,5.597675004784946],[-0.19235176230802165,5.597582205805793],[-0.19197104854697433,5.597313326712025],[-0.19167599538224084,5.597106313604569],[-0.19121913886925715,5.596785086368641],[-0.19079797427121967,5.596490033204019],[-0.19034349721903251,5.596178323812354],[-0.1896986632864919,5.595733364604258],[-0.1893261453060972,5.5955354321202995],[-0.18933481169648322,5.595299552895539],[-0.18935311787589656,5.594657839766001],[-0.18938289030796782,5.593990963612215],[-0.18948035854464235,5.593637653745133],[-0.18963699999983424,5.592776586000242],[-0.19004612299994555,5.592587528000195],[-0.19018093410380602,5.592479507966402],[-0.1905828449999377,5.592157469000084],[-0.19088094136537923,5.591760866723178],[-0.19131148799982511,5.591188046000241],[-0.19157227350075276,5.5909431450585885],[-0.1918736120281317,5.590660161192885],[-0.19222970499993167,5.59032575800012],[-0.19238991997286853,5.59012789475844],[-0.19290620499987288,5.589490290000128],[-0.19366423599990432,5.588681755000096],[-0.19387160158697817,5.588582072989368],[-0.1943396749999233,5.588357067000231],[-0.19479799972776818,5.5884060001369],[-0.1955789997709865,5.588466000205982],[-0.19604530875130902,5.588497327368884],[-0.1964681291193521,5.588536012897806],[-0.19638911276962262,5.588831381037664],[-0.196251104031318,5.589331067848889],[-0.196136889903017,5.589654674545727],[-0.19600364008670113,5.5901591202788845],[-0.19577045290816447,5.590896753190634],[-0.195575337105538,5.591601073648405],[-0.19542245673591235,5.592107898842698],[-0.19531538099067813,5.592432100404778],[-0.19519640794050092,5.592866352038186],[-0.19514584439400545,5.59300911969865],[-0.19502687134382865,5.593244686338267],[-0.1949554875135955,5.593589708184027],[-0.1947175414130137,5.594101292300252],[-0.19449149261748738,5.594458211451183],[-0.1937895516207959,5.595826401529394],[-0.1944676980073164,5.5963617802558465],[-0.1948484117683621,5.596647315576546],[-0.1948127198532461,5.596980440117306],[-0.1943963141772542,5.597539613453761],[-0.19399180580620606,5.5981344787052185],[-0.1936617479205438,5.598505020920754]]]}},{"type":"Feature","properties":{"Country":"Ghana","City":"Accra","Settlement":"MABROUK","Establishe":"1918","Last_Updat":"13-01-2018","Population":"8500","Structures":"5395","url":"https://sdinet.org/settlement/1846/5136292","Area":8500.0,"pop":8500.0,"kyc_year":2018.0},"geometry":{"type":"Polygon","coordinates":[[[-0.23979399999990406,5.557329000000152],[-0.23534866499988952,5.5562878619999765],[-0.23249470299992944,5.555714250000107],[-0.23090399999995295,5.555413000000101],[-0.23119244750040513,5.554416626580406],[-0.23134949192672227,5.553859832705029],[-0.23086408188152038,5.5527605217204155],[-0.2302073506439227,5.551389952181125],[-0.22972194059872242,5.5503620250265175],[-0.22960772647053274,5.549976552343595],[-0.22940785174603165,5.549434035234299],[-0.22927936085164882,5.549148499913601],[-0.2291365931912998,5.548820134294773],[-0.2290366558290771,5.548620259570213],[-0.22887961140264704,5.548377554547528],[-0.22876539727445816,5.548263340419452],[-0.22895099523287898,5.548149126291151],[-0.22937905299994657,5.548141395000187],[-0.23133548499993128,5.547851016000039],[-0.2342554739999506,5.547417622000069],[-0.2371769999999171,5.546984000000065],[-0.2386279959998781,5.546968683000103],[-0.24020103999993125,5.547131166000155],[-0.24019678899992342,5.548112881999997],[-0.24018635399994562,5.549630330000184],[-0.24017599999996297,5.551136000000042],[-0.2401834599999689,5.552246208000043],[-0.24016602899996498,5.554121145000011],[-0.24017899999995496,5.556231999999967],[-0.23979399999990406,5.557329000000152]]]}},{"type":"Feature","properties":{"Country":"Ghana","City":"Accra","Settlement":"MAMPROBI","Establishe":"1809","Last_Updat":"10-10-2016","Population":"50000","Structures":"3524","url":"https://sdinet.org/settlement/1846/5119973","Area":50000.0,"pop":50000.0,"kyc_year":2016.0},"geometry":{"type":"Polygon","coordinates":[[[-0.24663999999995673,5.538938000000029],[-0.2466719999999322,5.539134000000047],[-0.24332899999995977,5.539808000000051],[-0.23923699999994516,5.540471000000026],[-0.23820399999993974,5.536110000000065],[-0.2374429999999284,5.532950000000027],[-0.23736399999995716,5.532370000000071],[-0.2369139999999562,5.530176000000039],[-0.2379619999999259,5.529988000000059],[-0.23817699999994987,5.5305000000000755],[-0.23904699999996995,5.530478000000073],[-0.239278999999953,5.530435000000069],[-0.2400869109999349,5.530399448000026],[-0.24092199999995473,5.530335000000036],[-0.24237699999997644,5.5302820000000565],[-0.24250199999994512,5.530202000000032],[-0.2440689999999664,5.530155000000035],[-0.24420599999996223,5.530756000000054],[-0.24572599999993322,5.5307130000000475],[-0.24583099999995162,5.531370000000037],[-0.24737899999996654,5.531339000000061],[-0.2474909999999681,5.531624000000022],[-0.24754299999994947,5.535552000000053],[-0.2466919999999397,5.535525000000064],[-0.24662399999993959,5.539096000000029],[-0.24663999999995673,5.538938000000029]]]}},{"type":"Feature","properties":{"Country":"Ghana","City":"Accra","Settlement":"ABELENKPE","Establishe":"1940","Last_Updat":"10-10-2016","Population":"15000","Structures":"1440","url":"https://sdinet.org/settlement/1846/5119249","Area":15000.0,"pop":15000.0,"kyc_year":2016.0},"geometry":{"type":"Polygon","coordinates":[[[-0.22445999972916314,5.599769999885607],[-0.22532057448489695,5.601491149397079],[-0.22570000025473244,5.602499999875137],[-0.2258499999774699,5.6034200000329975],[-0.22599906440524326,5.605377060602904],[-0.22621781819771064,5.607481517358167],[-0.2266937097468824,5.608730734136145],[-0.227207906119929,5.609547010985807],[-0.2271212195685735,5.610458222968646],[-0.22721639841802202,5.611219650166788],[-0.2274067552175437,5.611838309990049],[-0.2273330000178936,5.612689000297165],[-0.22533153542195744,5.613273865396592],[-0.2233052558328263,5.613865981729704],[-0.22197400019990696,5.614254999668561],[-0.2203926071330784,5.6144950763867305],[-0.2190153628686743,5.6147041597691905],[-0.21749150482901408,5.614935501372315],[-0.21592113025593554,5.61517390445215],[-0.21444500013660667,5.615398000217567],[-0.21286900030406763,5.614907000058054],[-0.21268979150062248,5.613144659798252],[-0.21261600032812605,5.612419000436545],[-0.21189300026168248,5.611059999819191],[-0.21142661724456868,5.610520744736619],[-0.21093300005787785,5.60994999989265],[-0.2101133921192965,5.609384837140567],[-0.20946948113157765,5.608940827457276],[-0.20858799983625398,5.608332999968013],[-0.20729892240729075,5.607503034537446],[-0.20630099959140524,5.606837000227415],[-0.2070410004417896,5.606427000205941],[-0.2079168151088877,5.605957084651777],[-0.20874595406246493,5.605512212518647],[-0.21017400012993903,5.604746000027943],[-0.21110806298668144,5.604261867990887],[-0.2117290691411987,5.603939996133988],[-0.2131045282513353,5.60322584449716],[-0.21397798759397815,5.60277082980997],[-0.215115999603654,5.602178000314495],[-0.21607194836167345,5.601684627743396],[-0.21780699959333555,5.601229999764712],[-0.21952275137380087,5.600943331869303],[-0.2203650797845297,5.60075773518139],[-0.22127062423987826,5.600582171330188],[-0.22207724057216155,5.600343984087659],[-0.2235293057328245,5.599920830581937],[-0.22445999972916314,5.599769999885607]]]}},{"type":"Feature","properties":{"Country":"Ghana","City":"Accra","Settlement":"ABOFO","Establishe":"1918","Last_Updat":"09-10-2016","Population":"32214","Structures":"24638","url":"https://sdinet.org/settlement/1846/5193260","Area":32214.0,"pop":32214.0,"kyc_year":2016.0},"geometry":{"type":"Polygon","coordinates":[[[-0.2365599999999404,5.629627000000085],[-0.23274899999989904,5.632152000000077],[-0.23345099999988778,5.635346000000029],[-0.23063499999994924,5.636139000000071],[-0.22834099999994334,5.6327000000001135],[-0.22848099999993,5.628062000000057],[-0.22759599999994917,5.626023000000089],[-0.22501599999992483,5.624591000000122],[-0.22426451799992775,5.623876479000046],[-0.2235506799999025,5.623590944000171],[-0.22278925199987032,5.623400587000106],[-0.2215519329999434,5.6230198730000325],[-0.21926764999989162,5.622686749000025],[-0.21949999999986836,5.621703000000082],[-0.21793252780543051,5.62017430100849],[-0.22189195091914415,5.617832911378798],[-0.2209782378928376,5.6164242704632],[-0.22055945275587777,5.615624771565365],[-0.220273917435179,5.61518695074028],[-0.2200074178024911,5.614806236979291],[-0.22197399999993198,5.61425500000007],[-0.22733299999987258,5.61268900000016],[-0.2279959999999059,5.612753000000112],[-0.22834099999994334,5.612936000000161],[-0.22854499999988326,5.613275000000158],[-0.22924299999988204,5.615432000000111],[-0.22969099999994508,5.617832000000078],[-0.23051999999995493,5.619938000000047],[-0.2365599999999404,5.629627000000085]]]}},{"type":"Feature","properties":{"Country":"Ghana","City":"Accra","Settlement":"ABOSSEY OKAI","Establishe":"1970","Last_Updat":"03-10-2016","Population":"75000","Structures":"5038","url":"https://sdinet.org/settlement/1846/9015532","Area":75000.0,"pop":75000.0,"kyc_year":2016.0},"geometry":{"type":"Polygon","coordinates":[[[-0.23979399999996132,5.557329000000038],[-0.23988699999995372,5.557435000000055],[-0.23933499999992594,5.559473000000025],[-0.23880299999996094,5.561142000000074],[-0.23870199999993133,5.561389000000078],[-0.2378649999999427,5.5628260000000305],[-0.23681499999997782,5.56453300000004],[-0.23631899999998102,5.565286000000072],[-0.23626599999994322,5.56530300000003],[-0.23622499999993415,5.565315000000054],[-0.23617899999993594,5.565292000000056],[-0.2353129999999623,5.564762000000031],[-0.2344749999999749,5.564205000000072],[-0.23331599999994476,5.563570000000028],[-0.23306999999994177,5.563393000000075],[-0.23231199999997887,5.5629520000000525],[-0.2306159999999413,5.561975000000076],[-0.23000399999995103,5.561627000000045],[-0.22992199999993052,5.561499000000025],[-0.22960299999994102,5.561222000000043],[-0.22902599999997542,5.561033000000067],[-0.2287469999999421,5.560892000000024],[-0.22774899999996057,5.560303000000032],[-0.22530600000000003,5.559093999999999],[-0.22308699999996387,5.557499000000065],[-0.22217799999992793,5.556928000000028],[-0.22146399999996846,5.556482000000073],[-0.22224399999993208,5.555345000000046],[-0.2233249999999317,5.553905000000043],[-0.2238139999999481,5.553385000000048],[-0.22392599999994886,5.553452000000051],[-0.22448199999996624,5.552928000000065],[-0.22482599999995,5.552725000000066],[-0.22509399999995533,5.553124000000025],[-0.22572599999995158,5.553305000000022],[-0.2265799999999561,5.553814000000046],[-0.22725499999995696,5.5540130000000545],[-0.2278869999999532,5.554438000000063],[-0.22821799999996908,5.554961000000049],[-0.22872699999993498,5.555001000000061],[-0.23008699999996948,5.555341000000056],[-0.23090399999995295,5.555413000000043],[-0.23172199999993404,5.555544000000055],[-0.2321219999999472,5.55563600000005],[-0.2329459999999699,5.555809000000067],[-0.23416899999995133,5.556033000000071],[-0.23591399999998025,5.556410000000029],[-0.23852799999997365,5.557016000000031],[-0.23856899999992706,5.557037000000037],[-0.23979399999996132,5.557329000000038]]]}},{"type":"Feature","properties":{"Country":"Ghana","City":"Accra","Settlement":"ACHIMOTA","Establishe":"1970","Last_Updat":"09-10-2016","Population":"24000","Structures":"4576","url":"https://sdinet.org/settlement/1846/5185027","Area":24000.0,"pop":24000.0,"kyc_year":2016.0},"geometry":{"type":"Polygon","coordinates":[[[-0.23598899999996115,5.615169000000038],[-0.23605399999996848,5.615665000000035],[-0.23610499999995227,5.61598200000003],[-0.23617699999994157,5.616114000000038],[-0.2365987259999532,5.617605189000074],[-0.2366859999999635,5.619133000000034],[-0.23586899999997926,5.621036000000061],[-0.23487899999997805,5.622862000000056],[-0.23482399999994627,5.622996000000058],[-0.23445599999996536,5.623703000000036],[-0.2339339999999775,5.6242670000000325],[-0.23372799999992908,5.624373000000048],[-0.2333849999999409,5.624278000000062],[-0.2321099999999765,5.622433000000059],[-0.23182299999996364,5.621964000000048],[-0.23129999999997658,5.621263000000056],[-0.23080799999996818,5.620519000000059],[-0.23051999999995612,5.619938000000047],[-0.23048699999992583,5.619710000000055],[-0.230405999999959,5.619474000000026],[-0.2303109999999718,5.619269000000031],[-0.2302049999999558,5.618777000000024],[-0.22975699999995042,5.617291000000023],[-0.2296869999999559,5.617032000000053],[-0.22961199999997503,5.616567000000032],[-0.22959699999995428,5.616049000000031],[-0.22949599999992626,5.615624000000024],[-0.22939899999994387,5.615182000000061],[-0.22934099999997692,5.614921000000038],[-0.22896499999996084,5.613600000000077],[-0.2288578299999249,5.613256469000021],[-0.2287436159999752,5.6128709960000265],[-0.22856320599993377,5.612219029000073],[-0.22972871299993006,5.611928730000045],[-0.23026499999997357,5.611801000000072],[-0.2307719999999447,5.611650000000055],[-0.23099499999995018,5.611615000000028],[-0.232108,5.6112660000000005],[-0.232236,5.611500999999999],[-0.2319790000000004,5.611886000000002],[-0.23187199999999994,5.612142],[-0.2317640000000003,5.612484],[-0.23159299999999924,5.612825000000002],[-0.23118500000000053,5.6137440000000005],[-0.23070200000000027,5.614960999999999],[-0.23050400000000099,5.615414999999999],[-0.23070199999999907,5.615596000000001],[-0.2309209999999669,5.61544200000003],[-0.23098899999996464,5.615413000000047],[-0.23112499999996367,5.615305000000036],[-0.2312169999999593,5.615216000000032],[-0.23130699999995813,5.61521700000003],[-0.23143699999997042,5.615230000000053],[-0.23142099999995566,5.615216000000032],[-0.23147999999997626,5.6151210000000455],[-0.23157699999995823,5.615113000000067],[-0.23230799999993204,5.615080000000037],[-0.23257899999992976,5.615035000000034],[-0.23290299999996486,5.614863000000071],[-0.23313999999993387,5.614601000000052],[-0.2332079999999336,5.614557000000048],[-0.2334299999999419,5.6143950000000595],[-0.23368399999992567,5.614643000000058],[-0.23519699999997118,5.615005000000053],[-0.23598899999996115,5.615169000000038]]]}},{"type":"Feature","properties":{"Country":"Ghana","City":"Accra","Settlement":"ADABRAKA","Establishe":"1839","Last_Updat":"03-05-2017","Population":"56000","Structures":"2356","url":"https://sdinet.org/settlement/1846/15080768","Area":56000.0,"pop":56000.0,"kyc_year":2017.0},"geometry":{"type":"Polygon","coordinates":[[[-0.2131399999999538,5.560820000000035],[-0.2131399999999538,5.560820000000035],[-0.213739999999973,5.562860000000057],[-0.2146999999999359,5.566580000000045],[-0.21482999999994976,5.56704000000002],[-0.21487999999993673,5.56731000000002],[-0.21506999999996881,5.568160000000034],[-0.21521999999993136,5.568650000000048],[-0.2148699999999624,5.569380000000025],[-0.21443999999996816,5.569640000000049],[-0.21416999999996805,5.569770000000062],[-0.2129299999999707,5.570010000000024],[-0.2125199999999271,5.568530000000067],[-0.21216999999995736,5.567360000000065],[-0.21194999999994385,5.566520000000025],[-0.21169999999995084,5.565720000000057],[-0.21110999999996247,5.5658900000000235],[-0.21101699999997003,5.566130000000044],[-0.20995999999996634,5.566130000000043],[-0.20983999999992997,5.5661000000000636],[-0.20971199999996654,5.566070000000025],[-0.20963999999997923,5.566030000000068],[-0.20827999999994593,5.565330000000075],[-0.20686999999992403,5.56480000000005],[-0.20675999999997452,5.56474000000003],[-0.20655999999996813,5.564600000000041],[-0.20643999999992857,5.564460000000054],[-0.20631999999994868,5.564170000000047],[-0.20630999999997354,5.563960000000066],[-0.20626999999996048,5.562320000000057],[-0.20739299999996794,5.561964000000046],[-0.20812508699992763,5.561774514000035],[-0.20834310899994088,5.561718084000061],[-0.2088460539999349,5.561587906000057],[-0.20928999999995343,5.561473000000037],[-0.20973299999997205,5.561371000000065],[-0.21013135399994073,5.561266152000028],[-0.21035798799994196,5.561206501000072],[-0.21090699999996287,5.561062000000051],[-0.21133161299996983,5.5609371280000355],[-0.21161953399996367,5.56085245500003],[-0.21303099999994385,5.560457000000041],[-0.2131399999999538,5.560820000000035]]]}},{"type":"Feature","properties":{"Country":"Ghana","City":"Accra","Settlement":"ADWENBU","Establishe":"1956","Last_Updat":"10-10-2016","Population":"87500","Structures":"6073","url":"https://sdinet.org/settlement/1846/5126739","Area":87500.0,"pop":87500.0,"kyc_year":2016.0},"geometry":{"type":"Polygon","coordinates":[[[-0.24227499999994845,5.568897000000051],[-0.24473399999993686,5.564467000000036],[-0.24650799999994888,5.5588390000000345],[-0.24775699999997902,5.558983000000069],[-0.24835499999994656,5.559150000000045],[-0.24915199999992413,5.559286000000042],[-0.25151899999997335,5.559646000000044],[-0.2520869999999614,5.559587000000023],[-0.2538269999999444,5.559083000000044],[-0.25413299999996714,5.559779000000049],[-0.25457999999997494,5.560791000000052],[-0.25481499999995155,5.561589000000027],[-0.2556219999999595,5.56362100000007],[-0.2564309999999638,5.5652470000000545],[-0.2567869999999744,5.566428000000031],[-0.2567879999999712,5.567901000000064],[-0.25607499999995326,5.569391000000054],[-0.2525279999999268,5.575009000000022],[-0.24227499999994845,5.568897000000051]]]}},{"type":"Feature","properties":{"Country":"Ghana","City":"Accra","Settlement":"ALAJO","Establishe":"1879","Last_Updat":"10-10-2016","Population":"60000","Structures":"20000","url":"https://sdinet.org/settlement/1846/5136937","Area":60000.0,"pop":60000.0,"kyc_year":2016.0},"geometry":{"type":"Polygon","coordinates":[[[-0.20825699999994682,5.602328000000058],[-0.20919299999997065,5.6008900000000486],[-0.20971399999996293,5.60047000000003],[-0.2102559999999583,5.599961000000065],[-0.2105879999999726,5.599668000000066],[-0.210728999999958,5.599545000000034],[-0.21079299999996656,5.599450000000046],[-0.21148499999992532,5.597870000000058],[-0.2127999999999584,5.5953570000000346],[-0.2138259999999254,5.593455000000063],[-0.21387899999996282,5.593384000000071],[-0.21399599999995275,5.592976000000022],[-0.21406099999995848,5.591416000000038],[-0.21408899999994396,5.590352000000053],[-0.21411899999992462,5.590227000000029],[-0.21425199999993128,5.58998200000002],[-0.21713980199996158,5.58591612400005],[-0.21719599999994454,5.585837000000026],[-0.21732799999995284,5.586598000000039],[-0.2174379999999588,5.5875140000000565],[-0.21770099999997733,5.588501000000066],[-0.21780599999993808,5.589138000000047],[-0.2179919999999241,5.589225000000056],[-0.2181999999999677,5.589856000000056],[-0.2183999999999753,5.590234000000067],[-0.2184399999999295,5.59035300000005],[-0.21880699999997044,5.590686000000063],[-0.21890499999995003,5.590810000000033],[-0.21902899999997835,5.5910180000000755],[-0.21956799999992332,5.592025000000035],[-0.21983299999993786,5.592495000000043],[-0.21998899999994123,5.592754000000071],[-0.22009099999996803,5.592910000000074],[-0.2219449999999473,5.595521000000075],[-0.22263599999996572,5.5968500000000745],[-0.22279578799992852,5.5969891440000765],[-0.22307928899994164,5.597458537000022],[-0.22320840299994407,5.597672312000042],[-0.22332606999992755,5.597867133000023],[-0.22352505899993907,5.598196601000041],[-0.22378447599993476,5.598626118000027],[-0.22387805899995844,5.598781063000047],[-0.22398821899997737,5.598963455000044],[-0.22409193599997992,5.59913517900003],[-0.2241756359999277,5.599273761000063],[-0.22426999999993227,5.599430000000039],[-0.22367728999995512,5.599872575000062],[-0.2230205579999725,5.600086727000075],[-0.22253514799996432,5.600186664000035],[-0.22207724099996523,5.600343984000064],[-0.22179275599995749,5.600443646000031],[-0.22109319499998045,5.6006292440000625],[-0.22036507999996538,5.600757735000059],[-0.21952275099994298,5.600943332000043],[-0.21780699999993647,5.601230000000044],[-0.21719499999994618,5.601262000000077],[-0.21660599999995575,5.601409000000046],[-0.2151159999999658,5.6021780000000385],[-0.21263199999992827,5.603472000000069],[-0.21017399999993902,5.604746000000035],[-0.20704099999994655,5.606427000000054],[-0.20645199999995614,5.606731000000026],[-0.20453799999995592,5.60546800000003],[-0.20467099999996258,5.605293000000074],[-0.2050849999999393,5.60509700000006],[-0.20641899999992547,5.604290000000048],[-0.20712799999995382,5.603831000000071],[-0.20785899999992802,5.602907000000072],[-0.20825699999994682,5.602328000000058]]]}},{"type":"Feature","properties":{"Country":"Ghana","City":"Accra","Settlement":"Amantra","Establishe":"1827","Last_Updat":"13-01-2018","Population":"6600","Structures":"5719","url":"https://sdinet.org/settlement/1846/16448757","Area":6600.0,"pop":6600.0,"kyc_year":2018.0},"geometry":{"type":"Polygon","coordinates":[[[-0.20364599999993432,5.548753000000033],[-0.20356399999991504,5.5491980000001035],[-0.20330599999988405,5.549986000000104],[-0.20300299999996654,5.550866999999983],[-0.20290099999994055,5.551331000000004],[-0.2025709999999787,5.552027000000067],[-0.20235799999994714,5.552401999999971],[-0.20198599999997668,5.553021000000058],[-0.2006839999999099,5.554778000000112],[-0.200278999999966,5.554413000000124],[-0.1999789999999272,5.554115000000138],[-0.1995179999998986,5.553460000000143],[-0.19936999999993085,5.553012000000023],[-0.19930418337975225,5.552907724308454],[-0.19920900493951865,5.55284823778345],[-0.1991495184142877,5.552729264733159],[-0.19904244266905388,5.552527010547692],[-0.19897105883893565,5.552253372531994],[-0.19888777770370267,5.552015426431467],[-0.19849887178565923,5.550672724781349],[-0.19836687178565215,5.550677724781393],[-0.19710595798710484,5.551206013112507],[-0.1951666972674386,5.551396369992973],[-0.19421146247503843,5.551170827437318],[-0.19377446247511906,5.550765827437373],[-0.19255404908301477,5.550394616909499],[-0.19146901486436807,5.550109081588743],[-0.19112637247945916,5.550204260028978],[-0.19066951596641898,5.551555793880427],[-0.1902697665174168,5.552678899475096],[-0.18991341192275943,5.5530284224522],[-0.18859899999989732,5.552701000000013],[-0.1884879999999506,5.5527260000001775],[-0.1877829999999679,5.552751000000114],[-0.18676999999991115,5.552804000000037],[-0.18661962799990392,5.552232846000039],[-0.1864259999998697,5.551227000000097],[-0.18643824699989928,5.551025683999967],[-0.18632403199995934,5.550483167000096],[-0.1862979999999643,5.550171000000149],[-0.1862408999999156,5.549825785999985],[-0.18624215499994454,5.549506033999989],[-0.18621499999994742,5.549340000000143],[-0.18621899999988015,5.548634000000163],[-0.18630299999983937,5.548272000000054],[-0.18653999999997975,5.547753000000113],[-0.18646442099986815,5.546883042000048],[-0.18686931845161342,5.545974768091185],[-0.1882398879910726,5.547231123502342],[-0.19092392000555905,5.548925299738413],[-0.19069549174901154,5.546222232035802],[-0.19379830890068203,5.545403697449899],[-0.19543537807260208,5.545022983688965],[-0.19539730669652056,5.5440711992865195],[-0.1961587342184426,5.543842771029973],[-0.19657751935540124,5.544623234239906],[-0.19800519595889843,5.544109270662659],[-0.19895698036123122,5.547059802309889],[-0.2013174056791055,5.546298374787966],[-0.20011815733215504,5.544413841671428],[-0.20015622870818048,5.543443021580971],[-0.20101283467033693,5.543347843140737],[-0.20208999999988417,5.5445699999999665],[-0.20227099999993908,5.54480800000016],[-0.20300199999996935,5.545634000000064],[-0.20283799999987193,5.545722000000068],[-0.20299499999993095,5.546043000000169],[-0.20336399999996507,5.546815000000095],[-0.20342299999987315,5.5471290000001545],[-0.20364599999993432,5.548753000000033]]]}},{"type":"Feature","properties":{"Country":"Ghana","City":"Accra","Settlement":"ANOMULEY","Establishe":"1943","Last_Updat":"09-10-2016","Population":"18000","Structures":"2070","url":"https://sdinet.org/settlement/1846/5152966","Area":18000.0,"pop":18000.0,"kyc_year":2016.0},"geometry":{"type":"Polygon","coordinates":[[[-0.22770331499987082,5.634476026000185],[-0.22171999999994702,5.640130000000113],[-0.22127999999997763,5.640500000000145],[-0.22080999999997034,5.641020000000025],[-0.22053999999997143,5.64163000000002],[-0.22044999999997258,5.642430000000163],[-0.2201299999998698,5.643040000000156],[-0.2194499999998245,5.643550000000062],[-0.21836999999987894,5.644160000000112],[-0.21824171299994105,5.643836065000016],[-0.21773499999994797,5.643227000000024],[-0.21684099999987433,5.643728000000067],[-0.21644022399993884,5.643306156000165],[-0.21589273699993283,5.643804239000078],[-0.21560732199992577,5.644039745000043],[-0.2154380029999741,5.644179456000131],[-0.21495499999997528,5.644578000000081],[-0.21464999999994888,5.644190000000094],[-0.2139399999999802,5.643150000000048],[-0.21292999999991502,5.641650000000083],[-0.21171999999990074,5.63989000000015],[-0.21070999999989243,5.638290000000098],[-0.21180846629346248,5.638048568659031],[-0.21264127764556,5.637691649508099],[-0.21326588615960415,5.637096784256642],[-0.2138012648858309,5.636412689217537],[-0.21460433297528317,5.635252701977208],[-0.21642105145326665,5.632992214021613],[-0.21546926705093428,5.635282445239626],[-0.2175512954310644,5.636442432480123],[-0.21862205288368808,5.636650635318006],[-0.22004972948712961,5.63560962112797],[-0.22165586566615061,5.6350444991391555],[-0.22085874622916946,5.634407993320052],[-0.21994860239448216,5.63350974679048],[-0.2189492287720336,5.630797161243719],[-0.22035311076547226,5.629155333149755],[-0.22128110055774655,5.629655019960978],[-0.22266118794107068,5.629791838968855],[-0.22417809433233077,5.629732352443626],[-0.22438629717032732,5.628483135415478],[-0.22536782483524495,5.62871513286359],[-0.2246397097674157,5.626600386894666],[-0.22436369229080766,5.625950199174839],[-0.223621300456955,5.625507619427764],[-0.22418523271534188,5.624372616528091],[-0.2250629999999771,5.624476000000188],[-0.22759599999994917,5.626023000000089],[-0.22848099999993,5.628062000000057],[-0.22834099999994334,5.6327000000001135],[-0.22736067299996407,5.633676527000034],[-0.22770331499987082,5.634476026000185]]]}},{"type":"Feature","properties":{"Country":"Ghana","City":"Accra","Settlement":"ASYLUM DOWN","Establishe":"1800","Last_Updat":"10-10-2016","Population":"25000","Structures":"2745","url":"https://sdinet.org/settlement/1846/5136980","Area":25000.0,"pop":25000.0,"kyc_year":2016.0},"geometry":{"type":"Polygon","coordinates":[[[-0.19030299999997247,5.571748000000072],[-0.19014399999997392,5.571802000000047],[-0.19133499999992423,5.569986000000029],[-0.19221271599997145,5.568294565000031],[-0.19297628499992872,5.5668020180000335],[-0.19438564599994435,5.564990740000041],[-0.19507728299993246,5.562942441000074],[-0.19626099999993626,5.560809000000064],[-0.1968919999999337,5.559527000000058],[-0.19754299999993907,5.559608000000025],[-0.19826852299996736,5.560275064000053],[-0.1994116449999409,5.5612962460000395],[-0.200336053999933,5.56211502800005],[-0.20121899999997941,5.562572000000046],[-0.20215599999994557,5.562755000000038],[-0.2036942149999266,5.562572887000044],[-0.20524099999994425,5.562163000000056],[-0.20626999999996048,5.562320000000057],[-0.2062976909999754,5.56345533800004],[-0.20643999999992857,5.564460000000054],[-0.20686999999992403,5.56480000000005],[-0.20827999999994593,5.565330000000075],[-0.2091169099999779,5.565760762000025],[-0.20995999999996634,5.566130000000043],[-0.21101699999997003,5.566130000000044],[-0.21110999999996247,5.5658900000000235],[-0.21169999999995084,5.565720000000057],[-0.21229872899994015,5.567790322000065],[-0.2127035229999592,5.569192474000034],[-0.21310999999997235,5.570408000000043],[-0.20724699999993812,5.5717910000000765],[-0.2029649819999696,5.572707934000049],[-0.19874900299993256,5.573687361000054],[-0.1942803039999608,5.574394917000062],[-0.19314752199994703,5.573640994000072],[-0.19030299999997247,5.571748000000072]]]}},{"type":"Feature","properties":{"Country":"Ghana","City":"Accra","Settlement":"Awoshie Kwashiebu","Establishe":"1960","Last_Updat":"16-08-2016","Population":"145000","Structures":"37088","url":"https://sdinet.org/settlement/1846/16841372","Area":145000.0,"pop":145000.0,"kyc_year":2016.0},"geometry":{"type":"Polygon","coordinates":[[[-0.2748099999999449,5.591650000000072],[-0.27311999999994935,5.594010000000026],[-0.2719199999999658,5.595420000000048],[-0.270789999999976,5.59644000000003],[-0.2708999999999259,5.596670000000074],[-0.26999999999992513,5.599110000000053],[-0.26962999999994985,5.599590000000034],[-0.26867999999996134,5.598870000000036],[-0.2681899999999473,5.599590000000034],[-0.26688099999995624,5.600729000000058],[-0.2659299999999693,5.599980000000074],[-0.26473999999996134,5.599510000000067],[-0.26421999999996626,5.599130000000059],[-0.2651799999999303,5.598150000000032],[-0.26474999999993565,5.597060000000056],[-0.2658799999999239,5.595430000000022],[-0.26632999999992485,5.594880000000047],[-0.26834999999994225,5.5920200000000495],[-0.26909999999998047,5.590980000000059],[-0.27040999999996995,5.589180000000053],[-0.2721699999999596,5.586820000000046],[-0.27318999999994303,5.585490000000049],[-0.27436999999997547,5.584110000000067],[-0.27453999999994355,5.583930000000065],[-0.2760899999999545,5.582020000000057],[-0.277739999999937,5.580130000000055],[-0.279709999999967,5.57779000000005],[-0.28131999999993684,5.576150000000041],[-0.2815499999999243,5.576290000000028],[-0.281439999999976,5.576860000000067],[-0.28111999999993087,5.57755000000003],[-0.28118999999992494,5.577950000000044],[-0.2812399999999688,5.5782200000000435],[-0.28159999999996893,5.57907000000006],[-0.28171999999994923,5.579390000000046],[-0.2821399999999696,5.580540000000041],[-0.2824199999999452,5.5815200000000695],[-0.28247999999996415,5.582720000000052],[-0.2824899999999393,5.583300000000064],[-0.28252999999995076,5.583520000000021],[-0.2827399999999335,5.583980000000054],[-0.2827699999999702,5.58409000000006],[-0.28266999999993897,5.585040000000048],[-0.2822699999999258,5.58582000000007],[-0.2817999999999761,5.586480000000053],[-0.28102999999993045,5.587820000000021],[-0.27986999999995993,5.589040000000066],[-0.27692999999993506,5.588030000000059],[-0.2762999999999356,5.590160000000027],[-0.2756699999999342,5.590010000000063],[-0.2748099999999449,5.591650000000072]]]}},{"type":"Feature","properties":{"Country":"Ghana","City":"Accra","Settlement":"AWUDOME","Establishe":"1953","Last_Updat":"13-01-2018","Population":"7200","Structures":"5750","url":"https://sdinet.org/settlement/1846/9029064","Area":7200.0,"pop":7200.0,"kyc_year":2018.0},"geometry":{"type":"Polygon","coordinates":[[[-0.23893999999995638,5.572048000000167],[-0.2388149999998736,5.572156000000007],[-0.23809699999992495,5.57336800000013],[-0.23798699999997547,5.573907000000133],[-0.2388569999999391,5.578832000000147],[-0.2390089999999529,5.579375000000084],[-0.23975199999989544,5.5803310000001725],[-0.2397089999998912,5.580445000000169],[-0.23940699999997128,5.580754000000183],[-0.23911499999996927,5.580982000000007],[-0.2387549999999123,5.5811670000000495],[-0.23577799999986832,5.581172000000096],[-0.23547399999995403,5.580980000000009],[-0.23501699999997108,5.580623000000173],[-0.2345699999999625,5.5799460000001195],[-0.2340369999998874,5.579265000000078],[-0.23336599999987492,5.5796390000001],[-0.2330609999999642,5.5796700000000214],[-0.23170699999991567,5.579158000000122],[-0.22973199999995533,5.577079000000025],[-0.22923999999989125,5.577442000000019],[-0.22884101981804825,5.57709873711383],[-0.22926218441608653,5.576877447240293],[-0.23005454493096528,5.576213577619684],[-0.2307612448497592,5.5756068150632245],[-0.23101822663841237,5.575335556508437],[-0.23103250340437853,5.575099989868988],[-0.2304685711460477,5.574450397014289],[-0.22822784427597753,5.5764911904800565],[-0.22692299999988544,5.575284000000181],[-0.2298619999999688,5.572585000000172],[-0.23081499999995012,5.57205300000004],[-0.23133499999988716,5.57191400000005],[-0.23213399999991635,5.571152000000098],[-0.23328099999997615,5.571764000000088],[-0.2352629999999749,5.571766000000082],[-0.2376589999998939,5.571221000000094],[-0.23889599999995453,5.571882000000073],[-0.23893999999995638,5.572048000000167]]]}},{"type":"Feature","properties":{"Country":"Ghana","City":"Accra","Settlement":"AYIDIKI","Establishe":"1954","Last_Updat":"09-10-2016","Population":"4000","Structures":"124","url":"https://sdinet.org/settlement/1846/9027845","Area":4000.0,"pop":4000.0,"kyc_year":2016.0},"geometry":{"type":"Polygon","coordinates":[[[-0.2138619999999493,5.5912850000000285],[-0.21379999999993474,5.592435000000023],[-0.21381499999995468,5.592996000000028],[-0.2137769999999364,5.593173000000035],[-0.21358499999996564,5.593488000000035],[-0.2133899999999464,5.593437000000052],[-0.21236299999992614,5.593445000000031],[-0.21234999999995782,5.5932990000000595],[-0.21207599999996773,5.593260000000042],[-0.21061399999996408,5.593048000000068],[-0.21044399999993874,5.593027000000063],[-0.2100099999999537,5.593058000000043],[-0.2097859999999522,5.593020000000023],[-0.20791299999996182,5.592318000000035],[-0.20745299999992886,5.592142000000025],[-0.20714199999997657,5.5920150000000595],[-0.2067049999999419,5.591665000000036],[-0.20620899999994394,5.591214000000036],[-0.20640699999995593,5.591012000000036],[-0.2069204649999391,5.590402842000061],[-0.20717999999993758,5.590105000000052],[-0.20725899999996608,5.589905000000045],[-0.2075399999999381,5.588087000000029],[-0.20808799999997393,5.58486400000004],[-0.20815199999992723,5.584810000000061],[-0.20827299999996277,5.584827000000075],[-0.21006299999993427,5.585226000000032],[-0.2111429999999359,5.58522000000005],[-0.21542199999993333,5.585231000000022],[-0.21552299999996216,5.585215000000063],[-0.2157189999999786,5.585136000000035],[-0.21588899999994707,5.5849790000000334],[-0.21597199999996475,5.584775000000038],[-0.216102999999975,5.584644000000026],[-0.21622699999994688,5.584608000000058],[-0.2168629999999327,5.5846390000000365],[-0.2169449999999524,5.5846990000000565],[-0.21709099999992537,5.585304000000065],[-0.21697699999992864,5.585420000000057],[-0.21662499999996448,5.586133000000077],[-0.2160959999999362,5.587019000000054],[-0.2151389999999649,5.58844300000004],[-0.21397699999994282,5.590054000000067],[-0.21389799999997156,5.590479000000073],[-0.2138589999999561,5.591241000000025],[-0.2138619999999493,5.5912850000000285]]]}},{"type":"Feature","properties":{"Country":"Ghana","City":"Accra","Settlement":"BLEMAGOR","Establishe":"1865","Last_Updat":"13-01-2018","Population":"16980","Structures":"2293","url":"https://sdinet.org/settlement/1846/5150951","Area":16980.0,"pop":16980.0,"kyc_year":2018.0},"geometry":{"type":"Polygon","coordinates":[[[-0.238679999999931,5.600440000000049],[-0.23777999999992946,5.599910000000023],[-0.23758999999995464,5.599810000000048],[-0.23712999999997814,5.599610000000041],[-0.2349599999999441,5.5988400000000516],[-0.23464999999993136,5.598730000000046],[-0.23439999999993677,5.598660000000051],[-0.23425999999994934,5.59863000000007],[-0.23409999999995482,5.598590000000059],[-0.23381999999998077,5.598550000000046],[-0.23373999999995387,5.5985500000000465],[-0.23372999999997993,5.598470000000021],[-0.23365999999992856,5.598100000000047],[-0.2336099999999416,5.598030000000052],[-0.23354999999997947,5.597930000000075],[-0.23343999999997309,5.596720000000062],[-0.2333599999999482,5.596160000000056],[-0.23332999999996673,5.596050000000047],[-0.2332399999999663,5.59564000000006],[-0.2332099999999284,5.595410000000071],[-0.23320999999992878,5.595320000000074],[-0.23309999999997888,5.5946700000000655],[-0.23307999999997217,5.594530000000021],[-0.23297999999994012,5.59423000000004],[-0.2329199999999792,5.593940000000032],[-0.23329999999992804,5.5935100000000375],[-0.23359999999996645,5.593560000000025],[-0.23401999999992912,5.5934800000000555],[-0.23444999999992416,5.593480000000056],[-0.23455999999993052,5.593490000000031],[-0.23499999999995674,5.593600000000036],[-0.2362899999999399,5.593490000000031],[-0.2365699999999712,5.593620000000044],[-0.2373499999999348,5.593570000000058],[-0.23795999999992953,5.593580000000031],[-0.23856999999992504,5.593850000000031],[-0.23956999999995743,5.593960000000038],[-0.23982999999992594,5.594250000000044],[-0.24030438799997003,5.594431130000034],[-0.24030477199994496,5.5945450740000515],[-0.24026194199996148,5.594668806000072],[-0.24027383899993937,5.594819901000052],[-0.24021958799994492,5.595151678000036],[-0.24059007799996804,5.595220571000027],[-0.2406142929999648,5.595430602000023],[-0.24150999999994835,5.595960000000048],[-0.24177999999994923,5.596110000000067],[-0.24167999999997408,5.596350000000031],[-0.2418699999999485,5.5964700000000684],[-0.24202999999994262,5.596400000000073],[-0.242039999999975,5.59653000000003],[-0.2420399999999746,5.59677000000005],[-0.2422099999999427,5.597140000000024],[-0.2423299999999238,5.597460000000068],[-0.24236999999993764,5.5974900000000485],[-0.24246999999996888,5.597470000000045],[-0.24257999999997443,5.597580000000051],[-0.2427599999999757,5.597810000000038],[-0.2427999999999315,5.597830000000046],[-0.24288999999993152,5.597780000000058],[-0.24295999999992643,5.597750000000077],[-0.24312999999995058,5.597750000000077],[-0.2432199999999518,5.597750000000077],[-0.24322999999992576,5.597780000000058],[-0.24325999999996326,5.598210000000051],[-0.24327999999997077,5.598320000000058],[-0.24349807099997722,5.598347672000045],[-0.243961999999954,5.59829300000007],[-0.24408999999997189,5.599740000000056],[-0.24355618699996803,5.600077162000048],[-0.24262343799995206,5.60059112500005],[-0.2422799999999372,5.600810000000025],[-0.24073999999996026,5.601690000000076],[-0.238679999999931,5.600440000000049]]]}},{"type":"Feature","properties":{"Country":"Ghana","City":"Accra","Settlement":"BUBII","Establishe":"1970","Last_Updat":"09-10-2016","Population":"120000","Structures":"10966","url":"https://sdinet.org/settlement/1846/5141729","Area":120000.0,"pop":120000.0,"kyc_year":2016.0},"geometry":{"type":"Polygon","coordinates":[[[-0.24571427845938748,5.574274444340858],[-0.24701346416850262,5.572075822371403],[-0.2520989999999302,5.575179000000048],[-0.25478699999990806,5.576803000000098],[-0.2548009999999284,5.576940000000092],[-0.2542929999999617,5.577808000000119],[-0.2531209999999084,5.579666000000032],[-0.25283599999994477,5.5800150000001185],[-0.2523829999999507,5.5804270000001015],[-0.2517879999999198,5.580907000000025],[-0.25164699999987833,5.581146000000103],[-0.2516239999999365,5.5819020000001265],[-0.25154699999996005,5.581951000000061],[-0.24789799999996365,5.5819520000001726],[-0.24774199999990262,5.5819120000000435],[-0.24773099999987463,5.581646000000092],[-0.2482839999998988,5.580878000000098],[-0.24754813199996228,5.580274073000169],[-0.24699299999991808,5.579895000000136],[-0.24616200000002675,5.579340000000058],[-0.2464840000000098,5.5788060000001],[-0.24543299999999088,5.578123000000061],[-0.24330899999995384,5.576820000000111],[-0.2429440000000222,5.577418000000025],[-0.2391679999998918,5.575066000000105],[-0.23895899999990905,5.574978999999985],[-0.23828499999990538,5.574964000000023],[-0.23822699999993804,5.574901000000126],[-0.23806499999994832,5.573791000000141],[-0.23812099999992167,5.573440000000005],[-0.23893999999995638,5.572048000000167],[-0.2390559999999479,5.57185499999997],[-0.23909997172842218,5.571760742076549],[-0.23912852526052625,5.571689358246318],[-0.2392284626226909,5.571539452203012],[-0.24144552541491737,5.572656410856782],[-0.24251152394549508,5.573360731314552],[-0.24355848678806066,5.573836623515772],[-0.24479580651109184,5.574617086725539],[-0.24519555596009482,5.574007944708171],[-0.24571427845938748,5.574274444340858]]]}},{"type":"Feature","properties":{"Country":"Ghana","City":"Accra","Settlement":"CHORKOR","Establishe":"1820","Last_Updat":"08-10-2016","Population":"25000","Structures":"9010","url":"https://sdinet.org/settlement/1846/5129982","Area":25000.0,"pop":25000.0,"kyc_year":2016.0},"geometry":{"type":"Polygon","coordinates":[[[-0.2528889999999246,5.526232000000051],[-0.25183899999996084,5.52879900000005],[-0.25174699999996564,5.529331000000071],[-0.2514319999999653,5.530155000000036],[-0.2511449999999509,5.530785000000037],[-0.25126799999992516,5.531443000000023],[-0.25210499999997177,5.532272000000036],[-0.2517269999999601,5.5324370000000735],[-0.24889099999995642,5.532243000000052],[-0.24764599999997466,5.532276000000024],[-0.24753399999997353,5.532227000000035],[-0.24737899999996654,5.531339000000061],[-0.24583099999995162,5.531370000000037],[-0.2456879999999734,5.530647000000045],[-0.24420599999996223,5.530756000000054],[-0.2440689999999664,5.530155000000035],[-0.24092199999995473,5.530335000000036],[-0.23939299999994973,5.530453000000024],[-0.23814999999996236,5.530573000000062],[-0.2379619999999259,5.529988000000059],[-0.2369139999999562,5.530176000000039],[-0.2367819999999483,5.529630000000053],[-0.23635499999994725,5.527531000000068],[-0.23618099999993114,5.526590000000056],[-0.23641499999996463,5.526125000000037],[-0.2385359999999532,5.52574500000003],[-0.24329399999993429,5.524940000000072],[-0.24603598999993975,5.52434280600005],[-0.24825799999996379,5.524243000000072],[-0.25028399999996515,5.5237170000000315],[-0.25206899999994953,5.523378000000038],[-0.25284599999997637,5.523637000000064],[-0.25309199999992493,5.523956000000055],[-0.253190999999959,5.524621000000024],[-0.2528889999999246,5.526232000000051]]]}},{"type":"Feature","properties":{"Country":"Ghana","City":"Accra","Settlement":"DARKUMAN WEST","Establishe":"1958","Last_Updat":"10-10-2016","Population":"60000","Structures":"14090","url":"https://sdinet.org/settlement/1846/5122299","Area":60000.0,"pop":60000.0,"kyc_year":2016.0},"geometry":{"type":"Polygon","coordinates":[[[-0.2635019999999603,5.598009000000047],[-0.260824999999954,5.600923000000023],[-0.2586819999999647,5.6024000000000465],[-0.25658299999997725,5.603349000000036],[-0.2564329999999594,5.603255000000047],[-0.25621799999993344,5.602100000000063],[-0.2561179999999587,5.601781000000074],[-0.25516899999996695,5.600102000000049],[-0.2545889999999529,5.598348000000044],[-0.2523389999999504,5.594525000000032],[-0.2522319999999356,5.594313000000059],[-0.2522189999999681,5.593932000000052],[-0.25260799999995254,5.592097000000025],[-0.25262699999996246,5.591787000000068],[-0.2525629999999523,5.591461000000039],[-0.2518569999999724,5.590099000000066],[-0.251408999999967,5.589179000000058],[-0.2511279999999373,5.588638000000061],[-0.25104899999996566,5.588504000000057],[-0.2510079999999562,5.5883060000000455],[-0.25100499999996345,5.5881820000000735],[-0.25104199999992727,5.587992000000044],[-0.2515399999999773,5.586327000000041],[-0.251593999999955,5.586289000000022],[-0.25164299999994366,5.585989000000041],[-0.25168699999994704,5.585824000000059],[-0.2516469999999336,5.58568900000006],[-0.2516509999999236,5.583292000000028],[-0.25169799999997544,5.582087000000059],[-0.2516459999999364,5.581349000000045],[-0.2517049999999582,5.5811650000000546],[-0.25173599999993684,5.581055000000051],[-0.25180799999992615,5.580946000000039],[-0.2518999999999782,5.580901000000041],[-0.2523889999999366,5.580530000000068],[-0.2526389519999275,5.580305059000069],[-0.2529539999999311,5.57999200000006],[-0.25346099999995986,5.579275000000053],[-0.2540709999999534,5.578336000000034],[-0.2545789999999786,5.577529000000027],[-0.25491699999997797,5.5769710000000705],[-0.2550259999999307,5.576965000000029],[-0.2556469999999534,5.577346000000033],[-0.2565299999999418,5.577862000000039],[-0.25701999999995423,5.57815800000003],[-0.2573889999999323,5.578399000000047],[-0.25805899999994564,5.5787970000000655],[-0.258057999999948,5.578905000000018],[-0.2575449999999361,5.57973800000002],[-0.25680699999998075,5.580884000000026],[-0.25613499999997147,5.581944000000021],[-0.2553169999999339,5.583305000000051],[-0.2562649999999281,5.583908000000065],[-0.25830399999995224,5.585153000000047],[-0.2595149999999649,5.5858400000000765],[-0.2612129999999408,5.5873940000000735],[-0.2610459999999647,5.587479000000029],[-0.26091499999995443,5.587661000000026],[-0.26050199999997414,5.588982000000045],[-0.2604509999999327,5.589225000000056],[-0.2597789999999803,5.591052000000048],[-0.25936799999993787,5.591886000000046],[-0.2592719999999527,5.592073000000027],[-0.25926099999992314,5.592461000000071],[-0.2586919999999394,5.594317000000046],[-0.25864799999993643,5.594516000000057],[-0.25866399999995277,5.594772000000035],[-0.25882299999994934,5.595020000000033],[-0.25946999999996473,5.595557000000041],[-0.2595929999999394,5.595662000000059],[-0.2614039999999709,5.59656700000005],[-0.2635019999999603,5.598009000000047]]]}},{"type":"Feature","properties":{"Country":"Ghana","City":"Accra","Settlement":"DZORWULU","Establishe":"1955","Last_Updat":"10-10-2016","Population":"96000","Structures":"1170","url":"https://sdinet.org/settlement/1846/5119988","Area":96000.0,"pop":96000.0,"kyc_year":2016.0},"geometry":{"type":"Polygon","coordinates":[[[-0.20869800041236852,5.615485999779139],[-0.20068699970522708,5.616597999797876],[-0.19362100030889376,5.617522000140243],[-0.19241100026738475,5.617748999816514],[-0.18516299967262756,5.619990999784875],[-0.18034300042910378,5.621646999709299],[-0.17922099994916652,5.621782999685764],[-0.1771230003261622,5.620622000105244],[-0.17639900021362168,5.619542999809653],[-0.17628700044468942,5.618441000252006],[-0.18045800033638615,5.617996999561911],[-0.18549399964831498,5.615013000449665],[-0.1915170004091921,5.611120999934257],[-0.19387500033093388,5.610132000191697],[-0.20257400038974488,5.6083449996220915],[-0.2048009996663613,5.607594000063103],[-0.20628199961453186,5.606824999674017],[-0.2069230003961019,5.607260999995218],[-0.20858799983625398,5.608332999968013],[-0.21093300005787785,5.60994999989265],[-0.21189300026168248,5.611059999819191],[-0.21261600032812605,5.612419000436545],[-0.21286900030406763,5.614907000058054],[-0.20869800041236852,5.615485999779139]]]}},{"type":"Feature","properties":{"Country":"Ghana","City":"Accra","Settlement":"EAST LEGON","Establishe":"1939","Last_Updat":"10-10-2016","Population":"125000","Structures":"6660","url":"https://sdinet.org/settlement/1846/5121728","Area":125000.0,"pop":125000.0,"kyc_year":2016.0},"geometry":{"type":"Polygon","coordinates":[[[-0.17795399997709105,5.640625999890007],[-0.17740599988695765,5.640787000119985],[-0.17696300014227953,5.640860999935229],[-0.1750279999421883,5.641034999865384],[-0.17359699960178468,5.641164000418315],[-0.1721480002299816,5.64124200041806],[-0.169635000354958,5.641542999909574],[-0.16833699985261355,5.641719999978079],[-0.16684400025036514,5.641838000023711],[-0.1660450002764829,5.641788000415944],[-0.16490299977357373,5.642100999561535],[-0.16389700014639233,5.642204999860894],[-0.1623740000600256,5.64229799965301],[-0.16114399999554466,5.642368000183125],[-0.15992699963129417,5.642828999858523],[-0.1585710000515524,5.643564999625085],[-0.15680699964326467,5.644866000265722],[-0.15504400018039602,5.646156000399174],[-0.15313899956515745,5.6472810001180855],[-0.1520329998230632,5.647614000186025],[-0.1503470003137858,5.648198000137654],[-0.14955799990173146,5.646507000397776],[-0.14859100027439376,5.644773999620442],[-0.14790500011559918,5.643594000063104],[-0.14649699993657245,5.641702000047303],[-0.1451400003107321,5.6398979995930745],[-0.1437389995551255,5.638007999669526],[-0.14311699964975017,5.636941999973374],[-0.14315799974184423,5.636291999676077],[-0.14290399971974888,5.6352670000720195],[-0.14355299997094892,5.6349960001653026],[-0.14591500007713853,5.634113999961186],[-0.14783000025425988,5.633330999825828],[-0.14906299955771313,5.632733000127927],[-0.15035199964501125,5.632115999553776],[-0.15253000025927624,5.63109600018032],[-0.15416700020682597,5.630450000067471],[-0.1556090001552093,5.630020000023023],[-0.15762200035499113,5.629357000025608],[-0.16126500017958204,5.628169000099319],[-0.1630529998959674,5.627598999893962],[-0.16534699956434917,5.626850000427228],[-0.16774799967038212,5.626051999600121],[-0.16807899964606995,5.6262590001528],[-0.1698909995699287,5.625337999948783],[-0.17334399962584232,5.624251000183563],[-0.17348599987894897,5.624222999791641],[-0.17386700036172345,5.6242789996761635],[-0.17519999978009076,5.625173999580453],[-0.17617899996082523,5.625936999692841],[-0.17632200026002884,5.626159000037887],[-0.17632200026002884,5.627286999895205],[-0.17679200035047402,5.632438000013734],[-0.17732699984111247,5.637099000018907],[-0.17795399997709105,5.640625999890007]]]}},{"type":"Feature","properties":{"Country":"Ghana","City":"Accra","Settlement":"GBEBU","Establishe":"1901","Last_Updat":"08-10-2016","Population":"250000","Structures":"6106","url":"https://sdinet.org/settlement/1846/5129339","Area":250000.0,"pop":250000.0,"kyc_year":2016.0},"geometry":{"type":"Polygon","coordinates":[[[-0.2783799999999696,5.524990000000115],[-0.2787299999998817,5.52519000000018],[-0.27867999999983867,5.526782999999966],[-0.27428999999995096,5.52720000000005],[-0.2730499999999552,5.5280100000001084],[-0.27176999999988993,5.528860000000065],[-0.269939999999905,5.52956000000006],[-0.2683699999999466,5.528220000000034],[-0.26774999999997834,5.52782000000019],[-0.26656999999988706,5.52711999999997],[-0.26500999999996105,5.528380000000141],[-0.2634283779999004,5.52969423800016],[-0.26087999999992895,5.531160000000112],[-0.2602499999999291,5.528970000000129],[-0.2598999999999021,5.5262800000001],[-0.2596699999999711,5.526070000000175],[-0.260279999999909,5.525770000000023],[-0.2599599999999211,5.524610000000167],[-0.26050999999995367,5.5235300000001075],[-0.2605199999998712,5.523250000000076],[-0.26049999999992246,5.522630000000107],[-0.2604299999998135,5.521746000000121],[-0.27149999999994706,5.519390000000044],[-0.2808599999999051,5.517650000000174],[-0.2817499999999315,5.517610000000047],[-0.28160999999994446,5.520010000000014],[-0.2805399999999744,5.521000000000073],[-0.28051999999991006,5.5211800000000135],[-0.27895563755009684,5.521721255020225],[-0.27808767570275034,5.522409638554392],[-0.27766865963849297,5.523068092369612],[-0.2769802761043256,5.522948373494045],[-0.2767408383533622,5.523576897590489],[-0.27566336847382883,5.5232177409639],[-0.27500491465860966,5.522409638554391],[-0.2739274447790762,5.5226191465864645],[-0.2724010291163376,5.521870903614511],[-0.2705154568271836,5.522200130522151],[-0.269078830321234,5.522409638554391],[-0.26871967369464755,5.52220013052215],[-0.2683605170681752,5.522679006024247],[-0.2677918524095164,5.5223797088353885],[-0.2672830471886418,5.522798724899758],[-0.26758234437744516,5.523187811245123],[-0.26782178212840735,5.5236966164659975],[-0.2685700251003594,5.523576897590488],[-0.2690189708835069,5.522918443775267],[-0.26976721385534563,5.52300823293183],[-0.2699168624497475,5.523606827309266],[-0.27030594879511316,5.523068092369614],[-0.27111405120479104,5.522828654618537],[-0.2713235592368611,5.52312795180734],[-0.27198201305208186,5.522768795180754],[-0.2723710993975596,5.523068092369614],[-0.27341863955820284,5.522679006024248],[-0.27371793674689127,5.523517038152704],[-0.2736880070280568,5.524474789156727],[-0.2738975150601845,5.525013524096437],[-0.27413695281114747,5.5260012048194085],[-0.2742866014055497,5.52531282128524],[-0.27491512550187674,5.52531282128524],[-0.27539400100397365,5.525103313253169],[-0.275753157630448,5.524833945783312],[-0.2760524548191928,5.5245346485945115],[-0.2764415411645581,5.524385000000165],[-0.2770906136068453,5.5245630473414735],[-0.2779263497445762,5.524839128268868],[-0.2783799999999696,5.524990000000115]]]}},{"type":"Feature","properties":{"Country":"Ghana","City":"Accra","Settlement":"GBEMOMO","Establishe":"1970","Last_Updat":"09-10-2016","Population":"7000","Structures":"2605","url":"https://sdinet.org/settlement/1846/5153287","Area":7000.0,"pop":7000.0,"kyc_year":2016.0},"geometry":{"type":"Polygon","coordinates":[[[-0.2541919999999321,5.597831000000042],[-0.25014499999997536,5.600124000000052],[-0.24952199999995545,5.600435000000061],[-0.2489969999999744,5.600646000000041],[-0.24816899999996175,5.600985000000038],[-0.24707899999992733,5.601381000000061],[-0.24597999999997464,5.601794000000041],[-0.24504299999995321,5.60204600000003],[-0.24484099999995082,5.601672000000066],[-0.24469799999996983,5.601279000000033],[-0.24409399999996187,5.5997390000000555],[-0.24407799999994592,5.5991540000000555],[-0.2439589999999612,5.597208000000024],[-0.24540999999993532,5.597094000000026],[-0.24537699999996188,5.595354000000043],[-0.245348999999976,5.593621000000041],[-0.24547999999992903,5.593539000000021],[-0.24790099999995563,5.5935720000000515],[-0.24802699999997913,5.593510000000038],[-0.24851199999994875,5.593475000000069],[-0.24886399999996933,5.593525000000057],[-0.24895899999995652,5.593537000000025],[-0.2491149999999611,5.593518000000073],[-0.24934199999995618,5.593475000000069],[-0.24979099999995955,5.593258000000048],[-0.2498789999999644,5.593248000000074],[-0.25221599999997535,5.593257000000051],[-0.25213599999995046,5.593647000000032],[-0.25210699999996616,5.5939070000000575],[-0.25210999999995937,5.59410500000007],[-0.2521169999999417,5.594314000000054],[-0.2521939999999746,5.594464000000073],[-0.2521949999999714,5.594590000000038],[-0.252291999999953,5.594753000000026],[-0.25308499999994216,5.596043000000066],[-0.2541919999999321,5.597831000000042]]]}},{"type":"Feature","properties":{"Country":"Ghana","City":"Accra","Settlement":"GBORTSUI","Establishe":"1920","Last_Updat":"08-10-2016","Population":"144000","Structures":"5000","url":"https://sdinet.org/settlement/1846/5131202","Area":144000.0,"pop":144000.0,"kyc_year":2016.0},"geometry":{"type":"Polygon","coordinates":[[[-0.2591759999999683,5.551714000000061],[-0.25916055999994,5.554106373000025],[-0.25920999999993816,5.555810000000065],[-0.2592028719999472,5.556572723000044],[-0.2588779999999239,5.558317000000043],[-0.257129999999961,5.558300000000032],[-0.25488476199996,5.558820823000077],[-0.2531099999999353,5.5592700000000255],[-0.2523899999999338,5.559480000000065],[-0.25129999999995745,5.559620000000053],[-0.25069999999993864,5.559540000000029],[-0.24917999999996684,5.559270000000026],[-0.24855999999994094,5.559210000000063],[-0.24809999999996482,5.5590700000000774],[-0.2477399999999643,5.559000000000025],[-0.2471899999999317,5.5588500000000645],[-0.24653999999992512,5.5587600000000625],[-0.24721999999997,5.555840000000046],[-0.24727999999993253,5.555300000000045],[-0.24757999999997013,5.553410000000042],[-0.24764999999996504,5.553360000000054],[-0.2482699999999341,5.553250000000049],[-0.24903999999997903,5.553040000000069],[-0.24975999999998091,5.5528300000000295],[-0.25042999999993815,5.552610000000074],[-0.2506599999999252,5.552550000000053],[-0.2522199999999657,5.552210000000061],[-0.25264999999996035,5.55209000000002],[-0.25301999999993485,5.551980000000071],[-0.25348999999994176,5.551740000000052],[-0.2536399999999612,5.551640000000021],[-0.25392999999996796,5.551530000000071],[-0.25456999999994495,5.5513500000000695],[-0.2546399999999387,5.551320000000033],[-0.2544599999999382,5.550180000000069],[-0.2545299999999311,5.5500900000000675],[-0.25515999999993255,5.549990000000038],[-0.2556199999999647,5.549900000000037],[-0.25799999999992423,5.549540000000035],[-0.2590439999999604,5.549402000000044],[-0.2590979999999382,5.550490000000026],[-0.2591759999999683,5.551714000000061]]]}},{"type":"Feature","properties":{"Country":"Ghana","City":"Accra","Settlement":"GONTENG","Establishe":"1970","Last_Updat":"09-10-2016","Population":"12000","Structures":"4180","url":"https://sdinet.org/settlement/1846/5153297","Area":12000.0,"pop":12000.0,"kyc_year":2016.0},"geometry":{"type":"Polygon","coordinates":[[[-0.23630999999994623,5.582620000000076],[-0.2362699999999336,5.584560000000068],[-0.23624999999992766,5.585670000000049],[-0.23685217399997824,5.58578132100007],[-0.23698999999993425,5.586910000000046],[-0.23552999999992538,5.587690000000066],[-0.234689999999944,5.588130000000037],[-0.23304015799993788,5.589002932000029],[-0.23234968799994213,5.5893614100000395],[-0.23141153699992892,5.589811136000036],[-0.23047521899997103,5.590230913000028],[-0.23024756399996674,5.590872610000078],[-0.22870999999997788,5.5903600000000315],[-0.2283699999999276,5.58994000000007],[-0.22791060799994367,5.58935488000003],[-0.22766302999997434,5.589039543000069],[-0.22751612599995477,5.588852434000046],[-0.22740141099995917,5.588706323000055],[-0.22711008599992477,5.588335268000037],[-0.22691943599994602,5.588092439000036],[-0.22672878499997706,5.587849611000024],[-0.22646999999994855,5.5875200000000405],[-0.22626171399997483,5.587199127000077],[-0.22608334599993915,5.586924344000066],[-0.22593540599996262,5.586696436000069],[-0.22572999999994234,5.5863800000000765],[-0.22516766299997956,5.585471107000046],[-0.22496125999992886,5.585137502000066],[-0.22486999999995344,5.584990000000062],[-0.22475769799996154,5.584762360000069],[-0.2245920399999486,5.584426568000028],[-0.22449999999997816,5.584240000000024],[-0.22434937699995308,5.583854194000026],[-0.22392999999993884,5.582780000000071],[-0.22388632399997635,5.582564980000028],[-0.22379999999992575,5.582140000000037],[-0.22377472299996246,5.582045634000053],[-0.22370493199997604,5.581785081000021],[-0.2236499999999636,5.581580000000031],[-0.22361999999992488,5.581410000000062],[-0.22358448799997194,5.581079656000042],[-0.22341999999997694,5.578480000000069],[-0.22338999999993664,5.57803000000007],[-0.22318999999993103,5.577410000000042],[-0.22306999999995034,5.575170000000071],[-0.22281999999995575,5.572820000000036],[-0.22272999999995652,5.572040000000071],[-0.22276999999996877,5.570980000000019],[-0.22292999999996252,5.570910000000026],[-0.2239199999999629,5.571950000000073],[-0.22476999999997826,5.572860000000048],[-0.2260399999999547,5.574280000000044],[-0.22616999999996856,5.574380000000076],[-0.22626999999994296,5.574430000000064],[-0.22676999999993092,5.574690000000032],[-0.22697999999996968,5.57481000000007],[-0.22711999999995633,5.574940000000026],[-0.22714999999993818,5.575020000000053],[-0.22710999999992554,5.575050000000034],[-0.22681999999997515,5.575190000000021],[-0.2268399999999242,5.575240000000065],[-0.2280399999999642,5.576550000000054],[-0.2281699999999769,5.57665000000003],[-0.2287199999999542,5.577060000000073],[-0.22912999999994174,5.577500000000045],[-0.2295799999999419,5.577120000000036],[-0.2296399999999609,5.57710000000003],[-0.22968999999994788,5.5771100000000615],[-0.22975999999994198,5.5771700000000255],[-0.22992999999996694,5.577310000000069],[-0.23069999999995539,5.578190000000063],[-0.23093999999997525,5.578520000000025],[-0.23157999999995182,5.579120000000046],[-0.23172999999997043,5.57922000000002],[-0.23192999999997643,5.579320000000053],[-0.23290999999994644,5.57967000000002],[-0.23301999999995357,5.579680000000053],[-0.23318999999997972,5.579700000000059],[-0.2333599999999478,5.57967000000002],[-0.23359999999996645,5.579590000000053],[-0.23392999999992986,5.579350000000032],[-0.23412999999993667,5.579530000000034],[-0.23435999999992332,5.579810000000066],[-0.23452999999994986,5.580040000000054],[-0.23489999999992472,5.580640000000074],[-0.2349099999999567,5.580670000000055],[-0.23494999999996896,5.580690000000061],[-0.23558999999994515,5.581230000000063],[-0.23528999999996397,5.581630000000076],[-0.23516999999992563,5.581870000000039],[-0.23509999999993192,5.582170000000076],[-0.23504999999994375,5.582340000000044],[-0.235039999999969,5.5824400000000765],[-0.23630999999994623,5.582620000000076]]]}},{"type":"Feature","properties":{"Country":"Ghana","City":"Accra","Settlement":"Kanda","Establishe":"1892","Last_Updat":"04-03-2017","Population":"7500","Structures":"417","url":"https://sdinet.org/settlement/1846/3082992","Area":7500.0,"pop":7500.0,"kyc_year":2017.0},"geometry":{"type":"Polygon","coordinates":[[[-0.18832714251811938,5.585654200763712],[-0.1880891964175356,5.584464470260799],[-0.19011173827249167,5.585297281612782],[-0.19115275246247085,5.583363969545532],[-0.19143977494638892,5.5819809078359395],[-0.19254622431407092,5.580017852506102],[-0.1931886787856448,5.578840019308188],[-0.19364375070296141,5.57788823490597],[-0.19426241056453367,5.57653194213259],[-0.19473830276570045,5.575508773900139],[-0.1950714273064594,5.57512806013915],[-0.19616597936914157,5.575342211629675],[-0.19700339330165706,5.574563286087481],[-0.1986952019219639,5.573804911367633],[-0.19835816580297205,5.574399422957469],[-0.19731979677112543,5.576231043928089],[-0.19698918033156998,5.577183268276542],[-0.19613599463775677,5.579102163507514],[-0.194709453760765,5.58197166883599],[-0.19273974037122307,5.586482099514171],[-0.19235301152502848,5.5877166630428965],[-0.19177664713822604,5.588631382374103],[-0.18985404264554914,5.587584419531651],[-0.1894352575084776,5.58817452586095],[-0.18873093705081975,5.586746849257565],[-0.18832714251811938,5.585654200763712]]]}},{"type":"Feature","properties":{"Country":"Ghana","City":"Accra","Settlement":"KANESHIE","Establishe":"1970","Last_Updat":"09-10-2016","Population":"60000","Structures":"8187","url":"https://sdinet.org/settlement/1846/5141628","Area":60000.0,"pop":60000.0,"kyc_year":2016.0},"geometry":{"type":"Polygon","coordinates":[[[-0.22448099999996823,5.56627100000003],[-0.2274389999999474,5.563651000000049],[-0.22913299999993295,5.561938000000056],[-0.22941299999996503,5.561785000000042],[-0.22951699999992978,5.561753000000067],[-0.2296889999999503,5.56176400000004],[-0.22991799999994175,5.561820000000068],[-0.230112999999959,5.561877000000039],[-0.23206799999997024,5.5630930000000385],[-0.23487299999993605,5.564873000000034],[-0.2360039999999795,5.565522000000044],[-0.23705399999994362,5.566224000000034],[-0.2379159999999265,5.566677000000027],[-0.23950999999993924,5.567619000000036],[-0.24107199999997375,5.568575000000066],[-0.24201299999992867,5.569205000000067],[-0.24210699999997515,5.56919700000003],[-0.2417939999999704,5.569424000000027],[-0.24134699999996143,5.570031000000028],[-0.24120899999996878,5.570145000000026],[-0.23953399999993513,5.570672000000059],[-0.2380379999999616,5.571087000000035],[-0.23763899999994445,5.571191000000056],[-0.2364179999999574,5.571530000000054],[-0.23551899999995346,5.571763000000032],[-0.2352629999999749,5.571766000000024],[-0.23328099999997653,5.571764000000029],[-0.23319799999995808,5.5716940000000355],[-0.2321339999999744,5.5711520000000405],[-0.23102599999992965,5.572142000000041],[-0.23080599999997337,5.5724700000000675],[-0.23060899999995857,5.572526000000041],[-0.23041299999994255,5.57244000000003],[-0.23021199999993855,5.572394000000029],[-0.23001899999997058,5.572451000000057],[-0.2298619999999688,5.572585000000061],[-0.22847099999995643,5.57379700000007],[-0.2272959999999668,5.574958000000037],[-0.2272289999999663,5.5749020000000655],[-0.22691699999995754,5.574682000000054],[-0.2262129999999728,5.574303000000043],[-0.22612799999995994,5.5742290000000585],[-0.22604999999992903,5.574138000000061],[-0.22579299999995447,5.57386900000006],[-0.22518899999994255,5.573185000000024],[-0.22400499999997736,5.571833000000029],[-0.22287999999997554,5.570678000000043],[-0.22167699999994198,5.569354000000033],[-0.22156499999994084,5.569188000000055],[-0.2214279999999458,5.56869400000005],[-0.22148999999995955,5.5685730000000735],[-0.22157099999992638,5.5684720000000425],[-0.22192999999992855,5.56829200000004],[-0.22255299999994724,5.568056000000069],[-0.22448099999996823,5.56627100000003]]]}},{"type":"Feature","properties":{"Country":"Ghana","City":"Accra","Settlement":"KANTEISAN","Establishe":"1970","Last_Updat":"10-10-2016","Population":"25600","Structures":"2000","url":"https://sdinet.org/settlement/1846/5142799","Area":25600.0,"pop":25600.0,"kyc_year":2016.0},"geometry":{"type":"Polygon","coordinates":[[[-0.2514899999999318,5.586310000000025],[-0.2500297289999475,5.586311893000073],[-0.24928009199993562,5.586312864000036],[-0.24836404799992784,5.586314051000045],[-0.24759061599996796,5.586315054000066],[-0.24515999999994192,5.5863200000000575],[-0.2411838339999696,5.586246505000078],[-0.2393434699999377,5.586252454000032],[-0.23936250599996264,5.586390463000045],[-0.23865844499994196,5.586538166000024],[-0.23807149899994323,5.586583199000073],[-0.23734472299997783,5.586460000000045],[-0.2369164199999437,5.586466605000056],[-0.23685217399997824,5.58578132100007],[-0.23624999999992766,5.585670000000049],[-0.23627512899997724,5.584311221000063],[-0.23630999999994623,5.582620000000076],[-0.23554779199997672,5.582511971000031],[-0.23504999999994375,5.582340000000044],[-0.23509999999993192,5.582170000000076],[-0.23516999999992563,5.581870000000039],[-0.23523909999994386,5.581731801000045],[-0.23528999999996397,5.581630000000076],[-0.23558999999994515,5.581230000000063],[-0.23577799999992516,5.581172000000037],[-0.23632144499993063,5.58117108700003],[-0.23683535899994052,5.581170224000061],[-0.2375301599999498,5.581169057000067],[-0.23791093599993463,5.581168418000061],[-0.23875499999996913,5.58116700000005],[-0.23911499999996927,5.580982000000062],[-0.23927812599993065,5.580854628000053],[-0.23950259499997648,5.580656189000023],[-0.23970899999994805,5.580445000000054],[-0.23986841899994707,5.58027854100004],[-0.24000723499995053,5.580368879000048],[-0.2404720809999505,5.580671389000032],[-0.2412309999999699,5.581158000000074],[-0.2417086049999281,5.581454469000052],[-0.24182281899993505,5.581530612000052],[-0.2423485729999576,5.581739248000076],[-0.24254617499997339,5.5819969860000365],[-0.24291799999997427,5.58196900000007],[-0.24323105299993036,5.5819650210000304],[-0.24357480199995474,5.581966211000066],[-0.24442599999997533,5.581981000000042],[-0.2446759999999691,5.582104000000072],[-0.24489598999997483,5.5821008780000625],[-0.2457253149999594,5.582094210000036],[-0.2463037349999694,5.582108135000055],[-0.24767399999996054,5.582111000000054],[-0.2477821789999544,5.582004124000036],[-0.24799631899998006,5.58195197300006],[-0.2485733549999619,5.581951815000024],[-0.2496797979999317,5.581951512000046],[-0.25018543599992404,5.581951373000039],[-0.2507327169999479,5.581951223000034],[-0.25154699999996005,5.581951000000061],[-0.25169799999997544,5.582087000000059],[-0.2516492069999572,5.5843667160000345],[-0.2516469999999336,5.58568900000006],[-0.2514899999999318,5.586310000000025]]]}},{"type":"Feature","properties":{"Country":"Ghana","City":"Accra","Settlement":"KORLE BU","Establishe":"1970","Last_Updat":"09-10-2016","Population":"900","Structures":"275","url":"https://sdinet.org/settlement/1846/5131720","Area":900.0,"pop":900.0,"kyc_year":2016.0},"geometry":{"type":"Polygon","coordinates":[[[-0.2375319999998732,5.53381900000005],[-0.23757099999988868,5.5338610000001145],[-0.23890499999987405,5.53940300000005],[-0.2392437514617993,5.540740750939733],[-0.23869627714202635,5.540960256217544],[-0.2378872603999865,5.5410851779203645],[-0.2361740484758462,5.534137151783341],[-0.23678799999987662,5.5339730000001754],[-0.2371629999998955,5.533910999999989],[-0.2375319999998732,5.53381900000005]]]}},{"type":"Feature","properties":{"Country":"Ghana","City":"Accra","Settlement":"Korle Dudor","Establishe":"1970","Last_Updat":"13-01-2018","Population":"2000","Structures":"20026","url":"https://sdinet.org/settlement/1846/5120265","Area":2000.0,"pop":2000.0,"kyc_year":2018.0},"geometry":{"type":"Polygon","coordinates":[[[-0.22052399999995506,5.550359000000071],[-0.22134199999993573,5.551107000000059],[-0.22197599999992715,5.551709000000074],[-0.22348699999997748,5.553125000000022],[-0.2215929999999271,5.555692000000023],[-0.22107099999993765,5.55613500000004],[-0.22080995099997797,5.556035922000035],[-0.22016323999997675,5.555541501000052],[-0.2193829999999997,5.554438],[-0.21848200000000015,5.553456],[-0.21776476099995554,5.553030396000055],[-0.216941650999957,5.552724582000053],[-0.21624999999999966,5.552345000000001],[-0.21499399999993268,5.551954000000023],[-0.21440499999999954,5.55132],[-0.21371799999999894,5.550893],[-0.21312399999993628,5.550645000000031],[-0.2124799999999713,5.550208000000055],[-0.21137999999996296,5.5501030000000355],[-0.21074599999997315,5.54990900000007],[-0.21040599999997733,5.549817000000076],[-0.21037341799996045,5.54907896800006],[-0.21022299999992763,5.548814000000049],[-0.21012381899993202,5.548103470000057],[-0.21005299999995913,5.547663000000057],[-0.21003055699992407,5.547472907000042],[-0.20999235299996147,5.547149316000058],[-0.2099224279999697,5.546721288000072],[-0.21002399999997606,5.546605000000056],[-0.20995699999997394,5.5465580000000605],[-0.2098689999999695,5.545735000000035],[-0.21098999999992332,5.545538000000022],[-0.21274667299997013,5.54509508700005],[-0.21377499999994204,5.545016000000033],[-0.21650499999992615,5.544547000000023],[-0.2168399999999332,5.545600000000034],[-0.2172129999999589,5.546662000000025],[-0.21747599999997744,5.547632000000021],[-0.21842299999997242,5.548469000000069],[-0.22052399999995506,5.550359000000071]]]}},{"type":"Feature","properties":{"Country":"Ghana","City":"Accra","Settlement":"KORLE GONNO","Establishe":"1800","Last_Updat":"13-01-2018","Population":"7500","Structures":"6420","url":"https://sdinet.org/settlement/1846/5126635","Area":7500.0,"pop":7500.0,"kyc_year":2018.0},"geometry":{"type":"Polygon","coordinates":[[[-0.23744899999996924,5.533689000000038],[-0.2351849999999452,5.534225000000049],[-0.23176799999993145,5.534989000000053],[-0.22913799999997694,5.535542000000022],[-0.22655799999995538,5.536099000000037],[-0.2236169999999341,5.536749000000044],[-0.22191499999996703,5.5370340000000615],[-0.22173699999996174,5.53689600000007],[-0.22149199999995514,5.535881000000074],[-0.22144299999996575,5.535313000000031],[-0.2220409999999333,5.531570000000045],[-0.22228299999994794,5.531011000000034],[-0.22268099999996513,5.530637000000071],[-0.22301699999997018,5.530373000000055],[-0.22381299999995052,5.530013000000054],[-0.22532399999994399,5.529476000000045],[-0.22728599999993523,5.5288980000000265],[-0.22973799999994127,5.528422000000034],[-0.23232599999994238,5.52765000000005],[-0.2340559999999522,5.526991000000067],[-0.23517399999997285,5.526611000000059],[-0.23608699999994154,5.526510000000029],[-0.2362689999999364,5.526950000000054],[-0.23635499999994725,5.527531000000068],[-0.23701499999992895,5.531157000000064],[-0.23751899999996254,5.533652000000074],[-0.23744899999996924,5.533689000000038]]]}},{"type":"Feature","properties":{"Country":"Ghana","City":"Accra","Settlement":"KOTOBABI","Establishe":"1865","Last_Updat":"09-10-2016","Population":"9600","Structures":"2200","url":"https://sdinet.org/settlement/1846/5142187","Area":9600.0,"pop":9600.0,"kyc_year":2016.0},"geometry":{"type":"Polygon","coordinates":[[[-0.2052009999999312,5.592376000000059],[-0.20615499999996698,5.591277000000048],[-0.2062369999999302,5.591332000000024],[-0.20661499999994387,5.591679000000056],[-0.2071279999999546,5.592055000000074],[-0.20827699999995156,5.592518000000042],[-0.2097859999999522,5.593020000000023],[-0.2100099999999537,5.593058000000043],[-0.21057299999995382,5.593091000000074],[-0.21234999999995782,5.5932990000000595],[-0.2123289999999547,5.593425000000025],[-0.212745999999925,5.593425000000025],[-0.2133899999999464,5.593437000000052],[-0.21358499999996564,5.593488000000035],[-0.21318499999995444,5.594368000000031],[-0.21236199999992736,5.595905000000071],[-0.21143499999993753,5.597641000000066],[-0.21137699999997137,5.597770000000025],[-0.2104259999999268,5.5996200000000735],[-0.21012899999993842,5.599875000000054],[-0.20900699999992856,5.600945000000023],[-0.20851899999996656,5.601518000000056],[-0.2080589999999344,5.602272000000027],[-0.20734299999997977,5.60344200000003],[-0.20680899999996472,5.603848000000028],[-0.20526899999992973,5.604800000000068],[-0.2046349999999395,5.605117000000064],[-0.20443299999993753,5.605281000000048],[-0.20428699999996494,5.605262000000039],[-0.19881099999997837,5.601700000000052],[-0.19726999999994657,5.600699000000021],[-0.1970439999999479,5.600547000000063],[-0.19696899999996742,5.600391000000059],[-0.19699299999996292,5.600293000000023],[-0.1974929999999513,5.5995150000000535],[-0.19821299999995276,5.598406000000068],[-0.19825999999994778,5.598258000000044],[-0.19835399999993739,5.598234000000049],[-0.19831799999997235,5.598160000000064],[-0.19874199999992578,5.597557000000052],[-0.19926799999996128,5.596746000000054],[-0.19940799999994832,5.596605000000069],[-0.19962599999996705,5.596438000000034],[-0.20069099999994952,5.595907000000068],[-0.20121699999992815,5.5956350000000725],[-0.20141899999993015,5.59552400000007],[-0.20158399999996832,5.595380000000034],[-0.20214099999992602,5.594771000000036],[-0.20360399999992687,5.593098000000055],[-0.20412199999992678,5.592530000000068],[-0.20452499999993273,5.59204600000004],[-0.20468599999992368,5.591948000000058],[-0.20475499999997784,5.5919830000000275],[-0.2052009999999312,5.592376000000059]]]}},{"type":"Feature","properties":{"Country":"Ghana","City":"Accra","Settlement":"KWASHIEMAN","Establishe":"1970","Last_Updat":"10-10-2016","Population":"141400","Structures":"10100","url":"https://sdinet.org/settlement/1846/5126973","Area":141400.0,"pop":141400.0,"kyc_year":2016.0},"geometry":{"type":"Polygon","coordinates":[[[-0.2658039999999466,5.594908000000032],[-0.2646909999999719,5.596451000000059],[-0.26357999999993204,5.597856000000036],[-0.2635019999999603,5.598009000000047],[-0.26307399999996006,5.5976830000000755],[-0.2617409999999731,5.596761000000072],[-0.2607419999999367,5.596242000000075],[-0.2597071799999643,5.595680818000062],[-0.2594159999999313,5.595614000000068],[-0.25882299999994934,5.595020000000033],[-0.25865399999997923,5.594756000000076],[-0.25864299999994966,5.594635000000038],[-0.25926099999992314,5.592461000000071],[-0.2593919999999338,5.591836000000058],[-0.2599059999999441,5.59075000000007],[-0.26050199999997414,5.588982000000045],[-0.26117199999993096,5.587422000000063],[-0.26189899999997124,5.5865210000000625],[-0.26266329599997096,5.585693966000066],[-0.2638607549999398,5.585115832000042],[-0.26479799999992787,5.584932000000038],[-0.26504699999992404,5.585736000000052],[-0.2653899999999679,5.58665300000007],[-0.265656999999976,5.586640000000047],[-0.2658769999999327,5.586547000000053],[-0.2671459999999688,5.586101000000043],[-0.26813599999996957,5.586093000000063],[-0.26825699999994945,5.5868690000000365],[-0.2684879999999349,5.587872000000062],[-0.2697729999999297,5.5874800000000295],[-0.2708129999999751,5.587210000000028],[-0.27109199999995354,5.587409000000038],[-0.27124499999996493,5.587566000000037],[-0.2711099999999651,5.587748000000033],[-0.2701159999999723,5.589022000000057],[-0.268860999999959,5.590757000000054],[-0.2684029999999777,5.591378000000018],[-0.26809099999997016,5.591687000000036],[-0.2678279999999524,5.592050000000028],[-0.26705099999992393,5.59314100000006],[-0.2658039999999466,5.594908000000032]]]}},{"type":"Feature","properties":{"Country":"Ghana","City":"Accra","Settlement":"MAAMOBI WEST","Establishe":"1925","Last_Updat":"11-10-2016","Population":"15000","Structures":"9350","url":"https://sdinet.org/settlement/1846/3082372","Area":15000.0,"pop":15000.0,"kyc_year":2016.0},"geometry":{"type":"Polygon","coordinates":[[[-0.193667604244241,5.598500677753862],[-0.1936469999998856,5.598353000000146],[-0.1943963141772546,5.597539613453933],[-0.19481271985324533,5.596980440117476],[-0.19484841176836248,5.5966473155767185],[-0.1937895516207959,5.595826401529394],[-0.1938982041541526,5.595614621167841],[-0.1940332477530549,5.595351400593588],[-0.19431125100999172,5.594809529838584],[-0.19471754141301292,5.594101292300423],[-0.19483723496699612,5.59384395115916],[-0.19499101094010027,5.593418011622874],[-0.1950879996114168,5.5931209999344],[-0.19514584439400545,5.593009119698819],[-0.1956316156258702,5.591397921916155],[-0.1964681291193525,5.588536012897977],[-0.19734786994416728,5.588454856024044],[-0.19800561891111104,5.588316942194694],[-0.19874757907774662,5.588109727319762],[-0.19927185899996372,5.587949043000208],[-0.19981307205097254,5.588046294989056],[-0.20051599999987935,5.58847900000012],[-0.20170699999994257,5.589397000000189],[-0.20255299999985188,5.590020000000208],[-0.2034895231570896,5.590881901535796],[-0.20400398285346444,5.591333741204437],[-0.20468599999986722,5.591948000000231],[-0.20354199999996997,5.593081000000211],[-0.202978152060951,5.593730063224314],[-0.20199399999995704,5.594842000000086],[-0.20140599999990658,5.595464000000163],[-0.20062489855564533,5.595939957621568],[-0.19931168575004812,5.596587591105334],[-0.1992450608418041,5.596668492779487],[-0.19842261799988062,5.598013555000194],[-0.19821299999983827,5.598406000000239],[-0.19774989517912867,5.599030115985102],[-0.19739264499992348,5.59955949200014],[-0.19728344725297106,5.599730671403563],[-0.19705196699988,5.6000935420000815],[-0.19685393894121694,5.600292647022854],[-0.19661721025664775,5.600343743258748],[-0.19658158712519408,5.600485794874146],[-0.1961363499148087,5.600247258486036],[-0.1955902087369171,5.599885524059403],[-0.19498582564142353,5.599440564851307],[-0.19429769046877254,5.599027084786144],[-0.19394435291923123,5.598751430181438],[-0.193667604244241,5.598500677753862]]]}}]}