{
"type": "FeatureCollection",
"name": "Training_polygons",
"crs": { "type": "name", "properties": { "name": "urn:ogc:def:crs:OGC:1.3:CRS84" } },
"features": [
{ "type": "Feature", "properties": { "fid": 1, "class": -1.0 }, "geometry": { "type": "MultiPolygon", "coordinates": [ [ [ [ 6.984207395084388, 4.781510431774952 ], [ 6.984790127145665, 4.781541700453492 ], [ 6.98532355110945, 4.781655607770388 ], [ 6.987461729518905, 4.782321183478621 ], [ 6.987587241039794, 4.785465908276587 ], [ 6.982616088301667, 4.785108553913436 ], [ 6.984207395084388, 4.781510431774952 ] ] ] ] } },
{ "type": "Feature", "properties": { "fid": 2, "class": 1.0 }, "geometry": { "type": "MultiPolygon", "coordinates": [ [ [ [ 6.984971670595508, 4.789526334119518 ], [ 6.985222693637289, 4.789266137036643 ], [ 6.985427770497314, 4.78953638464863 ], [ 6.98554543754815, 4.78948613200159 ], [ 6.985619399694388, 4.789586637291975 ], [ 6.985697844394944, 4.789571003136664 ], [ 6.985775168456923, 4.78971729414739 ], [ 6.985475957956228, 4.789871402201176 ], [ 6.985389388625972, 4.789834829459668 ], [ 6.985363053619356, 4.789871681382398 ], [ 6.984971670595508, 4.789526334119518 ] ] ] ] } },
{ "type": "Feature", "properties": { "fid": 3, "class": 1.0 }, "geometry": { "type": "MultiPolygon", "coordinates": [ [ [ [ 6.99366642517329, 4.796755697365209 ], [ 6.993715733270782, 4.796657426556926 ], [ 6.993536431098081, 4.796474285467387 ], [ 6.993747111151003, 4.796116936858564 ], [ 6.993993651638469, 4.796268810040164 ], [ 6.994132610822313, 4.795969530502947 ], [ 6.993904000552117, 4.795857859000233 ], [ 6.994222261908662, 4.795344169852559 ], [ 6.996060109178849, 4.797054976557849 ], [ 6.995593923529826, 4.797778606302432 ], [ 6.99524428429306, 4.797613332909837 ], [ 6.99484085440448, 4.797398924124685 ], [ 6.994988778696959, 4.797005841177016 ], [ 6.994437424515904, 4.796778031637847 ], [ 6.994199849137075, 4.79709517823045 ], [ 6.99366642517329, 4.796755697365209 ] ] ] ] } },
{ "type": "Feature", "properties": { "fid": 4, "class": 1.0 }, "geometry": { "type": "MultiPolygon", "coordinates": [ [ [ [ 6.985586621015941, 4.789872239744851 ], [ 6.985725580199785, 4.790191622991721 ], [ 6.985880228323739, 4.790160354708403 ], [ 6.986075219436551, 4.790303295420459 ], [ 6.986904491985294, 4.790026347763715 ], [ 6.987106206929584, 4.790263093348213 ], [ 6.987563427469972, 4.789934776336402 ], [ 6.98734602358557, 4.789617626420198 ], [ 6.987552221084178, 4.789014594483648 ], [ 6.98660864340034, 4.7885835379957 ], [ 6.986388998238782, 4.788876120408331 ], [ 6.986756567692819, 4.789202204476449 ], [ 6.986619849786134, 4.789309410163513 ], [ 6.986538603489129, 4.7891899204904 ], [ 6.986223704048322, 4.789425549638863 ], [ 6.986504984331747, 4.78992919271239 ], [ 6.986354818762109, 4.790005129995062 ], [ 6.986213618301107, 4.789821987122494 ], [ 6.986119484660439, 4.789759450520631 ], [ 6.985841566292754, 4.789763917420952 ], [ 6.985586621015941, 4.789872239744851 ] ] ] ] } },
{ "type": "Feature", "properties": { "fid": 5, "class": -1.0 }, "geometry": { "type": "MultiPolygon", "coordinates": [ [ [ [ 6.974529840472476, 4.811242669702318 ], [ 6.973982968845737, 4.808902083605771 ], [ 6.974574666015651, 4.808625143497193 ], [ 6.974870514600608, 4.807687119712172 ], [ 6.975838746333193, 4.807490581231637 ], [ 6.97753315186522, 4.809125422320983 ], [ 6.976134594918151, 4.810331450117387 ], [ 6.974529840472476, 4.811242669702318 ] ] ] ] } },
{ "type": "Feature", "properties": { "fid": 6, "class": 1.0 }, "geometry": { "type": "MultiPolygon", "coordinates": [ [ [ [ 6.975159639354089, 4.805775333904112 ], [ 6.974626215390302, 4.803555332906735 ], [ 6.975545139025396, 4.803506197994032 ], [ 6.975576516905617, 4.803792073800129 ], [ 6.975854435273305, 4.803729538477787 ], [ 6.975926156142386, 4.804582698452156 ], [ 6.975585482014253, 4.80462289968115 ], [ 6.97560789478584, 4.804859640203809 ], [ 6.975903743370797, 4.80484177299742 ], [ 6.975966499131242, 4.805596662059195 ], [ 6.975159639354089, 4.805775333904112 ] ] ] ] } },
{ "type": "Feature", "properties": { "fid": 7, "class": 1.0 }, "geometry": { "type": "MultiPolygon", "coordinates": [ [ [ [ 6.988512048027427, 4.786877177004316 ], [ 6.988615146776731, 4.786441652247521 ], [ 6.989008490918093, 4.785853693386134 ], [ 6.98923261863397, 4.786135109656327 ], [ 6.988842636408346, 4.786555000383991 ], [ 6.988710401055978, 4.787012859660376 ], [ 6.988512048027427, 4.786877177004316 ] ] ] ] } },
{ "type": "Feature", "properties": { "fid": 8, "class": -1.0 }, "geometry": { "type": "MultiPolygon", "coordinates": [ [ [ [ 7.006039465768167, 4.793173242661841 ], [ 7.007358984076232, 4.790858614219598 ], [ 7.009123283836454, 4.791134400147448 ], [ 7.010363729886359, 4.79284328546939 ], [ 7.008080518431953, 4.794483220391101 ], [ 7.006039465768167, 4.793173242661841 ] ] ] ] } },
{ "type": "Feature", "properties": { "fid": 9, "class": 1.0 }, "geometry": { "type": "MultiPolygon", "coordinates": [ [ [ [ 7.05134539868648, 4.810845418314113 ], [ 7.051305862557402, 4.810114114016034 ], [ 7.051745701993423, 4.809961451066828 ], [ 7.051785238122504, 4.81018059625741 ], [ 7.051822303243517, 4.810478535111248 ], [ 7.051943382638826, 4.810446525157995 ], [ 7.051800064170909, 4.810163360121381 ], [ 7.051750644009556, 4.809961451066828 ], [ 7.052373338042576, 4.809535472011426 ], [ 7.052435113244265, 4.809594567387633 ], [ 7.052514185502426, 4.809473914322423 ], [ 7.053297495059836, 4.809867883435878 ], [ 7.053117111470907, 4.810234766967805 ], [ 7.052736576228504, 4.810517931974721 ], [ 7.05134539868648, 4.810845418314113 ] ] ] ] } },
{ "type": "Feature", "properties": { "fid": 10, "class": 1.0 }, "geometry": { "type": "MultiPolygon", "coordinates": [ [ [ [ 7.049219096244365, 4.81087496594601 ], [ 7.049762718019224, 4.811064563220159 ], [ 7.049809667172508, 4.810424364420245 ], [ 7.04985661632579, 4.810003310265981 ], [ 7.049868971366129, 4.809766928872275 ], [ 7.049686116769131, 4.809729994272093 ], [ 7.049644109631982, 4.809968837984508 ], [ 7.049592218462562, 4.809961451066825 ], [ 7.04962681257551, 4.809794014244464 ], [ 7.04923392229277, 4.809791551937946 ], [ 7.049219096244365, 4.81087496594601 ] ] ] ] } },
{ "type": "Feature", "properties": { "fid": 11, "class": 1.0 }, "geometry": { "type": "MultiPolygon", "coordinates": [ [ [ [ 7.043838476177294, 4.740269720102789 ], [ 7.043821179120822, 4.740097341153542 ], [ 7.043571607305999, 4.740094878596815 ], [ 7.04349006403977, 4.739644230567589 ], [ 7.04320836912007, 4.73963684289253 ], [ 7.04315894895872, 4.739373349097132 ], [ 7.042598030127388, 4.739277309277561 ], [ 7.042568378030579, 4.739587591723454 ], [ 7.042402820490053, 4.739530952874679 ], [ 7.042467066699809, 4.739277309277561 ], [ 7.042079118433206, 4.739225595523037 ], [ 7.041940741981424, 4.739462001226423 ], [ 7.041886379803938, 4.73939797468974 ], [ 7.041688699158533, 4.739228058082865 ], [ 7.041458895408253, 4.739132018243104 ], [ 7.041379823150091, 4.739422600281474 ], [ 7.041285924843525, 4.739393049571288 ], [ 7.041280982827391, 4.739193582244485 ], [ 7.040937512706003, 4.739186194564609 ], [ 7.040912802625328, 4.739065529115456 ], [ 7.040801607262286, 4.73905814143421 ], [ 7.040816433310694, 4.738903000109826 ], [ 7.040705237947653, 4.738898074987846 ], [ 7.040680527866977, 4.738733083381255 ], [ 7.040490260245778, 4.738745396189079 ], [ 7.040564390487804, 4.738878374499577 ], [ 7.04054709343133, 4.738935013401835 ], [ 7.040364238834332, 4.738935013401835 ], [ 7.040329644721385, 4.738693682394752 ], [ 7.040211036334144, 4.738683832147776 ], [ 7.040166558188929, 4.738821735592677 ], [ 7.039998529640337, 4.738875911938504 ], [ 7.039874979236959, 4.738683832147776 ], [ 7.039756370849718, 4.738659206529718 ], [ 7.039776138914258, 4.7387921848568 ], [ 7.039524096091367, 4.738782334611229 ], [ 7.039543864155909, 4.7389054626708 ], [ 7.039795906978798, 4.738920238036476 ], [ 7.039766254881987, 4.739008890223892 ], [ 7.039667414559285, 4.738984264617417 ], [ 7.039652588510881, 4.739067991675853 ], [ 7.039459849881613, 4.739067991675853 ], [ 7.039454907865478, 4.739200969924283 ], [ 7.039346183510506, 4.739200969924283 ], [ 7.039365951575046, 4.739299472314031 ], [ 7.039469733913883, 4.739299472314031 ], [ 7.039454907865478, 4.739471851462308 ], [ 7.039766254881987, 4.739481701698054 ], [ 7.039786022946527, 4.739639305450892 ], [ 7.039499386010692, 4.739703331965215 ], [ 7.039074372623077, 4.739875711012751 ], [ 7.039069430606942, 4.740850883100479 ], [ 7.039494443994557, 4.740836107776086 ], [ 7.039870037220823, 4.740525825890829 ], [ 7.040512499318384, 4.740412548342444 ], [ 7.040680527866978, 4.740343596782158 ], [ 7.040729948028329, 4.739959437963183 ], [ 7.041066005125514, 4.739826459860701 ], [ 7.041036353028701, 4.739644230567588 ], [ 7.041337816012944, 4.73954080310958 ], [ 7.041698583190804, 4.739639305450892 ], [ 7.041871553755532, 4.739787058936533 ], [ 7.042069234400934, 4.739949587734246 ], [ 7.042405291498121, 4.740107191380374 ], [ 7.042622740208064, 4.740215543866231 ], [ 7.042677102385549, 4.740299270775483 ], [ 7.043284970370164, 4.740309120999436 ], [ 7.043838476177294, 4.740269720102789 ] ] ] ] } },
{ "type": "Feature", "properties": { "fid": 12, "class": -1.0 }, "geometry": { "type": "MultiPolygon", "coordinates": [ [ [ [ 7.039010126413321, 4.74134339373277 ], [ 7.03897059028424, 4.741057737608807 ], [ 7.039815675043339, 4.741013411647951 ], [ 7.039860153188554, 4.740816407343069 ], [ 7.039954051495121, 4.740816407343069 ], [ 7.039958993511257, 4.740698204733176 ], [ 7.040388948915009, 4.740648953639751 ], [ 7.04046802117317, 4.740461799452719 ], [ 7.041011642948029, 4.740432248786976 ], [ 7.040828788351031, 4.740067790472212 ], [ 7.041313105932269, 4.739629455217393 ], [ 7.042350929320635, 4.740195843415521 ], [ 7.042360813352905, 4.740338671670446 ], [ 7.043077405692491, 4.74037807256316 ], [ 7.044540242468476, 4.740451949230946 ], [ 7.044713213033204, 4.741259666950053 ], [ 7.044718155049337, 4.742298863358002 ], [ 7.040715121979924, 4.74230378845574 ], [ 7.040453195124765, 4.742032908028054 ], [ 7.039499386010695, 4.741968881729624 ], [ 7.039370893591181, 4.74142712050534 ], [ 7.039010126413321, 4.74134339373277 ] ] ] ] } },
{ "type": "Feature", "properties": { "fid": 13, "class": 1.0 }, "geometry": { "type": "MultiPolygon", "coordinates": [ [ [ [ 7.04568184819568, 4.747248568858601 ], [ 7.045148110453092, 4.746539359502799 ], [ 7.045454515453466, 4.746066552860639 ], [ 7.045820224647462, 4.746046852576855 ], [ 7.045790572550653, 4.744362476233745 ], [ 7.046225469970539, 4.744382176565607 ], [ 7.04617604980919, 4.744185173221695 ], [ 7.046433034648213, 4.743623713383143 ], [ 7.046561527067725, 4.743466110539377 ], [ 7.047075496745772, 4.743456260360446 ], [ 7.046996424487611, 4.741525622577722 ], [ 7.047974943682357, 4.741496071957481 ], [ 7.048755782231701, 4.742037833127686 ], [ 7.048340652876354, 4.742382590014753 ], [ 7.048311000779544, 4.742815998428609 ], [ 7.048815086425321, 4.742756897297281 ], [ 7.048755782231701, 4.744155622715261 ], [ 7.048123204166409, 4.744372326399747 ], [ 7.04807378400506, 4.745229290303793 ], [ 7.047520278197931, 4.74541644319876 ], [ 7.047520278197931, 4.745662696930613 ], [ 7.04813308819868, 4.745800598982072 ], [ 7.047668538681983, 4.746381757324741 ], [ 7.047460974004309, 4.746371907187415 ], [ 7.04568184819568, 4.747248568858601 ] ] ] ] } },
{ "type": "Feature", "properties": { "fid": 14, "class": -1.0 }, "geometry": { "type": "MultiPolygon", "coordinates": [ [ [ [ 7.037163047882835, 4.74690135186924 ], [ 7.037088917640809, 4.746123191173396 ], [ 7.038546812400658, 4.745945888613623 ], [ 7.038620942642685, 4.746773300169486 ], [ 7.037163047882835, 4.74690135186924 ] ] ] ] } },
{ "type": "Feature", "properties": { "fid": 15, "class": 1.0 }, "geometry": { "type": "MultiPolygon", "coordinates": [ [ [ [ 7.01916422511887, 4.758307707862294 ], [ 7.022534680122995, 4.758504707170214 ], [ 7.022524796090726, 4.758145183390813 ], [ 7.022252985203296, 4.757898934118486 ], [ 7.022193681009674, 4.757672384710143 ], [ 7.021882333993164, 4.757238985634276 ], [ 7.021506740766899, 4.757071535918257 ], [ 7.02090381479842, 4.756973036066281 ], [ 7.020404671168777, 4.756810511279714 ], [ 7.019772093103485, 4.756593811504615 ], [ 7.019638658667838, 4.757120785838961 ], [ 7.019500282216055, 4.757435985248036 ], [ 7.01916422511887, 4.758307707862294 ] ] ] ] } },
{ "type": "Feature", "properties": { "fid": 16, "class": 1.0 }, "geometry": { "type": "MultiPolygon", "coordinates": [ [ [ [ 7.011051905633142, 4.754618885411725 ], [ 7.011111209826764, 4.752909904896262 ], [ 7.011605411440271, 4.752373077288903 ], [ 7.012410960070289, 4.751466871938804 ], [ 7.013453725474791, 4.751870724470257 ], [ 7.014101129588486, 4.752333677081068 ], [ 7.014827605960343, 4.752850804629698 ], [ 7.015727052896928, 4.753264506389198 ], [ 7.015499720154715, 4.753889983577744 ], [ 7.014891852170098, 4.753761933175919 ], [ 7.01465957741175, 4.754111609216968 ], [ 7.01377495652357, 4.754022958969833 ], [ 7.013078132248525, 4.753653582817324 ], [ 7.012663002893177, 4.754249509578726 ], [ 7.012583930635016, 4.754820810783367 ], [ 7.011051905633142, 4.754618885411725 ] ] ] ] } },
{ "type": "Feature", "properties": { "fid": 17, "class": -1.0 }, "geometry": { "type": "MultiPolygon", "coordinates": [ [ [ [ 7.00642617853071, 4.786246570568468 ], [ 7.007908783371235, 4.781085378618122 ], [ 7.011032137568605, 4.7777758915598 ], [ 7.012771727248153, 4.776534829793109 ], [ 7.015222967251154, 4.780395903465778 ], [ 7.014590389185862, 4.781558161178659 ], [ 7.011565875311194, 4.782208236666561 ], [ 7.009747213373485, 4.783508385791126 ], [ 7.008086695952097, 4.786857243377251 ], [ 7.00642617853071, 4.786246570568468 ] ] ] ] } },
{ "type": "Feature", "properties": { "fid": 18, "class": -1.0 }, "geometry": { "type": "MultiPolygon", "coordinates": [ [ [ [ 7.018820754997492, 4.764559945884142 ], [ 7.018949247417005, 4.761624676190115 ], [ 7.02669832871681, 4.761979273194339 ], [ 7.026480880006868, 4.764993340347698 ], [ 7.018820754997492, 4.764559945884142 ] ] ] ] } },
{ "type": "Feature", "properties": { "fid": 19, "class": 1.0 }, "geometry": { "type": "MultiPolygon", "coordinates": [ [ [ [ 7.02386161145527, 4.775887211352272 ], [ 7.023100540970468, 4.775512922088575 ], [ 7.023041236776847, 4.774882539709056 ], [ 7.02314996113182, 4.774468850957646 ], [ 7.022972048550955, 4.774143809620805 ], [ 7.023011584680035, 4.773700571186018 ], [ 7.022487730969718, 4.773444477737621 ], [ 7.021726660484916, 4.773621773212075 ], [ 7.021726660484916, 4.773237632959519 ], [ 7.021884805001237, 4.772833792974949 ], [ 7.022122021775723, 4.772548149915534 ], [ 7.022359238550206, 4.772272356503969 ], [ 7.022349354517935, 4.772035962062992 ], [ 7.022092369678912, 4.771917764811969 ], [ 7.022240630162965, 4.771272604458044 ], [ 7.021573457984729, 4.770996810533951 ], [ 7.021682182339699, 4.770725941393509 ], [ 7.021973761291671, 4.770607743916915 ], [ 7.022823788066905, 4.770701316920896 ], [ 7.02259645532469, 4.771597647154902 ], [ 7.022888034276661, 4.771725694235646 ], [ 7.022502557018124, 4.772602323608353 ], [ 7.022695295647391, 4.772902741281823 ], [ 7.022744715808743, 4.772730370501652 ], [ 7.022581629276286, 4.772636797774283 ], [ 7.022991816615495, 4.771858666178826 ], [ 7.023802307261649, 4.772316680452591 ], [ 7.023733119035759, 4.77251367574515 ], [ 7.023253743470655, 4.772257581853796 ], [ 7.022967106534821, 4.77298153933834 ], [ 7.023436598067653, 4.773222858330127 ], [ 7.024168016455645, 4.771917764811969 ], [ 7.025284912102173, 4.772267431620615 ], [ 7.025606143150954, 4.772306830686477 ], [ 7.024999510670374, 4.773678409256763 ], [ 7.02508970246484, 4.773735045296772 ], [ 7.025897722102922, 4.772156621735751 ], [ 7.026416633797107, 4.772319142894095 ], [ 7.026199185087162, 4.773038175435872 ], [ 7.02690589339448, 4.773254870026744 ], [ 7.026732922829752, 4.773732582860347 ], [ 7.026871299281533, 4.773796606204524 ], [ 7.026816937104048, 4.773900028517111 ], [ 7.02669338670067, 4.773855704670768 ], [ 7.026639024523186, 4.773968976716843 ], [ 7.026535242184349, 4.773914803131921 ], [ 7.026391923716431, 4.774279243529874 ], [ 7.026451227910052, 4.77432849221745 ], [ 7.026377097668026, 4.774520562065216 ], [ 7.026535242184349, 4.774638758867882 ], [ 7.026421575813242, 4.774786504842571 ], [ 7.026569836297293, 4.774860377817985 ], [ 7.026426517829376, 4.775101696148884 ], [ 7.026218953151704, 4.775387338145121 ], [ 7.025714867505924, 4.775525234238657 ], [ 7.024511486577032, 4.775402112727896 ], [ 7.02416554544758, 4.775434124322821 ], [ 7.02397280681831, 4.775877361637425 ], [ 7.02386161145527, 4.775887211352272 ] ] ] ] } },
{ "type": "Feature", "properties": { "fid": 20, "class": 1.0 }, "geometry": { "type": "MultiPolygon", "coordinates": [ [ [ [ 7.032082655295975, 4.756367261666825 ], [ 7.031776250295599, 4.755589111656318 ], [ 7.032942566103477, 4.75520496132697 ], [ 7.033100710619801, 4.754998111060885 ], [ 7.033456535781527, 4.755017811088902 ], [ 7.033466419813795, 4.754732160627499 ], [ 7.033960621427306, 4.754860210848982 ], [ 7.034573431428055, 4.754712460591312 ], [ 7.034731575944377, 4.754348009820228 ], [ 7.035047864977022, 4.754436660025535 ], [ 7.035472878364639, 4.754091909163038 ], [ 7.035581602719612, 4.753707757998754 ], [ 7.036135108526739, 4.753225106232331 ], [ 7.036560121914356, 4.753057655540496 ], [ 7.037044439495594, 4.753904758622578 ], [ 7.036826990785651, 4.754052509053484 ], [ 7.03685664288246, 4.754180559401302 ], [ 7.036431629494844, 4.754525310219434 ], [ 7.036382209333494, 4.754407109958366 ], [ 7.03497867675113, 4.75555956163859 ], [ 7.03494902465432, 4.755500461599331 ], [ 7.034504243202163, 4.755776261739148 ], [ 7.033535608039688, 4.756032361770078 ], [ 7.033486187878336, 4.756101311762134 ], [ 7.032655929167642, 4.756318011692224 ], [ 7.032596624974023, 4.756199811738812 ], [ 7.032082655295975, 4.756367261666825 ] ] ] ] } },
{ "type": "Feature", "properties": { "fid": 21, "class": -1.0 }, "geometry": { "type": "MultiPolygon", "coordinates": [ [ [ [ 7.019092565884915, 4.794387188274456 ], [ 7.018944305400863, 4.7940621563949 ], [ 7.019823984272906, 4.790683785582704 ], [ 7.020871691693545, 4.790989120074308 ], [ 7.020812387499922, 4.792249854595448 ], [ 7.021089140403488, 4.793599231935842 ], [ 7.021000184113056, 4.795066799886498 ], [ 7.019092565884915, 4.794387188274456 ] ] ] ] } },
{ "type": "Feature", "properties": { "fid": 22, "class": -1.0 }, "geometry": { "type": "MultiPolygon", "coordinates": [ [ [ [ 7.003762431833897, 4.752545453171711 ], [ 7.003411548688307, 4.750792142181561 ], [ 7.005151138367855, 4.750373513898022 ], [ 7.005536615626389, 4.7521169758977 ], [ 7.003762431833897, 4.752545453171711 ] ] ] ] } },
{ "type": "Feature", "properties": { "fid": 23, "class": -1.0 }, "geometry": { "type": "MultiPolygon", "coordinates": [ [ [ [ 7.047025458832401, 4.803489864822407 ], [ 7.042394789713832, 4.802933378174495 ], [ 7.041169169712332, 4.805848772206411 ], [ 7.044994290200885, 4.80646927675911 ], [ 7.046160606008764, 4.804991884038158 ], [ 7.047025458832401, 4.803489864822407 ] ] ] ] } },
{ "type": "Feature", "properties": { "fid": 24, "class": 1.0 }, "geometry": { "type": "MultiPolygon", "coordinates": [ [ [ [ 7.010113540319489, 4.803521875102494 ], [ 7.011828419918362, 4.804954949179095 ], [ 7.013231952500724, 4.804201477617482 ], [ 7.013167706290969, 4.803920772312976 ], [ 7.012984851693971, 4.804024190070188 ], [ 7.013034271855321, 4.804176854349782 ], [ 7.012713040806541, 4.804260573456333 ], [ 7.012609258467704, 4.804024190070188 ], [ 7.012965083629431, 4.803832128508593 ], [ 7.01290577943581, 4.803610518947217 ], [ 7.013251720565264, 4.803457854540807 ], [ 7.013212184436185, 4.803354436697688 ], [ 7.012890953387402, 4.803379059995093 ], [ 7.013222068468454, 4.803147600964397 ], [ 7.012974967661699, 4.802802874602823 ], [ 7.012787171048566, 4.802950614493408 ], [ 7.012698214758136, 4.802709305988896 ], [ 7.01239180975776, 4.802645285350916 ], [ 7.012540070241814, 4.803265792819677 ], [ 7.012465939999786, 4.803310114760125 ], [ 7.012327563548004, 4.802684682667307 ], [ 7.012006332499224, 4.802793025275645 ], [ 7.012194129112358, 4.803231320197335 ], [ 7.012115056854197, 4.803226395536859 ], [ 7.01197173838628, 4.80284719657336 ], [ 7.011625797256824, 4.803054032397774 ], [ 7.01205081064444, 4.803822279196284 ], [ 7.012006332499224, 4.80387152575641 ], [ 7.011610971208419, 4.803108203674752 ], [ 7.011250204030558, 4.803236244857778 ], [ 7.011556609030931, 4.803925696968438 ], [ 7.011442942659825, 4.803970018865988 ], [ 7.011205725885342, 4.803216546215801 ], [ 7.010968509110858, 4.803393833973108 ], [ 7.010978393143128, 4.803571121684317 ], [ 7.010583031852322, 4.803556347710144 ], [ 7.010563263787782, 4.803413532609964 ], [ 7.010172844513111, 4.803457854540807 ], [ 7.010113540319489, 4.803521875102494 ] ] ] ] } },
{ "type": "Feature", "properties": { "fid": 25, "class": -1.0 }, "geometry": { "type": "MultiPolygon", "coordinates": [ [ [ [ 7.042792622012708, 4.796844005679054 ], [ 7.041171640720401, 4.796262890057674 ], [ 7.044202332115237, 4.788404237680226 ], [ 7.054689290353878, 4.78861107787897 ], [ 7.051111270672079, 4.799465175713356 ], [ 7.042792622012708, 4.796844005679054 ] ] ] ] } },
{ "type": "Feature", "properties": { "fid": 26, "class": 1.0 }, "geometry": { "type": "MultiPolygon", "coordinates": [ [ [ [ 7.005746033560104, 4.811828491961808 ], [ 7.005723794487498, 4.81119568078471 ], [ 7.00707790690851, 4.811033168869971 ], [ 7.007117443037591, 4.811656130999109 ], [ 7.005746033560104, 4.811828491961808 ] ] ] ] } },
{ "type": "Feature", "properties": { "fid": 27, "class": 1.0 }, "geometry": { "type": "MultiPolygon", "coordinates": [ [ [ [ 6.979667014415276, 4.823086030527933 ], [ 6.979988245464057, 4.821845051169593 ], [ 6.98036878070646, 4.821820428540334 ], [ 6.98044785296462, 4.821224560640115 ], [ 6.9810507789331, 4.821170390805085 ], [ 6.981159503288071, 4.821451088994345 ], [ 6.980976648691072, 4.823632651668684 ], [ 6.979667014415276, 4.823086030527933 ] ] ] ] } },
{ "type": "Feature", "properties": { "fid": 28, "class": 1.0 }, "geometry": { "type": "MultiPolygon", "coordinates": [ [ [ [ 7.008078665175849, 4.797677511755556 ], [ 7.008661823079788, 4.796864935681612 ], [ 7.009096720499677, 4.79694373097961 ], [ 7.009185676790107, 4.797352481442037 ], [ 7.009215328886919, 4.796997902741709 ], [ 7.009793544774721, 4.797032375678991 ], [ 7.009640342274536, 4.797219514450994 ], [ 7.009872617032883, 4.797268761487735 ], [ 7.009907211145831, 4.797130869775913 ], [ 7.010673223646767, 4.797214589747127 ], [ 7.010653455582227, 4.797042225089321 ], [ 7.010080181710557, 4.79705207449951 ], [ 7.009966515339451, 4.79694373097961 ], [ 7.009240038967595, 4.796864935681612 ], [ 7.008750779370221, 4.796800914495291 ], [ 7.008874329773598, 4.796283820078044 ], [ 7.009037416306056, 4.795939090249003 ], [ 7.009348763322565, 4.795584510814723 ], [ 7.009501965822754, 4.795500790643651 ], [ 7.010159253968718, 4.795860294835071 ], [ 7.01051013711431, 4.796076982201502 ], [ 7.010959860582602, 4.796224723548284 ], [ 7.011211903405491, 4.796377389573041 ], [ 7.011345337841139, 4.79669749564317 ], [ 7.011345337841139, 4.7969831286252 ], [ 7.011281091631383, 4.797436201386073 ], [ 7.011231671470031, 4.79808626177863 ], [ 7.01111306308279, 4.798263550869161 ], [ 7.010312456468907, 4.798135508752843 ], [ 7.009828138887669, 4.798002541914318 ], [ 7.009941805258776, 4.79744605079058 ], [ 7.010707817759713, 4.797564243633563 ], [ 7.010702875743577, 4.797475599003246 ], [ 7.009941805258776, 4.79735740614491 ], [ 7.009793544774721, 4.797549469529311 ], [ 7.009734240581102, 4.798007466612503 ], [ 7.009516791871159, 4.797958219629056 ], [ 7.009630458242265, 4.797460824897071 ], [ 7.009556328000238, 4.79744605079058 ], [ 7.009437719612998, 4.797938520834682 ], [ 7.008078665175849, 4.797677511755556 ] ] ] ] } },
{ "type": "Feature", "properties": { "fid": 29, "class": 1.0 }, "geometry": { "type": "MultiPolygon", "coordinates": [ [ [ [ 7.016776613573586, 4.805847541046013 ], [ 7.017041011436813, 4.805293518645531 ], [ 7.017162090832122, 4.805190101080896 ], [ 7.017540155066457, 4.805330453486241 ], [ 7.017569807163267, 4.805254121479901 ], [ 7.018044240712236, 4.805428946385017 ], [ 7.017765016800604, 4.806155331073888 ], [ 7.016776613573586, 4.805847541046013 ] ] ] ] } },
{ "type": "Feature", "properties": { "fid": 30, "class": 1.0 }, "geometry": { "type": "MultiPolygon", "coordinates": [ [ [ [ 6.996966541896118, 4.784646629849194 ], [ 6.99755464181619, 4.784927343073938 ], [ 6.997791858590674, 4.785067699643139 ], [ 6.998046372421632, 4.785158808277917 ], [ 6.998362661454276, 4.784996290164158 ], [ 6.998276176171911, 4.784686028203471 ], [ 6.998019191332888, 4.784777136889054 ], [ 6.998019191332888, 4.784693415394647 ], [ 6.998295944236454, 4.784617081081997 ], [ 6.998295944236454, 4.784351142119836 ], [ 6.998071082502308, 4.784331442933346 ], [ 6.997651011130826, 4.784196011010865 ], [ 6.996954186855779, 4.783605035035605 ], [ 6.99674168016197, 4.783701068666297 ], [ 6.996482224314877, 4.783550862212348 ], [ 6.996314195766287, 4.78374292947546 ], [ 6.996650252863471, 4.784149225431419 ], [ 6.99705302717848, 4.784469337226886 ], [ 6.996949244839643, 4.784624468273917 ], [ 6.996966541896118, 4.784646629849194 ] ] ] ] } }
]
}
