{
"type": "FeatureCollection",
"name": "Training_polygons",
"crs": { "type": "name", "properties": { "name": "urn:ogc:def:crs:OGC:1.3:CRS84" } },
"features": [
{ "type": "Feature", "properties": { "fid": 1, "class": 1.0 }, "geometry": { "type": "MultiPolygon", "coordinates": [ [ [ [ 18.666106597021781, -34.000691542617794 ], [ 18.666556689526374, -34.00092554569725 ], [ 18.666866922778123, -34.000702083310912 ], [ 18.667047468359058, -34.000697867033828 ], [ 18.667525532714215, -34.000044341554492 ], [ 18.668023940233414, -33.999304375990683 ], [ 18.667922224413172, -33.999287510603558 ], [ 18.668130741844671, -33.999099882945941 ], [ 18.667942567577224, -33.998288230439634 ], [ 18.667617076952435, -33.996947405676202 ], [ 18.667444160058015, -33.996331799796948 ], [ 18.667123755224242, -33.995104791210963 ], [ 18.666752492480338, -33.994004263280722 ], [ 18.666294771289234, -33.992621204135247 ], [ 18.665908251172297, -33.99112005348745 ], [ 18.665776020605978, -33.99058030744677 ], [ 18.665898079590271, -33.990116460453947 ], [ 18.666040481738616, -33.989867668750904 ], [ 18.665781106396988, -33.989804416506885 ], [ 18.665943851709379, -33.98947550407901 ], [ 18.666177798095951, -33.989555623890269 ], [ 18.667123755224235, -33.987957430222458 ], [ 18.666498202929727, -33.987590558305094 ], [ 18.665277613086776, -33.987721282963037 ], [ 18.664967379835019, -33.987168864489625 ], [ 18.664926693506921, -33.986123054797993 ], [ 18.664143481691028, -33.986198960773258 ], [ 18.664306227003422, -33.987236335640702 ], [ 18.664530001807957, -33.987742367566447 ], [ 18.664977551417042, -33.988121889533382 ], [ 18.665282698877778, -33.988864060926232 ], [ 18.665353899951953, -33.98953875656786 ], [ 18.665109781983364, -33.989867668750904 ], [ 18.664702918702378, -33.989968872243402 ], [ 18.664489315479862, -33.990196579660861 ], [ 18.664692747120355, -33.990407419318153 ], [ 18.664733433448454, -33.990770062304975 ], [ 18.664662232374283, -33.991056802175635 ], [ 18.664875835596796, -33.99136040804288 ], [ 18.664896178760845, -33.991832681680194 ], [ 18.664723261866431, -33.991984483363311 ], [ 18.664743605030477, -33.992279652526328 ], [ 18.665038580909187, -33.992465186903992 ], [ 18.665303042041835, -33.992709754328267 ], [ 18.665333556787907, -33.992929021075675 ], [ 18.665175897266529, -33.993097687419443 ], [ 18.665170811475516, -33.993232620253366 ], [ 18.665318299414874, -33.993426585826732 ], [ 18.665420015235114, -33.993456102288214 ], [ 18.665414929444108, -33.993329603095397 ], [ 18.665338642578924, -33.993144070605275 ], [ 18.665389500489045, -33.993072387489221 ], [ 18.665572588965489, -33.993042870894442 ], [ 18.665664133203705, -33.993042870894442 ], [ 18.665781106396992, -33.993110337381729 ], [ 18.665811621143064, -33.993224186957534 ], [ 18.665755677441933, -33.993342253023158 ], [ 18.665633618457637, -33.993439235740048 ], [ 18.665608189502574, -33.993565734769632 ], [ 18.66562344687561, -33.993827165500626 ], [ 18.66573533427788, -33.993978963620442 ], [ 18.66583196430711, -33.99443435635267 ], [ 18.665872650635208, -33.994645185494711 ], [ 18.665979452246464, -33.994919262597222 ], [ 18.666137111767846, -33.995104791210935 ], [ 18.666254084961128, -33.995442114925204 ], [ 18.666391401318464, -33.995758354690956 ], [ 18.666284599707204, -33.995990263104368 ], [ 18.665974366455455, -33.996146273862685 ], [ 18.665623446875607, -33.996239036880453 ], [ 18.665730248486863, -33.996896808100935 ], [ 18.66583196430711, -33.997149795675817 ], [ 18.665353899951953, -33.997301587859106 ], [ 18.665191154639555, -33.997571439959742 ], [ 18.665262355713729, -33.997858156877477 ], [ 18.665547160010419, -33.997950918026 ], [ 18.66581162114306, -33.997950918026 ], [ 18.666190512573479, -33.998058436503271 ], [ 18.666500745825228, -33.998222876264101 ], [ 18.666755035375843, -33.998416830444654 ], [ 18.66685166540508, -33.998707760885189 ], [ 18.666810979076981, -33.999066152087131 ], [ 18.666762664062361, -33.999390811047135 ], [ 18.666630433496042, -33.999723901417838 ], [ 18.666414287378021, -34.00033105012573 ], [ 18.666302399975756, -34.000541864634293 ], [ 18.666106597021781, -34.000691542617794 ] ] ] ] } },
{ "type": "Feature", "properties": { "fid": 2, "class": -1.0 }, "geometry": { "type": "MultiPolygon", "coordinates": [ [ [ [ 18.650297415660059, -33.988073395154245 ], [ 18.650134670347665, -33.993251595165944 ], [ 18.651863839291845, -33.993749158027981 ], [ 18.651996069858168, -33.991919124338523 ], [ 18.654722053840757, -33.991961291457031 ], [ 18.654742397004803, -33.988098696572905 ], [ 18.650297415660059, -33.988073395154245 ] ] ] ] } },
{ "type": "Feature", "properties": { "fid": 3, "class": -1.0 }, "geometry": { "type": "MultiPolygon", "coordinates": [ [ [ [ 18.672321433638793, -33.991802110475085 ], [ 18.673206361274936, -33.993261082620648 ], [ 18.677086819817315, -33.99172620950452 ], [ 18.676293436419392, -33.990246127027326 ], [ 18.672321433638793, -33.991802110475085 ] ] ] ] } },
{ "type": "Feature", "properties": { "fid": 4, "class": -1.0 }, "geometry": { "type": "MultiPolygon", "coordinates": [ [ [ [ 18.687909383091466, -34.013266713329052 ], [ 18.687258401841888, -34.013966508878653 ], [ 18.687502519810479, -34.014261601658525 ], [ 18.692201790705838, -34.015062562605003 ], [ 18.692435737092403, -34.013494358297443 ], [ 18.689933527914352, -34.013064361733619 ], [ 18.689730096273863, -34.013932783924211 ], [ 18.688885854965825, -34.013831608980531 ], [ 18.688926541293924, -34.013401614124753 ], [ 18.687909383091466, -34.013266713329052 ] ] ] ] } },
{ "type": "Feature", "properties": { "fid": 5, "class": -1.0 }, "geometry": { "type": "MultiPolygon", "coordinates": [ [ [ [ 18.699438871316335, -34.013146567127407 ], [ 18.701188383424562, -34.015749696763201 ], [ 18.702531032251809, -34.015142658284027 ], [ 18.700822206471674, -34.01250367666843 ], [ 18.699438871316335, -34.013146567127407 ] ] ] ] } },
{ "type": "Feature", "properties": { "fid": 6, "class": -1.0 }, "geometry": { "type": "MultiPolygon", "coordinates": [ [ [ [ 18.642930647378709, -33.975633673090911 ], [ 18.643083221109077, -33.976430780805003 ], [ 18.64355619967322, -33.976730221454424 ], [ 18.646511044251366, -33.977248968252347 ], [ 18.646826363294124, -33.97616086156934 ], [ 18.646536473206428, -33.97558306282501 ], [ 18.646429671595165, -33.975515582423611 ], [ 18.645549829750042, -33.975389056526623 ], [ 18.645148052260069, -33.975216137496261 ], [ 18.644568272084669, -33.975266747980577 ], [ 18.6444563846824, -33.97542279678423 ], [ 18.642930647378709, -33.975633673090911 ] ] ] ] } },
{ "type": "Feature", "properties": { "fid": 7, "class": 1.0 }, "geometry": { "type": "MultiPolygon", "coordinates": [ [ [ [ 18.632441203415844, -33.983680322150335 ], [ 18.631749535838175, -33.984574347250792 ], [ 18.630742549217739, -33.985367154095272 ], [ 18.630966324022282, -33.985755120707161 ], [ 18.632125884373085, -33.985729818590798 ], [ 18.632217428611305, -33.987112989902073 ], [ 18.634363632418495, -33.986851538513761 ], [ 18.634373804000518, -33.984692425334615 ], [ 18.633814366989167, -33.984743030177469 ], [ 18.63373299433297, -33.983941783294178 ], [ 18.633010812009225, -33.983933349076281 ], [ 18.632441203415844, -33.983680322150335 ] ] ] ] } },
{ "type": "Feature", "properties": { "fid": 8, "class": -1.0 }, "geometry": { "type": "MultiPolygon", "coordinates": [ [ [ [ 18.625600178780427, -33.99158969300489 ], [ 18.626749567549208, -33.991463191033382 ], [ 18.627553122529147, -33.988174073671267 ], [ 18.627339519306631, -33.987878890246954 ], [ 18.627532779365097, -33.987018635562357 ], [ 18.626739395967178, -33.987465631730373 ], [ 18.625905326241163, -33.988207808854476 ], [ 18.62551880612423, -33.989211424429477 ], [ 18.625356060811832, -33.990130692160655 ], [ 18.625417090303976, -33.99067887460653 ], [ 18.625600178780427, -33.99158969300489 ] ] ] ] } },
{ "type": "Feature", "properties": { "fid": 9, "class": 1.0 }, "geometry": { "type": "MultiPolygon", "coordinates": [ [ [ [ 18.646459550617358, -33.990520745417747 ], [ 18.645859427277909, -33.991267112605343 ], [ 18.645711939338547, -33.992076723836846 ], [ 18.646210346857757, -33.992270692048919 ], [ 18.646357834797108, -33.992591160298772 ], [ 18.646820641779229, -33.992633327083766 ], [ 18.647868314727763, -33.99275139397043 ], [ 18.64794968738396, -33.990963506404761 ], [ 18.646459550617358, -33.990520745417747 ] ] ] ] } },
{ "type": "Feature", "properties": { "fid": 10, "class": 1.0 }, "geometry": { "type": "MultiPolygon", "coordinates": [ [ [ [ 18.619947322070256, -33.99830035257952 ], [ 18.620689847558051, -33.998587067037093 ], [ 18.621432373045842, -33.999038218709501 ], [ 18.621925694774038, -33.999438771924645 ], [ 18.622785193455115, -34.000117599902723 ], [ 18.623883724313774, -33.998612365325123 ], [ 18.621086539257011, -33.9974528527164 ], [ 18.620811906542343, -33.997785950686023 ], [ 18.620608474901854, -33.997722704336539 ], [ 18.620171096874795, -33.997870279078739 ], [ 18.619993094189365, -33.998051584839622 ], [ 18.619947322070256, -33.99830035257952 ] ] ] ] } },
{ "type": "Feature", "properties": { "fid": 11, "class": -1.0 }, "geometry": { "type": "MultiPolygon", "coordinates": [ [ [ [ 18.625236544723037, -34.001917943484727 ], [ 18.626965713667218, -34.000273603081403 ], [ 18.62905088798226, -34.001546915610582 ], [ 18.629518780755394, -34.002255240145701 ], [ 18.629651011321709, -34.002727453220814 ], [ 18.62950860917336, -34.003427335628004 ], [ 18.629132260638453, -34.003992296737891 ], [ 18.62884745634177, -34.004380178309169 ], [ 18.625236544723037, -34.001917943484727 ] ] ] ] } },
{ "type": "Feature", "properties": { "fid": 12, "class": 1.0 }, "geometry": { "type": "MultiPolygon", "coordinates": [ [ [ [ 18.609195959870256, -34.003545387513789 ], [ 18.609333276227591, -34.004919836678866 ], [ 18.609948656940077, -34.004886108131217 ], [ 18.610213118072721, -34.005560676539062 ], [ 18.610482664996372, -34.005771478067707 ], [ 18.610553866070539, -34.00596963102754 ], [ 18.610960729351522, -34.005860014553711 ], [ 18.611179418365051, -34.005598620852822 ], [ 18.611138732036956, -34.005206528793018 ], [ 18.610909871441397, -34.004763842033732 ], [ 18.610757297711032, -34.004321152966938 ], [ 18.611184504156068, -34.004207318262516 ], [ 18.611270962603275, -34.004004945077924 ], [ 18.611037016216709, -34.003967000052143 ], [ 18.610782726666091, -34.003832084267586 ], [ 18.611031930425696, -34.003671871495051 ], [ 18.611291305767324, -34.00363392632044 ], [ 18.611265876812261, -34.003857380993502 ], [ 18.611520166362876, -34.003798355287941 ], [ 18.611571024273001, -34.003907974422766 ], [ 18.611825313823612, -34.003907974422766 ], [ 18.611866000151711, -34.004034457864059 ], [ 18.612135547075368, -34.003933271126094 ], [ 18.612400008208006, -34.003903758304801 ], [ 18.612384750834966, -34.003798355287941 ], [ 18.612689898295706, -34.00374354566749 ], [ 18.612801785697972, -34.003646574713855 ], [ 18.613020474711501, -34.003574900459597 ], [ 18.613335793754267, -34.003595981128896 ], [ 18.613295107426168, -34.003359877333878 ], [ 18.611469308452754, -34.003380958056546 ], [ 18.61035043443005, -34.003418903344162 ], [ 18.610518265533457, -34.004131428374812 ], [ 18.610569123443579, -34.004367530024993 ], [ 18.610452150250296, -34.004384394403473 ], [ 18.610431807086247, -34.004080835078661 ], [ 18.610325005474991, -34.003861597113762 ], [ 18.610263975982836, -34.003439984052179 ], [ 18.609231560407345, -34.003524306831928 ], [ 18.609195959870256, -34.003545387513789 ] ] ] ] } },
{ "type": "Feature", "properties": { "fid": 13, "class": -1.0 }, "geometry": { "type": "MultiPolygon", "coordinates": [ [ [ [ 18.594457337516612, -34.004574118430504 ], [ 18.594581939396413, -34.005569108610253 ], [ 18.596590826846267, -34.005392034939419 ], [ 18.596463682070961, -34.0044012587786 ], [ 18.594457337516612, -34.004574118430504 ] ] ] ] } },
{ "type": "Feature", "properties": { "fid": 14, "class": 1.0 }, "geometry": { "type": "MultiPolygon", "coordinates": [ [ [ [ 18.586584533029583, -34.002799128190226 ], [ 18.587815294454558, -34.003625494057111 ], [ 18.58872565104576, -34.002811776707972 ], [ 18.589473262324567, -34.00250399557499 ], [ 18.589412232832416, -34.002305834529317 ], [ 18.58863410680754, -34.002331131709816 ], [ 18.588334045137813, -34.00250399557499 ], [ 18.587332144308391, -34.00198118671068 ], [ 18.586584533029583, -34.002799128190226 ] ] ] ] } },
{ "type": "Feature", "properties": { "fid": 15, "class": -1.0 }, "geometry": { "type": "MultiPolygon", "coordinates": [ [ [ [ 18.589534291816708, -34.000594041144353 ], [ 18.589722466084165, -34.002305834529317 ], [ 18.592494222185863, -34.002073943356912 ], [ 18.592367077410557, -33.999919433289648 ], [ 18.589534291816708, -34.000594041144353 ] ] ] ] } },
{ "type": "Feature", "properties": { "fid": 16, "class": 1.0 }, "geometry": { "type": "MultiPolygon", "coordinates": [ [ [ [ 18.591380433954168, -34.008005942101853 ], [ 18.591253289178859, -34.008083936482635 ], [ 18.591182088104684, -34.008598276010652 ], [ 18.591232946014813, -34.008920790600932 ], [ 18.591919527801469, -34.008832257305976 ], [ 18.593046030510692, -34.008743723918712 ], [ 18.593333377702887, -34.008682593668865 ], [ 18.593231661882641, -34.008001726187331 ], [ 18.591380433954168, -34.008005942101853 ] ] ] ] } },
{ "type": "Feature", "properties": { "fid": 17, "class": -1.0 }, "geometry": { "type": "MultiPolygon", "coordinates": [ [ [ [ 18.699537408517131, -33.95685150577264 ], [ 18.701968416621007, -33.960639591660978 ], [ 18.70682026124674, -33.959568145721398 ], [ 18.706647344352323, -33.955383471686119 ], [ 18.699537408517131, -33.95685150577264 ] ] ] ] } },
{ "type": "Feature", "properties": { "fid": 18, "class": -1.0 }, "geometry": { "type": "MultiPolygon", "coordinates": [ [ [ [ 18.68367482634978, -33.966096796352197 ], [ 18.682911957697936, -33.968328085866567 ], [ 18.684122375958861, -33.9685685048726 ], [ 18.684951359893866, -33.966341439647671 ], [ 18.68367482634978, -33.966096796352197 ] ] ] ] } },
{ "type": "Feature", "properties": { "fid": 19, "class": -1.0 }, "geometry": { "type": "MultiPolygon", "coordinates": [ [ [ [ 18.677470161314776, -33.977752423754119 ], [ 18.677465075523767, -33.978747728056675 ], [ 18.678604292710514, -33.978726641221947 ], [ 18.678599206919507, -33.979481546647456 ], [ 18.680002885238903, -33.979498415965864 ], [ 18.680053743149028, -33.977714467003459 ], [ 18.677470161314776, -33.977752423754119 ] ] ] ] } },
{ "type": "Feature", "properties": { "fid": 20, "class": 1.0 }, "geometry": { "type": "MultiPolygon", "coordinates": [ [ [ [ 18.678441547398123, -33.999389229918783 ], [ 18.6787212659038, -33.999722320295668 ], [ 18.679952027328778, -33.999199494310076 ], [ 18.680165630551294, -33.999342850142448 ], [ 18.680989528695285, -33.998891700087924 ], [ 18.680719981771631, -33.998486927906335 ], [ 18.679987627865859, -33.997643646333437 ], [ 18.679519735092732, -33.997736407716225 ], [ 18.679977456283833, -33.998710396120046 ], [ 18.678441547398123, -33.999389229918783 ] ] ] ] } },
{ "type": "Feature", "properties": { "fid": 21, "class": 1.0 }, "geometry": { "type": "MultiPolygon", "coordinates": [ [ [ [ 18.680747953622195, -34.011254242025203 ], [ 18.681180245858236, -34.011372283031008 ], [ 18.681543879915612, -34.01178120953211 ], [ 18.681564223079668, -34.012185918356998 ], [ 18.681437078304359, -34.012421997613991 ], [ 18.681889713704454, -34.012432536851236 ], [ 18.682222833015761, -34.011138308734765 ], [ 18.681447249886382, -34.011011835873774 ], [ 18.681205674813299, -34.010857960305529 ], [ 18.680864926815477, -34.010790507913725 ], [ 18.680747953622195, -34.011254242025203 ] ] ] ] } },
{ "type": "Feature", "properties": { "fid": 22, "class": -1.0 }, "geometry": { "type": "MultiPolygon", "coordinates": [ [ [ [ 18.693136940528138, -33.972224266275838 ], [ 18.692943680469675, -33.973713097818255 ], [ 18.697414090769477, -33.974598792601093 ], [ 18.697673466111102, -33.974451177444635 ], [ 18.697948098825773, -33.972418279795356 ], [ 18.691311141554724, -33.971233103344979 ], [ 18.69112805307828, -33.971806713938818 ], [ 18.693136940528138, -33.972224266275838 ] ] ] ] } },
{ "type": "Feature", "properties": { "fid": 23, "class": 1.0 }, "geometry": { "type": "MultiPolygon", "coordinates": [ [ [ [ 18.649897545341613, -34.009348700225324 ], [ 18.649460167314555, -34.010124412667466 ], [ 18.650462068143973, -34.010626092484195 ], [ 18.651321566825057, -34.01170111068182 ], [ 18.651972548074628, -34.011410224747983 ], [ 18.653055821560248, -34.011823366791354 ], [ 18.656300556226089, -34.013222975915582 ], [ 18.657541489233093, -34.013037486875959 ], [ 18.656158154077747, -34.01186552402968 ], [ 18.655914036109156, -34.012169055527785 ], [ 18.655354599097802, -34.011882386919154 ], [ 18.655486829664124, -34.011654737628689 ], [ 18.6549375642348, -34.011275320788243 ], [ 18.654764647340375, -34.011604148814605 ], [ 18.653991607106505, -34.011106690537147 ], [ 18.654072979762706, -34.010879039166944 ], [ 18.653798347048038, -34.010752565919759 ], [ 18.652923590993925, -34.011165711163137 ], [ 18.652567585623068, -34.010997080694352 ], [ 18.653096507888346, -34.010499618860244 ], [ 18.65210986443196, -34.009943132676916 ], [ 18.651886089627421, -34.010499618860244 ], [ 18.651621628494777, -34.010533345178388 ], [ 18.651326652616063, -34.010314123871041 ], [ 18.651011333573305, -34.009740773160587 ], [ 18.651611456912754, -34.010035880627413 ], [ 18.651784373807171, -34.009757636472024 ], [ 18.650065376445017, -34.008981920679268 ], [ 18.649897545341613, -34.009348700225324 ] ] ] ] } },
{ "type": "Feature", "properties": { "fid": 24, "class": 1.0 }, "geometry": { "type": "MultiPolygon", "coordinates": [ [ [ [ 18.671873248305733, -34.005156990151214 ], [ 18.67108495069883, -34.006291101601164 ], [ 18.671929192006871, -34.006974090780879 ], [ 18.672651374330616, -34.007146945196112 ], [ 18.672707318031755, -34.007033114279309 ], [ 18.673083666566665, -34.007130081366221 ], [ 18.673515958802707, -34.006607300978324 ], [ 18.67390247891964, -34.006223645581649 ], [ 18.671873248305733, -34.005156990151214 ] ] ] ] } },
{ "type": "Feature", "properties": { "fid": 25, "class": -1.0 }, "geometry": { "type": "MultiPolygon", "coordinates": [ [ [ [ 18.542945903248551, -33.975186087506835 ], [ 18.542315265163026, -33.977294832908285 ], [ 18.542437324147318, -33.978652837259112 ], [ 18.542732300026032, -33.979504741959346 ], [ 18.547940150022622, -33.980601240393838 ], [ 18.549343828342018, -33.97586089172583 ], [ 18.546780589671819, -33.975219827844981 ], [ 18.546475442211086, -33.976181421853646 ], [ 18.542945903248551, -33.975186087506835 ] ] ] ] } },
{ "type": "Feature", "properties": { "fid": 26, "class": -1.0 }, "geometry": { "type": "MultiPolygon", "coordinates": [ [ [ [ 18.50442103633041, -33.983700880616063 ], [ 18.505244934474405, -33.985914840142676 ], [ 18.506679127539872, -33.985560610493906 ], [ 18.505885744141953, -33.983317121767001 ], [ 18.50442103633041, -33.983700880616063 ] ] ] ] } },
{ "type": "Feature", "properties": { "fid": 27, "class": 1.0 }, "geometry": { "type": "MultiPolygon", "coordinates": [ [ [ [ 18.560217249526296, -33.994243028453326 ], [ 18.559729013589113, -33.997515045157883 ], [ 18.560390166420714, -33.997607806681074 ], [ 18.560268107436414, -33.997961986110703 ], [ 18.559800214663287, -33.998037881510648 ], [ 18.560634284389298, -33.999943677102152 ], [ 18.561051319252307, -33.998779966292943 ], [ 18.560969946596114, -33.997649970976326 ], [ 18.561610756263661, -33.995491132165839 ], [ 18.562241394349186, -33.994892381997275 ], [ 18.561661614173786, -33.994453858070131 ], [ 18.561234407728751, -33.99453818977036 ], [ 18.560217249526296, -33.994243028453326 ] ] ] ] } },
{ "type": "Feature", "properties": { "fid": 28, "class": 1.0 }, "geometry": { "type": "MultiPolygon", "coordinates": [ [ [ [ 18.5906760518989, -33.984923836817629 ], [ 18.590014899067302, -33.984164762626001 ], [ 18.587400802486982, -33.983043007242586 ], [ 18.587141427145355, -33.98347315579376 ], [ 18.5906760518989, -33.984923836817629 ] ] ] ] } },
{ "type": "Feature", "properties": { "fid": 29, "class": 1.0 }, "geometry": { "type": "MultiPolygon", "coordinates": [ [ [ [ 18.574971129252933, -33.971592664849865 ], [ 18.574955871879894, -33.971955388112001 ], [ 18.575276276713673, -33.972512123132326 ], [ 18.575856056889069, -33.972773618626164 ], [ 18.575973030082359, -33.973359871730253 ], [ 18.575942515336283, -33.973874421483693 ], [ 18.576145946976773, -33.973967208812759 ], [ 18.577285164163531, -33.973068854507552 ], [ 18.574971129252933, -33.971592664849865 ] ] ] ] } }
]
}
