{"type":"FeatureCollection","name":"kyc_cleaned_settlements","crs":{"type":"name","properties":{"name":"urn:ogc:def:crs:OGC:1.3:CRS84"}},"features":[{"type":"Feature","properties":{"Country":"Uganda","City":"Kampala","Settlement":"Kifumbira","Establishe":"1970","Last_Updat":"23-02-2017","Population":"12000","Structures":"600","url":"https://sdinet.org/settlement/1851/2569423","pop":12000.0,"kyc_year":2017},"geometry":{"type":"Polygon","coordinates":[[[32.58355655785411,0.34215099474747795],[32.5824619315702,0.343138397707532],[32.581677637480176,0.343854970077602],[32.58066200484563,0.344864942066888],[32.57989463796618,0.345587156608067],[32.57986078354503,0.345587156608067],[32.579584305772286,0.34581284864092704],[32.57951095452646,0.34592569465535294],[32.578721018032915,0.346749470519935],[32.57813420806628,0.347240350624342],[32.57911598627969,0.349147447799278],[32.5793642520348,0.34988094660982605],[32.582433719552576,0.34907974021387594],[32.582687627711216,0.34900639032915004],[32.582794833378195,0.34896689423713306],[32.582851257413445,0.348949967340512],[32.582913323852225,0.3489499673405119],[32.58306002634388,0.348910471248252],[32.583161589607336,0.348876617454756],[32.58326879527432,0.34883147906325007],[32.583359073730726,0.348803267568441],[32.58345499459065,0.348780698372535],[32.58362990909993,0.34876377147557],[32.58388945966211,0.348707348485469],[32.58431263992651,0.34855500641051207],[32.5846229721204,0.34849858341916395],[32.584820456243776,0.34842523352990906],[32.585627319947896,0.34813747626651603],[32.58621977231806,0.34652942080969296],[32.58667680700361,0.345451741385776],[32.58690814554815,0.345169626333133],[32.58684043670584,0.34462232310716595],[32.58653574691548,0.34434585033156995],[32.58610128184402,0.344018596831724],[32.58498408594602,0.34316096691685893],[32.58355655785411,0.34215099474747795]]]}},{"type":"Feature","properties":{"Country":"Uganda","City":"Kampala","Settlement":"Kinawataka","Establishe":"1881","Last_Updat":"23-02-2017","Population":"24000","Structures":"7000","url":"https://sdinet.org/settlement/1851/463472","pop":24000.0,"kyc_year":2017},"geometry":{"type":"Polygon","coordinates":[[[32.6222812126853,0.330866509667356],[32.62250780493495,0.33154627505866696],[32.62250780493495,0.33154627505866696],[32.62351717041065,0.33358557095224306],[32.62403215279622,0.3342035393215261],[32.62465013165889,0.334800908708215],[32.625185713339874,0.33523348651723306],[32.625659497134585,0.335563069596991],[32.626256876701845,0.335851454782678],[32.62691605415536,0.336098642077919],[32.62724564288212,0.3362016367824359],[32.628358004834936,0.336366428307372],[32.629223175242686,0.336407626188174],[32.62992355128705,0.3363046314858449],[32.63068572521768,0.336119241018912],[32.63091231746733,0.33605744419582],[32.63142729985289,0.335789657957894],[32.63183928576134,0.33554247065482806],[32.63229247026063,0.33535708017344196],[32.63274565475993,0.33515109074555405],[32.63309584278211,0.33510989285946],[32.63330183573634,0.335130491802526],[32.63342543150887,0.334945101313341],[32.63383741741732,0.33463611715689195],[32.63412580755323,0.33438892982473095],[32.63560895682365,0.332473227789787],[32.63587674766415,0.3319994519603019],[32.63632993216344,0.33129908764904004],[32.63680371595816,0.33070171805032295],[32.63645352793598,0.3305575253831631],[32.63577375118704,0.33018674422945504],[32.63523816950605,0.3300425515548401],[32.63486738218844,0.330063150508478],[32.634558392757114,0.330186744229455],[32.63433180050746,0.33037213480805194],[32.633899215303586,0.33061932224077],[32.633549027281404,0.330825311763349],[32.63330183573634,0.330928306523042],[32.63311644207753,0.33101070233001195],[32.632828051941615,0.331072499184795],[32.63256026110113,0.331093098136308],[32.63229247026063,0.3311342960391959],[32.631942282238455,0.331216691844462],[32.631530296330006,0.33138148345293206],[32.63111831042155,0.331608071910117],[32.630726923808524,0.331834660362111],[32.63029433860465,0.33206124880891397],[32.62988235269621,0.33226723830149407],[32.629387969606064,0.332390831994991],[32.62903778158388,0.332432029892484],[32.6282344090624,0.332390831994991],[32.6278636217448,0.332349634097333],[32.62728684147297,0.33224663935243604],[32.626813057678255,0.33224663935243604],[32.62631867458811,0.332226040403327],[32.626009685156774,0.33222604040332704],[32.62561829854375,0.332040649859411],[32.62528870981699,0.33179346246213703],[32.62510331615818,0.331628670860511],[32.625494702771206,0.331216691844462],[32.62568009643002,0.330825311763349],[32.625556500657474,0.33061932224077],[32.62520631263529,0.33026914004259605],[32.623640766183186,0.330433931666804],[32.62341417393354,0.330124947369164],[32.6222812126853,0.330866509667356]]]}},{"type":"Feature","properties":{"Country":"Uganda","City":"Kampala","Settlement":"Kisenyi 1","Establishe":"1986","Last_Updat":"22-02-2017","Population":"2400","Structures":"700","url":"https://sdinet.org/settlement/1851/472141","pop":2400.0,"kyc_year":2017},"geometry":{"type":"Polygon","coordinates":[[[32.56883054184249,0.313020583622167],[32.56912262280764,0.31297190418767495],[32.569804145059656,0.312947564470347],[32.57077774827682,0.313166621924294],[32.57162965109185,0.313166621924294],[32.57204343245914,0.313166621924294],[32.572846655113295,0.3131909616411269],[32.57369855792832,0.313069263056443],[32.574209699617334,0.31294756447034705],[32.57503726235192,0.31053793217560893],[32.5750129222715,0.31044057328344493],[32.57445310042162,0.310318874666968],[32.57408799921518,0.310343214390378],[32.573649877767465,0.31034321439037804],[32.573284776561025,0.310440573283445],[32.572749294791585,0.310732649957265],[32.57214079278085,0.31024585549642103],[32.57143493044841,0.30963736238888495],[32.57094812883983,0.30922358705579095],[32.57070472803554,0.309101888425358],[32.57048566731167,0.308809811706591],[32.570242266507385,0.30863943361694707],[32.569901505381374,0.3084933952522139],[32.569706784737946,0.30837169661340896],[32.56946338393365,0.30839603634128504],[32.56909828272721,0.3115358607685841],[32.568976582325064,0.31280152616516593],[32.56883054184249,0.313020583622167]]]}},{"type":"Feature","properties":{"Country":"Uganda","City":"Kampala","Settlement":"Kisenyi III","Establishe":"1986","Last_Updat":"22-02-2017","Population":"8000","Structures":"900","url":"https://sdinet.org/settlement/1851/468113","pop":8000.0,"kyc_year":2017},"geometry":{"type":"Polygon","coordinates":[[[32.572384193585144,0.30193383665070095],[32.572189472941716,0.302152894330685],[32.5720190923787,0.3023962917477159],[32.571800031654845,0.302664028900142],[32.57116718956369,0.3030291250064339],[32.57116718956369,0.30312648396603803],[32.57175135149399,0.303661958228181],[32.572432873746,0.303856676135125],[32.57326043648059,0.30383233639694496],[32.574355740099904,0.30400271456302397],[32.57581614492565,0.305438758998684],[32.576327286614664,0.305998572879304],[32.57696012870582,0.306728764853589],[32.577471270394824,0.307142540283575],[32.57793373192299,0.30714254028357496],[32.578274493048994,0.30682612377973306],[32.577885051762124,0.306314989407598],[32.57751995055569,0.30402705430081],[32.57739825015354,0.3033698813612001],[32.57739825015354,0.30254233019530896],[32.57742259023397,0.3015687405075779],[32.57742259023397,0.30088722767434806],[32.57700880886668,0.300984586653125],[32.57613256597123,0.30115496486391],[32.57513462267363,0.30137402255958],[32.574331400019474,0.301617419994041],[32.57355251744574,0.30183647768039806],[32.57291967535458,0.301909496908208],[32.57291967535458,0.301909496908208],[32.572384193585144,0.30193383665070095]]]}},{"type":"Feature","properties":{"Country":"Uganda","City":"Kampala","Settlement":"Kisugu","Establishe":"1920","Last_Updat":"10-03-2017","Population":"23500","Structures":"1616","url":"https://sdinet.org/settlement/1851/2549902","pop":23500.0,"kyc_year":2017},"geometry":{"type":"Polygon","coordinates":[[[32.60531512347941,0.314369018532957],[32.608129166439056,0.31281360036314],[32.6097795966981,0.31174499232655295],[32.61017142546463,0.31211306844031006],[32.61069386382,0.31170937205679106],[32.61058700142913,0.31141253647081607],[32.611275670170315,0.3107713715765711],[32.61182185572366,0.3101658269184899],[32.61198808610946,0.3098927381397841],[32.61147752135308,0.30953653537437587],[32.611133186982485,0.3092990668574431],[32.611501268551045,0.3083966864447151],[32.61030203505347,0.307577419951107],[32.60991020628694,0.3080761039112341],[32.60729801451005,0.306781900252212],[32.607119910525256,0.30699562196817404],[32.607060542530334,0.307316204534122],[32.60704866893135,0.307482432527497],[32.60697742733743,0.30766053394607795],[32.60688243854554,0.307838635361706],[32.60681119695163,0.307945496209656],[32.60679932335264,0.30798111649206406],[32.606751828956696,0.307981116492064],[32.60614627540842,0.307826761934084],[32.6059088034287,0.3078030150788151],[32.605742573042896,0.308847876660665],[32.60581381463682,0.3090022312038239],[32.605968171423626,0.309144712318597],[32.60507765149969,0.3098333710130469],[32.605968171423626,0.310747624727892],[32.60645498898205,0.3113531693526029],[32.60673995535771,0.31173311890332],[32.60589692982971,0.31225554951313894],[32.60533887067738,0.312635499031261],[32.60460270754025,0.31303919537919694],[32.60505390430171,0.3137753475030499],[32.605220134687514,0.31415529696607297],[32.60531512347941,0.314369018532957]]]}},{"type":"Feature","properties":{"Country":"Uganda","City":"Kampala","Settlement":"Kyebando Kisalosalo","Establishe":"1949","Last_Updat":"23-02-2017","Population":"30000","Structures":"1000","url":"https://sdinet.org/settlement/1851/2569409","pop":30000.0,"kyc_year":2017},"geometry":{"type":"Polygon","coordinates":[[[32.58424640473157,0.35170159238643806],[32.58433827445585,0.35173715419030305],[32.584398335522906,0.351760466928318],[32.58441177023527,0.351765603633298],[32.5844823024752,0.351798399518864],[32.58476250513426,0.35192834827513303],[32.585149691569,0.352255615640405],[32.585335011571956,0.352350051980297],[32.58554799127685,0.352357361906155],[32.58559570426268,0.352422953673012],[32.58543755003841,0.35266902157736396],[32.58584790147352,0.353002512231414],[32.58601860134831,0.353154242572427],[32.58609446795933,0.35322062459584],[32.58671246472824,0.35396663206445506],[32.58727830320208,0.354036175130509],[32.58761654184287,0.353953987870575],[32.587972166582006,0.35379751596983894],[32.58819660530627,0.35464151588796305],[32.58915442127036,0.35428747847848197],[32.58914246832774,0.35404921445533294],[32.58911559890301,0.353628795003202],[32.589097422527445,0.353392506618552],[32.5890729239343,0.35316016953882406],[32.589091890587056,0.35301555155768793],[32.58908240726068,0.3528780459342041],[32.589235721037106,0.35274844293089397],[32.589346359844846,0.35262832307255204],[32.5894475153262,0.352413371743234],[32.58952022082843,0.352151004672792],[32.59025675917705,0.352625162023627],[32.59032946467928,0.35239124440023895],[32.59026624250343,0.352034045855869],[32.59014612036932,0.351765356676331],[32.58995961495057,0.35154408322852804],[32.58970988735597,0.351335453972951],[32.58945699865258,0.35113946891044007],[32.58938113204157,0.35106044267439296],[32.589254687689866,0.35098457748715706],[32.58919146551402,0.3509371617448249],[32.588673043672074,0.35050093690407996],[32.588025016369635,0.350235408730198],[32.58662148406581,0.349767573357929],[32.586918628292295,0.34852844171876507],[32.586387562015176,0.348187048279317],[32.58557199594674,0.3482376250859299],[32.58444664121665,0.348597984825288],[32.5845920522211,0.34953997776297807],[32.584541474480424,0.3503112739235161],[32.58448457452216,0.350614734690589],[32.58447193008699,0.35068427778165495],[32.58439606347597,0.35103831532817903],[32.58433916351771,0.351392352861295],[32.584298069103404,0.351544083228528],[32.584298069103404,0.351544083228528],[32.58424640473157,0.35170159238643806]]]}},{"type":"Feature","properties":{"Country":"Uganda","City":"Kampala","Settlement":"Makerere III","Establishe":"1970","Last_Updat":"23-02-2017","Population":"3000","Structures":"200","url":"https://sdinet.org/settlement/1851/2568802","pop":3000.0,"kyc_year":2017},"geometry":{"type":"Polygon","coordinates":[[[32.57215091673332,0.353518859777639],[32.57196077333133,0.352746416878492],[32.5718062818172,0.35233048606008205],[32.571497298788955,0.351534275584492],[32.57087933273245,0.349502156003606],[32.57078426103146,0.348527689147875],[32.57099817235871,0.346650057605241],[32.569560212881086,0.34656687138902104],[32.56824109302972,0.345746892933019],[32.5668506694026,0.34717294237611795],[32.565460245775476,0.347933501991218],[32.56403417026048,0.348325665518812],[32.56339243627873,0.348931736392986],[32.563344900428234,0.34998938939356505],[32.562869541923234,0.350524157719281],[32.56278635418486,0.3527226494036611],[32.565210682560355,0.3529603241493],[32.56828862888022,0.35325741757280504],[32.56878775531047,0.3532693013095589],[32.570855564807204,0.35338813867622004],[32.57215091673332,0.353518859777639]]]}},{"type":"Feature","properties":{"Country":"Uganda","City":"Kampala","Settlement":"Mambo bado-kiseyi luzira","Establishe":"1990","Last_Updat":"23-02-2017","Population":"50000","Structures":"1615","url":"https://sdinet.org/settlement/1851/2542568","pop":50000.0,"kyc_year":2017},"geometry":{"type":"Polygon","coordinates":[[[32.65126098621835,0.30515663971412305],[32.650993629067976,0.30459379052376195],[32.650726271917605,0.304073154996501],[32.6504307719093,0.30351030574958904],[32.65016341475893,0.3029755989379129],[32.65007898618513,0.302820815382226],[32.65003677189822,0.302539390729879],[32.64945984331059,0.302046897570717],[32.64871405757534,0.3012870509385241],[32.64834820042219,0.3008930563676231],[32.64772905754765,0.3013292646416981],[32.64764462897385,0.301399620813299],[32.644436343169396,0.30125890846963893],[32.643690557434155,0.301230766000691],[32.64363427171829,0.302525319497077],[32.64366241457622,0.30270824552216996],[32.643774986007955,0.303003741402345],[32.64384534315279,0.303285166042632],[32.643859414581755,0.3035103057495889],[32.643859414581755,0.30372137422061607],[32.64390162886866,0.303862086532344],[32.64402827172936,0.30397465638040294],[32.64442227174043,0.303763587914338],[32.64459112888803,0.30412943991957603],[32.64478812889357,0.3044390069912559],[32.64491477175427,0.30465007544411493],[32.64506955747291,0.304847072663066],[32.64516805747568,0.304875215122613],[32.645407271768114,0.304790787743731],[32.645576128915714,0.304692289134198],[32.64587162892402,0.304565648063465],[32.64619527179026,0.30442493576091],[32.64632191465096,0.30439679330018],[32.64670184323307,0.304340508378504],[32.64710991467311,0.304340508378504],[32.647306914678644,0.30434050837850407],[32.64734912896555,0.30463600421406206],[32.64734912896555,0.30487521512261295],[32.64744762896832,0.30508628356693607],[32.64756020040005,0.305325494465487],[32.647700914689715,0.305494349214218],[32.64781348612146,0.305747631332314],[32.64796827184009,0.305944628531152],[32.64816527184563,0.3062541955505809],[32.64836227185116,0.306451192740119],[32.64853112899877,0.30671854606296306],[32.6486437004305,0.306831115881125],[32.648939200438804,0.30684518710830305],[32.649164343302274,0.30680297342669305],[32.649389486165745,0.30667633238085695],[32.65007898618513,0.30621198186664195],[32.65135948622111,0.305297352007111],[32.65135948622111,0.305297352007111],[32.65126098621835,0.30515663971412305]]]}},{"type":"Feature","properties":{"Country":"Uganda","City":"Kampala","Settlement":"Mengo","Establishe":"1986","Last_Updat":"29-10-2013","Population":"3000","Structures":"800","url":"https://sdinet.org/settlement/1851/472054","pop":3000.0,"kyc_year":2013},"geometry":{"type":"Polygon","coordinates":[[[32.56944610384826,0.308401702172883],[32.56743296057959,0.307836033731461],[32.56353977442365,0.306804520614032],[32.562657984396886,0.30750328757544204],[32.56472104030857,0.31018189383619],[32.566052044122564,0.311712525681194],[32.56473767785624,0.314640690329096],[32.564854140689974,0.31470723951612795],[32.566667633386544,0.314058384924565],[32.568065187391234,0.313376255695143],[32.56879723948894,0.31312669620985806],[32.568980252513356,0.312710763721186],[32.56909671534708,0.311562789967024],[32.56944610384826,0.308401702172883]]]}},{"type":"Feature","properties":{"Country":"Uganda","City":"Kampala","Settlement":"Banda","Establishe":"1880","Last_Updat":"23-02-2017","Population":"50000","Structures":"2000","url":"https://sdinet.org/settlement/1851/461320","pop":50000.0,"kyc_year":2017},"geometry":{"type":"Polygon","coordinates":[[[32.638523689505945,0.34192379740700396],[32.63732955833422,0.34052498284129595],[32.63555542059338,0.337863822863911],[32.63487305992382,0.33898969832823594],[32.63361069268514,0.3390579332006621],[32.63279185988167,0.33916028550839794],[32.63231420741299,0.339467342425103],[32.632416561513416,0.33991086906535095],[32.63210949921212,0.34014969109396903],[32.63224597134602,0.34083203971459297],[32.63572601076076,0.34216261938568804],[32.63599895502859,0.343083789819148],[32.63555542059338,0.34400496016393495],[32.634497761555565,0.345676713525337],[32.63558953862685,0.34618847469965],[32.63558953862685,0.34618847469965],[32.63586248289468,0.34683670548079193],[32.635760128794246,0.3479625798898469],[32.63599895502859,0.348917867161882],[32.63599895502859,0.348917867161882],[32.63681778783206,0.35120373273999395],[32.63784132883639,0.350555502259542],[32.6388989878742,0.3504190326789969],[32.63941075837637,0.35065785444365494],[32.63958134854376,0.350521384864587],[32.63958134854376,0.350521384864587],[32.6395131124768,0.3492249240331571],[32.63937664034289,0.346597883622282],[32.639137814108544,0.345574361288032],[32.639513112476806,0.345506126461113],[32.64040018134723,0.345472009047889],[32.64077547971549,0.344039077582413],[32.63838721737204,0.343049672397273],[32.638728397706814,0.342094384535246],[32.638523689505945,0.34192379740700396]]]}},{"type":"Feature","properties":{"Country":"Uganda","City":"Kampala","Settlement":"Bukasa","Establishe":"1890","Last_Updat":"02-12-2013","Population":"25000","Structures":"2000","url":"https://sdinet.org/settlement/1851/474681","pop":25000.0,"kyc_year":2013},"geometry":{"type":"Polygon","coordinates":[[[32.61319951533906,0.30940164694064004],[32.61511294048611,0.307551806999332],[32.61511294048611,0.307551806999332],[32.61511294048611,0.307551806999332],[32.61616289545184,0.30652167729583996],[32.617529817954406,0.305630218818591],[32.61873825668855,0.304917051983516],[32.619946695422705,0.30434255644311803],[32.619491054588515,0.3036888201013139],[32.619134466109585,0.30291622255548206],[32.618758067159604,0.302599259443816],[32.618044890201745,0.30273793080631395],[32.61754962842545,0.302896412361276],[32.6169156933518,0.30305489391392193],[32.61594498027027,0.30339166720559707],[32.615073319543995,0.30388692202724593],[32.614082795991415,0.30444160740053694],[32.61287435725726,0.3057490799531691],[32.612180990770455,0.306620728233171],[32.611586993730036,0.30820465526332397],[32.61223578785621,0.3085063154530259],[32.61239871569735,0.30904087331638797],[32.61319951533906,0.30940164694064004]]]}},{"type":"Feature","properties":{"Country":"Uganda","City":"Kampala","Settlement":"Bukesa Kakajjo","Establishe":"1986","Last_Updat":"22-02-2017","Population":"5400","Structures":"250","url":"https://sdinet.org/settlement/1851/472038","pop":5400.0,"kyc_year":2017},"geometry":{"type":"Polygon","coordinates":[[[32.569379553657555,0.322094196615889],[32.56874732684591,0.321678264487853],[32.56874732684591,0.321678264487853],[32.568397938344745,0.321046047620785],[32.56783226172379,0.3199313493652429],[32.56663435829119,0.319864800211823],[32.56688392150632,0.31821770852739895],[32.564005625758554,0.316870087862679],[32.56339003649458,0.32024745783808806],[32.563207023470156,0.320596840875679],[32.56202575758523,0.32285951168711596],[32.56066147867589,0.32467297543000895],[32.563855887829476,0.327135292651665],[32.5651702540958,0.32776750913831304],[32.56553628014464,0.3256545749351],[32.56570265562139,0.324456690780477],[32.56608531921792,0.322909423537579],[32.56744959812726,0.323208894635269],[32.56778234908076,0.32314234550320003],[32.569379553657555,0.322094196615889]]]}},{"type":"Feature","properties":{"Country":"Uganda","City":"Kampala","Settlement":"Bukooza (lugala) Kosovo","Establishe":"1989","Last_Updat":"20-09-2013","Population":"15000","Structures":"2510","url":"https://sdinet.org/settlement/1851/473756","pop":15000.0,"kyc_year":2013},"geometry":{"type":"Polygon","coordinates":[[[32.53903110155784,0.31549706417024487],[32.540362805445056,0.3184600599750524],[32.541161827777614,0.3197584511273135],[32.54202743530425,0.3195919907323627],[32.54275987244239,0.3193256540947687],[32.54322596880303,0.31816043122444176],[32.543558894774776,0.31702850031007307],[32.54216060569314,0.31619619808810745],[32.5416945093325,0.3157634009063486],[32.54096207219453,0.3153638957995213],[32.54022630600025,0.3157186928790452],[32.54002643127586,0.31528087205396105],[32.539930888218976,0.31480706486365767],[32.53929744233517,0.3144650092531265],[32.53913097934935,0.3150642669593823],[32.53903110155784,0.31549706417024487]]]}},{"type":"Feature","properties":{"Country":"Uganda","City":"Kampala","Settlement":"Bukoto I","Establishe":"1986","Last_Updat":"23-02-2017","Population":"48000","Structures":"15795","url":"https://sdinet.org/settlement/1851/461222","pop":48000.0,"kyc_year":2017},"geometry":{"type":"Polygon","coordinates":[[[32.59272623730265,0.34634850688721697],[32.59252585008134,0.3461481233249659],[32.59214329265883,0.346020606510409],[32.5913599607937,0.34662175719256794],[32.59074058210965,0.347004307606788],[32.5890828332788,0.347988008600894],[32.5890828332788,0.347988008600894],[32.587133612126046,0.348079092021083],[32.58693322490473,0.34855272579190794],[32.586748480649135,0.349414057868782],[32.58668525847329,0.349717518664786],[32.58722469722664,0.34990076023994804],[32.58740686742784,0.35001006032184495],[32.58882779499713,0.350556560712237],[32.589501824741546,0.3510848443926409],[32.59006655236524,0.3515220446573069],[32.59047889645389,0.35249329961849396],[32.59023177897469,0.352701405062286],[32.58958626246805,0.352267004690846],[32.589360161900274,0.352742561954402],[32.59208864159847,0.35702347956330993],[32.59267158624229,0.357515329544356],[32.59327274790623,0.35787966284667905],[32.59360065426837,0.35802539616356105],[32.593873909570156,0.35808004615678907],[32.595495224360775,0.358371512781849],[32.59649716046733,0.35846259610027403],[32.596843283849594,0.35802539616356094],[32.59593243284363,0.35549327945415093],[32.59598708390399,0.355220029407951],[32.59545879032053,0.35522002940795105],[32.59514910097851,0.355183596067844],[32.59482119461636,0.355056079376348],[32.594711892495646,0.35494677935366],[32.59445685421397,0.35474639597538493],[32.59431111805302,0.354527795921421],[32.59423824997254,0.35421811250278706],[32.59409251381159,0.353653395653937],[32.593983211690876,0.353216195489305],[32.593837475529924,0.35274256195440207],[32.59372817340921,0.35190459487209397],[32.59372817340921,0.351339877882854],[32.593892126590276,0.35082981089548104],[32.59411073083171,0.35033796055990496],[32.59422003295243,0.350046493682194],[32.594147164871956,0.349645726710562],[32.593946777650636,0.349427126536984],[32.593782824469564,0.349099226267119],[32.5939103436104,0.348643809206652],[32.594056079771356,0.34806087533711194],[32.59318166280563,0.347587241541581],[32.593108794725154,0.34753259148672705],[32.593163445785514,0.347204691150935],[32.593035926644674,0.34689500749001906],[32.59292662452397,0.346712840625925],[32.59272623730265,0.34634850688721697]]]}},{"type":"Feature","properties":{"Country":"Uganda","City":"Kampala","Settlement":"Bunzaali zone","Establishe":"1920","Last_Updat":"17-03-2017","Population":"54000","Structures":"4000","url":"https://sdinet.org/settlement/1851/2542291","pop":54000.0,"kyc_year":2017},"geometry":{"type":"Polygon","coordinates":[[[32.593509914373136,0.265991991292697],[32.594638412824885,0.265484634438717],[32.5948645509343,0.26536665060415693],[32.5957592712802,0.264904547241339],[32.59622137959073,0.26458009167842206],[32.597057107386355,0.26399017245139],[32.597745353806296,0.26335109325719896],[32.598168133749965,0.26290865379585704],[32.598502424868215,0.262554702215502],[32.599800260974376,0.261384695531431],[32.5990011823679,0.2605936278256041],[32.597833956320706,0.261588412423585],[32.59721055150005,0.262052645209008],[32.59640145162642,0.26231792107866],[32.595486240293965,0.262742362458415],[32.594968946932134,0.263219858993409],[32.59288650955248,0.263790202052912],[32.5925018555142,0.26424117096518],[32.593509914373136,0.265991991292697]]]}},{"type":"Feature","properties":{"Country":"Uganda","City":"Kampala","Settlement":"Busega","Establishe":"1980","Last_Updat":"24-03-2017","Population":"36000","Structures":"10000","url":"https://sdinet.org/settlement/1851/2560705","pop":36000.0,"kyc_year":2017},"geometry":{"type":"Polygon","coordinates":[[[32.52856608506513,0.299028006156949],[32.52828244979627,0.299075278057856],[32.527825481863104,0.2991225499585601],[32.52751033156437,0.299264365659425],[32.52683275842209,0.299374666758825],[32.52618670030969,0.299500725156788],[32.5256351872869,0.29961102625382],[32.52569821734665,0.299973444136245],[32.5257612474064,0.300209803618303],[32.525792762436275,0.30066676526915903],[32.52582427746615,0.30084009554551105],[32.52547761213754,0.30084009554551105],[32.52505215923424,0.30090312473622993],[32.52461094881602,0.30095039662902107],[32.524327313547154,0.300981911224113],[32.523901860643875,0.301044940414004],[32.52361822537501,0.30115524149545203],[32.5235709528302,0.301643717699876],[32.523838830584126,0.30159644581007505],[32.523838830584126,0.30159644581007505],[32.52391761815881,0.301801290664357],[32.52401216324843,0.302053407402804],[32.524106708338046,0.3022740095441361],[32.52423276845754,0.30262067004288506],[32.52434307106209,0.3028727867623],[32.52442185863678,0.30296733053056596],[32.52492609911475,0.30280975758299306],[32.525209734383616,0.302699456518326],[32.52558791474209,0.30254188356687206],[32.52577700492134,0.302478854385645],[32.526060640190195,0.302384310613116],[32.52618670030969,0.30243158249948204],[32.526391548003865,0.302620670042885],[32.526580638183106,0.30273097110834096],[32.52686427345196,0.3028727867623],[32.527100636176016,0.302983087825199],[32.52719518126563,0.30303035970895703],[32.52779396683323,0.30304611700348794],[32.52779396683323,0.30304611700348794],[32.52792002695272,0.302951573235908],[32.52803032955728,0.302904301351807],[32.528203662221586,0.3028727867623],[32.52839275240082,0.3029358159412369],[32.528534570035255,0.30307763159249806],[32.52866063015475,0.303203689947626],[32.52875517524436,0.303298233713004],[32.5288969928788,0.30356610771042397],[32.52903881051323,0.30378670982096795],[32.52914911311779,0.30402306922011496],[32.529243658207406,0.304196399442868],[32.52935396081196,0.30443275883305804],[32.52949577844639,0.304637603633691],[32.52959032353601,0.304763661970612],[32.529653353595755,0.30498426405666607],[32.529716383655504,0.3052678953035161],[32.52974789868537,0.305709099450422],[32.529716383655504,0.3057721286127821],[32.529653353595755,0.305929701517074],[32.52968486862563,0.30613454628919606],[32.52976365620031,0.30643393479525993],[32.52982668626006,0.30655999311108795],[32.52995274637955,0.306701808714628],[32.530094564013986,0.306922410760862],[32.53023638164841,0.307016954493557],[32.53045698685753,0.30722179924487797],[32.530157594073735,0.3074739158564971],[32.52985820128993,0.307647246023528],[32.52962183856588,0.30786784805022],[32.52949577844639,0.30797814906186105],[32.52962183856588,0.30818299379473496],[32.52930668826715,0.3084035958103461],[32.529007295483346,0.30854541138939595],[32.52866063015475,0.30873449882518195],[32.52861335760994,0.30886055711383503],[32.52866063015475,0.30900237268679104],[32.528739417729426,0.309254489256262],[32.52878669027424,0.30947509124963396],[32.52884972033399,0.30964842138405796],[32.529023052998284,0.30955387767472003],[32.5293697183269,0.30927024654165797],[32.52963759608082,0.308955100829356],[32.52993698886461,0.308639955107715],[32.5301418365588,0.30848238224338287],[32.53026789667828,0.30830905208992804],[32.53039395679778,0.308246022942516],[32.53053577443221,0.3083878385236651],[32.530630319521826,0.30848238224338287],[32.53072486461145,0.308529654102918],[32.53070910709651,0.308624197821377],[32.53074062212639,0.3087029842527859],[32.530819409701074,0.30887631439981705],[32.530898197275754,0.308923586257609],[32.530882439760816,0.309096916401039],[32.53070910709651,0.309222974685405],[32.53061456200689,0.309317518397694],[32.53044122934259,0.309396304823951],[32.53037819928284,0.309569634959671],[32.530583046977014,0.3098375088002129],[32.53083516721601,0.310089625349824],[32.53152849787322,0.309758722377226],[32.53152849787322,0.309758722377226],[32.53201698083626,0.309427819394298],[32.53201698083626,0.309427819394298],[32.53208001089601,0.309144188257851],[32.53217455598563,0.309065401829725],[32.532316373620056,0.308923586257609],[32.53244243373955,0.30886055711383503],[32.532505463799296,0.3087029842527859],[32.532505463799296,0.3087029842527859],[32.532458191254484,0.308403595810346],[32.532316373620056,0.307978149061861],[32.532316373620056,0.307978149061861],[32.53200122332132,0.3071430128025279],[32.531796375627145,0.307095740936836],[32.53168607302259,0.30676483787116204],[32.53156001290309,0.30633939105741204],[32.53211152592588,0.30618181815912504],[32.53211152592588,0.30618181815912504],[32.532016980836254,0.305693342159771],[32.532016980836254,0.305693342159771],[32.53178061811221,0.30550425467018294],[32.5317333455674,0.305047293223276],[32.5317333455674,0.305047293223276],[32.53137092272385,0.305094565098001],[32.53097698485043,0.305189108846816],[32.53080365218614,0.3052206234295671],[32.53074062212639,0.30496850676496],[32.53053577443221,0.3040073119269959],[32.53053577443221,0.3040073119269959],[32.53029941170816,0.302967330530566],[32.53029941170816,0.302967330530566],[32.530157594073735,0.302242494952784],[32.53007880649905,0.301864319849515],[32.529984261409425,0.30172250418240193],[32.52993698886461,0.301312814467019],[32.529921231349675,0.301249785278667],[32.52977941371525,0.30090312473623],[32.529669111110685,0.300666765269159],[32.529527293476264,0.300383133901906],[32.5293697183269,0.3000522306308329],[32.52910184057297,0.29972132734973406],[32.52883396281905,0.299327394859215],[32.52856608506513,0.299028006156949]]]}},{"type":"Feature","properties":{"Country":"Uganda","City":"Kampala","Settlement":"Bwaise 2","Establishe":"1986","Last_Updat":"23-02-2017","Population":"42000","Structures":"1700","url":"https://sdinet.org/settlement/1851/474222","pop":42000.0,"kyc_year":2017},"geometry":{"type":"Polygon","coordinates":[[[32.555416287135586,0.36063773725044257],[32.557656521236936,0.36097946110032814],[32.558264042349094,0.3612072769930706],[32.55936517436521,0.3617008780743162],[32.55985878526883,0.3620426018842977],[32.56008660568597,0.3625362029202393],[32.561073827493374,0.36299183462188006],[32.56168134860553,0.36056179861549253],[32.5617572887445,0.3602580440689849],[32.56202307923121,0.36029601338788103],[32.56270654048251,0.35604344869534543],[32.56270654048251,0.3539171656120174],[32.562820450691106,0.35270214648829784],[32.5592512641565,0.352436361033881],[32.55731479061126,0.35205666751420495],[32.55678320963807,0.3518668207487395],[32.55477079595363,0.351980728808428],[32.55393545442439,0.3522465142759756],[32.5540873347025,0.35239839168247045],[32.55420124491104,0.3526641771381378],[32.55454297553672,0.3537652882302496],[32.555568167413526,0.3553979699537422],[32.55644147901239,0.3567268967252062],[32.55644147901239,0.3581697312881715],[32.556137718456284,0.35881520983502924],[32.555758017761036,0.35984038155089587],[32.555416287135586,0.36063773725044257]]]}},{"type":"Feature","properties":{"Country":"Uganda","City":"Kampala","Settlement":"Bwaise III","Establishe":"1960","Last_Updat":"23-02-2017","Population":"35000","Structures":"1600","url":"https://sdinet.org/settlement/1851/2569281","pop":35000.0,"kyc_year":2017},"geometry":{"type":"Polygon","coordinates":[[[32.553935454424334,0.3522465142758999],[32.55431515511949,0.352094636866841],[32.55469485581465,0.35194275945530007],[32.55469485581465,0.35194275945530007],[32.55674523956849,0.351904790102034],[32.559137353947975,0.352436361033749],[32.560200515894415,0.35255026908659004],[32.561681348605525,0.352664177138057],[32.56278248062148,0.35270214648823306],[32.56282045069099,0.35137321914004],[32.562896390830026,0.348943180072138],[32.56171931867504,0.348829271975406],[32.5613775880494,0.34875333324347807],[32.55982081519926,0.34822176210283895],[32.559175324017495,0.34776612967271503],[32.558264042349116,0.34674095662458004],[32.5570110300551,0.34533608967467994],[32.55674523956849,0.34636126287485797],[32.556327568803816,0.346778925998711],[32.55583395790012,0.34704471161339306],[32.55503658644029,0.347538313449403],[32.553973424493854,0.348031915259625],[32.5535937237987,0.34803191525962507],[32.553631693868205,0.34848754767689905],[32.55370763400724,0.348943180072138],[32.55378357414627,0.34985444479639805],[32.553973424493854,0.350917586862824],[32.554087334702395,0.351828851395029],[32.553935454424334,0.3522465142758999]]]}},{"type":"Feature","properties":{"Country":"Uganda","City":"Kampala","Settlement":"Bwaise I-Lule zone","Establishe":"1980","Last_Updat":"24-02-2017","Population":"37500","Structures":"2000","url":"https://sdinet.org/settlement/1851/2569379","pop":37500.0,"kyc_year":2017},"geometry":{"type":"Polygon","coordinates":[[[32.56202307923116,0.36037195202500694],[32.562250899648255,0.36037195202500694],[32.56342797180324,0.361397123565941],[32.56342797180324,0.361397123565941],[32.565250535139995,0.361928693949049],[32.565250535139995,0.361928693949049],[32.56578211611321,0.361511031507807],[32.5667313678511,0.361321184937242],[32.567756559728025,0.361283215622651],[32.56927536250865,0.360675706567703],[32.56973100334284,0.360409921343403],[32.56973100334284,0.360409921343403],[32.57128777619298,0.360371952025007],[32.57269266876506,0.3605997679329741],[32.57208514765281,0.358435516577624],[32.57208514765281,0.358435516577624],[32.57197123744427,0.356081418031551],[32.57197123744427,0.356081418031551],[32.571781387096685,0.3546765524835249],[32.571781387096685,0.3546765524835249],[32.571629506818624,0.354296859055523],[32.57155356667959,0.3540310736466741],[32.57107445097457,0.353535154015294],[32.570829817177135,0.35338095848992007],[32.56830234284551,0.35327168672226206],[32.565212565070475,0.352967931935121],[32.56278248062148,0.35274011583825504],[32.56274451055196,0.353423564112111],[32.56274451055196,0.355511877970277],[32.56274451055196,0.355511877970277],[32.56202307923116,0.36037195202500694]]]}},{"type":"Feature","properties":{"Country":"Uganda","City":"Kampala","Settlement":"Kagugube","Establishe":"1950","Last_Updat":"22-02-2017","Population":"15000","Structures":"650","url":"https://sdinet.org/settlement/1851/472201","pop":15000.0,"kyc_year":2017},"geometry":{"type":"Polygon","coordinates":[[[32.572078211464884,0.32245308474455214],[32.57128784788301,0.3230502170088698],[32.57088404073812,0.3231794332405684],[32.5705771473082,0.3233894096131848],[32.5696241624467,0.3237770582900907],[32.56972812327399,0.3245051129697458],[32.56976521657435,0.3247681991959439],[32.56975338073289,0.32477848396973746],[32.569898751305004,0.32571530145128236],[32.56965646701815,0.32579606157480606],[32.56947879187459,0.3257960615748061],[32.5693011167308,0.3257960615748061],[32.569107289301314,0.32576375752540804],[32.56855811158454,0.3255860852520982],[32.56826737044031,0.32552147715188084],[32.567692335199865,0.32410827883035154],[32.56709920662627,0.3245574854266806],[32.567522909508284,0.3255390849391233],[32.56624833471659,0.3259252777713187],[32.56661983728986,0.32653905468202993],[32.56689442614817,0.32691055121495083],[32.567201319578146,0.32731435177879575],[32.5674112992935,0.32763739221798005],[32.5680089338677,0.3277343043477003],[32.568461197869794,0.3278312164765112],[32.56973722844714,0.32804119275249377],[32.57009257873449,0.3280896488154781],[32.57012488330611,0.3276535442397517],[32.57093249759549,0.3273466558231916],[32.571643198170364,0.326959007283449],[32.57196624388604,0.3267651830080354],[32.57203085302933,0.32634523039848773],[32.57207930988653,0.3262483182552955],[32.57262848760348,0.32597373384459166],[32.57288692417609,0.32592527777131863],[32.572870771890166,0.3255053251267555],[32.57275770588973,0.3249561562574285],[32.572612335317615,0.3241324028973623],[32.572337746459255,0.32334095352763365],[32.572078211464884,0.32245308474455214]]]}},{"type":"Feature","properties":{"Country":"Uganda","City":"Kampala","Settlement":"Kalerwe","Establishe":"1970","Last_Updat":"23-02-2017","Population":"9000","Structures":"500","url":"https://sdinet.org/settlement/1851/473825","pop":9000.0,"kyc_year":2017},"geometry":{"type":"Polygon","coordinates":[[[32.570963090466705,0.3478142622375344],[32.57092274473138,0.34786850221911436],[32.570916641892836,0.3479356322065428],[32.570873922022315,0.34847267208954236],[32.57092274473138,0.3490707391955539],[32.57105090434288,0.34949182723732974],[32.5711851667931,0.349839682561992],[32.571478103047696,0.3511639737671999],[32.571600159820605,0.3514874181346953],[32.57164287969107,0.3514508017916569],[32.57216772381423,0.35086494028570314],[32.57240936352798,0.3504986790294992],[32.57344931992884,0.3488632465304135],[32.57326013193091,0.348637445683778],[32.57321130922185,0.3484299530089742],[32.573193000705885,0.34822246032956633],[32.57323164230712,0.3476455997795256],[32.570963090466705,0.3478142622375344]]]}},{"type":"Feature","properties":{"Country":"Uganda","City":"Kampala","Settlement":"Kamwokya II","Establishe":"1800","Last_Updat":"22-02-2017","Population":"6380","Structures":"650","url":"https://sdinet.org/settlement/1851/472181","pop":6380.0,"kyc_year":2017},"geometry":{"type":"Polygon","coordinates":[[[32.58463978033478,0.3394037332648736],[32.584388896663086,0.3402109100127292],[32.58354898176225,0.34215249704789136],[32.58514154767818,0.343275999478692],[32.58623234625071,0.3440940836900949],[32.586646849708245,0.34441040956636476],[32.587120965611746,0.34474379357885704],[32.587083449620366,0.34502516351403756],[32.586914627659326,0.3454378394188211],[32.586445677767415,0.34646952918092205],[32.5856324070358,0.3481517803382985],[32.58849029929587,0.3479881635715856],[32.58907933052518,0.34796634800250104],[32.59005014125478,0.3474209587585051],[32.590759160326854,0.34700646291196335],[32.591348191555994,0.3465810592612115],[32.59214447451393,0.34604657772410974],[32.59297348142917,0.34543574164479196],[32.59343161682949,0.3450976002270067],[32.5898210735545,0.34303602809694667],[32.589493833982715,0.3427524255467916],[32.58913387045368,0.3423052061238536],[32.589253858296786,0.342010695760905],[32.58709407712314,0.340036385316182],[32.58693045733719,0.3401563710452819],[32.58636324207947,0.33997093855418825],[32.58463978033478,0.3394037332648736]]]}},{"type":"Feature","properties":{"Country":"Uganda","City":"Kampala","Settlement":"Kasubi","Establishe":"1800","Last_Updat":"24-03-2017","Population":"50000","Structures":"28200","url":"https://sdinet.org/settlement/1851/474668","pop":50000.0,"kyc_year":2017},"geometry":{"type":"Polygon","coordinates":[[[32.56137792865701,0.33064338560446005],[32.56082587278705,0.33017759620930504],[32.56060160008988,0.32995332723347703],[32.56053259310614,0.3299188243136811],[32.559445733112156,0.32981531555354104],[32.55901443946376,0.329729058252599],[32.55823811089663,0.32959104656955807],[32.55789307597791,0.32952204072730606],[32.557824068994165,0.329556543648489],[32.55777231375635,0.329832567013643],[32.55777231375635,0.330005081612969],[32.557703306772616,0.330143093290285],[32.557599796297,0.33031560788423],[32.55751353756731,0.3304708710162149],[32.5574100270917,0.33064338560445994],[32.55720300614046,0.3310746720619819],[32.55696148169736,0.331574964329187],[32.55675446074612,0.331868239094763],[32.55647843281115,0.332092508027297],[32.556340418843654,0.33216151385164894],[32.556133397892424,0.332023502202436],[32.55601263567087,0.331885490551302],[32.55542607630904,0.33150595850072595],[32.55494302742283,0.331195432266729],[32.554580740758176,0.330988414771982],[32.553476629018256,0.330298356424967],[32.55238976902428,0.32957379510903595],[32.551958475375876,0.32941853196304405],[32.55083711189003,0.329435783423832],[32.55002627983103,0.329522040727306],[32.549715748404175,0.329504789266682],[32.54957773443669,0.32976356117306993],[32.549422468723265,0.330108590371124],[32.54918094428016,0.3305398768518639],[32.549129189042354,0.33066063706312493],[32.549060182058604,0.33078139727290906],[32.5492499512639,0.33095391185575995],[32.54945697221513,0.331091923519883],[32.54956048269076,0.33126443809733996],[32.549594986182626,0.3313851982997709],[32.54961223792856,0.331557712872113],[32.54964674142044,0.33164397015716496],[32.54973300015011,0.33178198181168306],[32.54980200713386,0.33195449637711705],[32.54981925887979,0.332127010939536],[32.54985376237167,0.3322822740431379],[32.549715748404175,0.332489291510813],[32.549594986182626,0.33252379442167795],[32.549594986182626,0.33271356042923805],[32.549629489674494,0.332920577887867],[32.549698496658245,0.333058589524548],[32.549784755387925,0.333162098250783],[32.54981925887979,0.3332483555218149],[32.54985376237167,0.333334612792096],[32.54985376237167,0.333403618607772],[32.54952597919888,0.3336451389588311],[32.549318958247646,0.333834904944801],[32.54916369253422,0.334059173832579],[32.5490084268208,0.33431794561982303],[32.548939419837055,0.3345249630446989],[32.54873239888582,0.334956249332507],[32.54850812618865,0.3354565414025679],[32.54840461571303,0.335767067502156],[32.54801645142946,0.3365433827079891],[32.54817171714289,0.33668139429366706],[32.54868926952098,0.33690566311623],[32.548999800947826,0.337147183380906],[32.54931033237468,0.337336949298952],[32.54970712253121,0.337561218106427],[32.54993139522838,0.33771648112395],[32.55013841617961,0.33776823546257795],[32.55048345109834,0.33795800136849996],[32.55072497554144,0.338078761488529],[32.550880241254866,0.338216773052426],[32.55110451395204,0.338027007151555],[32.5521396187082,0.33728519495803494],[32.55293319902127,0.33688841166852007],[32.552984954259074,0.336370868223137],[32.553537010129034,0.3362673595307681],[32.554106317744925,0.336043090693523],[32.55474463234456,0.335767067502156],[32.555624471387304,0.335318529799588],[32.55576248535479,0.334835489173827],[32.55579698884666,0.334559465948415],[32.55596950630603,0.334559465948415],[32.55640079995443,0.334921746430178],[32.556676827889405,0.335163266743898],[32.556952855824385,0.33537028415079795],[32.557159876775614,0.335422038502122],[32.55766017740776,0.335404787051677],[32.55784994661307,0.33533578125011],[32.55816047803992,0.3353357812500589],[32.55850551295864,0.33531852979958804],[32.55879879263955,0.335318529799588],[32.559316345017635,0.335353032700518],[32.55936810025545,0.335042506587776],[32.559471610731066,0.334680226110491],[32.55957512120668,0.334266191262913],[32.55969588342823,0.33400741947432105],[32.56023068755225,0.33286882352361596],[32.56059297421691,0.3320925080272841],[32.560799995168146,0.331730227441466],[32.56137792865701,0.33064338560446005]]]}},{"type":"Feature","properties":{"Country":"Uganda","City":"Kampala","Settlement":"Kataba - Biyinja","Establishe":"1986","Last_Updat":"17-03-2017","Population":"35000","Structures":"5300","url":"https://sdinet.org/settlement/1851/2550420","pop":35000.0,"kyc_year":2017},"geometry":{"type":"Polygon","coordinates":[[[32.59679806101841,0.303729867331571],[32.59791633469397,0.30401196787184903],[32.59791633469397,0.30401196787184903],[32.59846662286883,0.30418574063736203],[32.59862591681418,0.303693384461154],[32.59888657963384,0.30292588802413095],[32.59877072949177,0.302332164328005],[32.59893002343712,0.30160811099612095],[32.5998278620382,0.3000586367041931],[32.60032022514201,0.299725572108088],[32.60079810697807,0.29924769680031493],[32.60114565740429,0.29879878361344603],[32.60134839515292,0.2984367568364771],[32.60017541246442,0.29801680576027206],[32.59969753062837,0.298132654334624],[32.59687368341531,0.299247696800315],[32.59541107537162,0.29978349638639706],[32.595570369316974,0.300029674565809],[32.59568621945905,0.300246890601874],[32.59599032608199,0.3003772202214369],[32.596830239612025,0.30073924693428594],[32.59739500905464,0.301057830431671],[32.59727915891256,0.30123160324449805],[32.596077213688545,0.30305621761160906],[32.595729663262325,0.30356305488134805],[32.59679806101841,0.303729867331571]]]}},{"type":"Feature","properties":{"Country":"Uganda","City":"Kampala","Settlement":"Katanga","Establishe":"1970","Last_Updat":"23-02-2017","Population":"5000","Structures":"250","url":"https://sdinet.org/settlement/1851/2569505","pop":5000.0,"kyc_year":2017},"geometry":{"type":"Polygon","coordinates":[[[32.576823667845844,0.33347646973116807],[32.5761534123538,0.33247823372819496],[32.57530489742237,0.331879292077949],[32.57483429250242,0.331380174008367],[32.574335166072174,0.33052454297347195],[32.57419968889825,0.3304603706428779],[32.574049950969176,0.330538803491323],[32.5738431700195,0.332164502392122],[32.57328700056865,0.33367611691963095],[32.5727308311178,0.33528042453671614],[32.57357221567165,0.3371913328219481],[32.574035690214025,0.338353564170332],[32.574235340786124,0.338446257462077],[32.57512663798299,0.336763517566718],[32.57603932631258,0.33513068917021893],[32.57670245142706,0.33391141538653396],[32.576730972937355,0.33371889845948405],[32.576730972937355,0.33371889845948405],[32.576823667845844,0.33347646973116807]]]}},{"type":"Feature","properties":{"Country":"Uganda","City":"Kampala","Settlement":"Katwe II","Establishe":"1986","Last_Updat":"23-02-2017","Population":"42000","Structures":"3550","url":"https://sdinet.org/settlement/1851/2553200","pop":42000.0,"kyc_year":2017},"geometry":{"type":"Polygon","coordinates":[[[32.57890733514015,0.305122342444565],[32.57992961851818,0.304440829834864],[32.57992961851818,0.304440829834864],[32.58046510028761,0.3031264839660381],[32.58151172374607,0.3015930802508349],[32.58158474398736,0.3012523238403069],[32.58168210430907,0.3006194904782091],[32.58201582782702,0.300643205004451],[32.58201476331019,0.29999754702224596],[32.581307397171884,0.30013098898524604],[32.58119359610299,0.29996999691586995],[32.581040509585904,0.299765250709914],[32.5805381205289,0.29918344540521596],[32.57971055779431,0.297990797659321],[32.5793697966683,0.2974553231191349],[32.578809974818434,0.29682248953815005],[32.57829883312942,0.296213995676136],[32.577812031520835,0.295581162024187],[32.57735792629984,0.29517228427478404],[32.57702249543417,0.294996079148387],[32.57659494951197,0.29546209210153807],[32.576349773724075,0.295704027234789],[32.57621513243432,0.29583275129313596],[32.57700880886668,0.297211925592285],[32.57720352951011,0.29777173989602],[32.577252209670974,0.298088156663835],[32.577325229912255,0.29874532992176805],[32.577349569992684,0.29906174666156804],[32.57737391007311,0.299524201880258],[32.57737391007311,0.299864958344703],[32.57742259023397,0.30044911225906495],[32.57742259023397,0.30088722767434806],[32.5774469303144,0.301593080250835],[32.57739825015354,0.30251799045417704],[32.57742259023397,0.3033698813612001],[32.57751995055569,0.30400271456302397],[32.57778769144041,0.30414875298893795],[32.57890733514015,0.305122342444565]]]}},{"type":"Feature","properties":{"Country":"Uganda","City":"Kampala","Settlement":"Kawaala","Establishe":"1800","Last_Updat":"24-03-2017","Population":"42000","Structures":"5500","url":"https://sdinet.org/settlement/1851/2552460","pop":42000.0,"kyc_year":2017},"geometry":{"type":"Polygon","coordinates":[[[32.556983490901324,0.3447182084563609],[32.556983490901324,0.3447182084563609],[32.55708889079597,0.3443229659968541],[32.558248289636985,0.34084483164869805],[32.558432739452606,0.338947666928566],[32.55929885861271,0.33538883966423394],[32.55755832169217,0.335479471519664],[32.55689825423156,0.335495664814007],[32.55591648781401,0.33463657425352705],[32.55565157460094,0.335381282111826],[32.55520302920661,0.33557104806399307],[32.55486922890937,0.335807249068336],[32.55410448383112,0.33616232081099306],[32.553096920732855,0.33645997005689904],[32.55296009844962,0.336698060433263],[32.55292559495775,0.33691875424726403],[32.55287289501043,0.339869899825185],[32.55271479516848,0.34163531683858095],[32.553399894483626,0.34708966286831394],[32.553399894483626,0.34708966286831394],[32.556751392687744,0.34637576914139706],[32.55693461374811,0.34563457018538307],[32.55696792666818,0.3448350746174161],[32.556976254898196,0.34480176230063203],[32.556983490901324,0.3447182084563609]]]}},{"type":"Feature","properties":{"Country":"Uganda","City":"Kampala","Settlement":"Kazo Angola","Establishe":"1973","Last_Updat":"22-02-2017","Population":"34698","Structures":"2140","url":"https://sdinet.org/settlement/1851/473877","pop":34698.0,"kyc_year":2017},"geometry":{"type":"Polygon","coordinates":[[[32.55369287068373,0.36935920774021724],[32.55519706318745,0.369196595712026],[32.555725563256374,0.3691762692081966],[32.556071120993636,0.36933888123689934],[32.55655896721112,0.3697860643004561],[32.5570061595771,0.37027390034421614],[32.55741269809158,0.3708430423612867],[32.55800217893761,0.3711072868567271],[32.560360102321795,0.3651922735791117],[32.56094958316777,0.36287505081827476],[32.560156833064525,0.3626717856354276],[32.55979094840137,0.3621432961386403],[32.558347736674875,0.36141154140005943],[32.55552229399893,0.3607001131254037],[32.5550547747074,0.3634848463393609],[32.55440431308415,0.36763145478727205],[32.55411973612394,0.3686071270843172],[32.55369287068373,0.36935920774021724]]]}}]}