{"type":"FeatureCollection","name":"kyc_cleaned_settlements","crs":{"type":"name","properties":{"name":"urn:ogc:def:crs:OGC:1.3:CRS84"}},"features":[{"type":"Feature","properties":{"Id":36,"Country":"Nigeria","City":"Port Harcourt","Settlement":"Amatari Polo","Last_updat":"01.02.2018","kyc_pop":4184,"kyc_area":11.0,"kyc_struct":235,"kyc_year":2018},"geometry":{"type":"Polygon","coordinates":[[[7.026989499737988,4.767232304675528],[7.027018021305289,4.76713993024939],[7.027003760521656,4.766898335537789],[7.0269253262115,4.76666384647171],[7.02678984876681,4.766329877057567],[7.026889674252349,4.766280136918191],[7.02654741544463,4.765299544863704],[7.026561676228296,4.765029526516117],[7.024736295920191,4.764894517302496],[7.024743426311976,4.765981696006297],[7.025121337078879,4.766585683431868],[7.0255848125477565,4.767040450084349],[7.026048288016635,4.767225198950923],[7.026989499737988,4.767232304675528]]]}},{"type":"Feature","properties":{"Id":37,"Country":"Nigeria","City":"Port Harcourt","Settlement":"Amangieka polo (Fisherman Estate)","Last_updat":"02.11.2018","kyc_pop":3234,"kyc_area":0.0,"kyc_struct":676,"kyc_year":2018},"geometry":{"type":"Polygon","coordinates":[[[7.022948944368488,4.774021790974819],[7.0233862750672795,4.773334910711732],[7.022853872477449,4.772955941996368],[7.023257928014407,4.772155369897104],[7.022321469887583,4.771691132393988],[7.022283441131182,4.771804823240097],[7.022197876429245,4.771795349003633],[7.022150340483708,4.771932725419476],[7.02227868753665,4.7720132564090445],[7.0223357306712195,4.772174318359942],[7.022212137212879,4.772420648329303],[7.021893646377861,4.772742772002016],[7.021698749001217,4.77308384396119],[7.0216226914883775,4.773372807571772],[7.021679734623048,4.773609662899531],[7.021836603243224,4.773685456587149],[7.022202630023777,4.773486498139275],[7.022468831318728,4.773514920778199],[7.0226732358844375,4.773562291840492],[7.022882394044784,4.773742301847307],[7.022920422801187,4.773950734427826],[7.022948944368488,4.774021790974819]]]}},{"type":"Feature","properties":{"Id":38,"Country":"Nigeria","City":"Port Harcourt","Settlement":"Belema polo","Last_updat":"03.06.2017","kyc_pop":3260,"kyc_area":0.0,"kyc_struct":156,"kyc_year":2017},"geometry":{"type":"Polygon","coordinates":[[[7.0457784963449095,4.747200096126956],[7.046644838952137,4.746875591851782],[7.04730677699355,4.746543981493125],[7.047734600503207,4.74642554918837],[7.04794257026491,4.745904446805692],[7.047948512258087,4.745815622496637],[7.047805904421544,4.745726798176157],[7.0478356143874885,4.745685346822742],[7.047740542496515,4.745626130599152],[7.047770252462426,4.745578757616655],[7.047657354591726,4.745519541383994],[7.047529007538853,4.745757590552774],[7.047411356073688,4.745700742980734],[7.047348370945877,4.745862995462875],[7.047235473075244,4.745821544117641],[7.047171416976288,4.745790902605981],[7.047136835988282,4.745906815407205],[7.046914605442977,4.74589260356511],[7.0467957655791365,4.74589260356511],[7.045761858764028,4.745910368425869],[7.045744032784435,4.746034722438253],[7.045575280177806,4.746013404569183],[7.045536063022797,4.746343830866582],[7.045633017744501,4.7463524184255155],[7.045568842019408,4.746601966773263],[7.045591496094293,4.746877463940491],[7.045647617659709,4.747050810811449],[7.0457784963449095,4.747200096126956]]]}},{"type":"Feature","properties":{"Id":39,"Country":"Nigeria","City":"Port Harcourt","Settlement":"Kara Kara Polo","Last_updat":"03.11.2018","kyc_pop":6195,"kyc_area":0.0,"kyc_struct":249,"kyc_year":2018},"geometry":{"type":"Polygon","coordinates":[[[7.047935883717228,4.743072876624311],[7.0479644059524205,4.7429686532261535],[7.048185718977685,4.743051883564375],[7.049270725125482,4.742882638060828],[7.048850874920468,4.74172142473754],[7.048295406182381,4.741713435458548],[7.048256480248183,4.741505166170212],[7.048048913854708,4.741091453939679],[7.047808875418132,4.740827230598685],[7.047129017338203,4.740889299009686],[7.046845972256133,4.74091750667788],[7.046803515493881,4.741401738135844],[7.046860124510274,4.7414534521549365],[7.046878994182405,4.741853060354099],[7.047001647051242,4.7427274963128525],[7.0470205167233715,4.7430377797739665],[7.047200415315431,4.7430442980902345],[7.047935883717228,4.743072876624311]]]}},{"type":"Feature","properties":{"Id":40,"Country":"Nigeria","City":"Port Harcourt","Settlement":"Darick Polo","Last_updat":"05.10.2018","kyc_pop":912,"kyc_area":0.0,"kyc_struct":90,"kyc_year":2018},"geometry":{"type":"Polygon","coordinates":[[[7.036912238708331,4.737748225656753],[7.03684834678744,4.738699384464247],[7.036596406276158,4.739376824594473],[7.036133191278314,4.73977131629911],[7.035953694245607,4.739784598152246],[7.036067780514846,4.740793650505545],[7.036853436823606,4.74078690143043],[7.036882813835992,4.740404449702524],[7.037297843649519,4.740389830729735],[7.03729018146285,4.74011493549561],[7.0377080905697005,4.740010357165184],[7.0389627195972135,4.738320759020681],[7.037953557520853,4.738288419586174],[7.037972116074971,4.73791576968586],[7.036912238708331,4.737748225656753]]]}},{"type":"Feature","properties":{"Id":41,"Country":"Nigeria","City":"Port Harcourt","Settlement":"Ibikiri Polo","Last_updat":"05.11.2018","kyc_pop":9548,"kyc_area":0.0,"kyc_struct":471,"kyc_year":2018},"geometry":{"type":"Polygon","coordinates":[[[7.026550693514733,4.7712422943402455],[7.02729225426491,4.77044645741739],[7.0278056424765065,4.769863790513828],[7.028498929280159,4.768889562996311],[7.028190683635295,4.768513706764256],[7.028290509120968,4.768371592530956],[7.028053089864186,4.76815818306105],[7.027720077774567,4.768286323976897],[7.027154551964239,4.768670832630073],[7.026593475865668,4.769224277489637],[7.026283450336055,4.769087787330661],[7.026159987113146,4.769142469895569],[7.026251217057949,4.76955113977645],[7.026297168471952,4.769764483764928],[7.026507911163731,4.769991693047266],[7.026125691773487,4.770277132134792],[7.026322520976186,4.770815953246321],[7.026550693514733,4.7712422943402455]]]}},{"type":"Feature","properties":{"Id":42,"Country":"Nigeria","City":"Port Harcourt","Settlement":"Ibi Polo(Nembe water side)","Last_updat":"06.06.2019","kyc_pop":8468,"kyc_area":0.0,"kyc_struct":542,"kyc_year":2019},"geometry":{"type":"Polygon","coordinates":[[[7.019003915258521,4.758375990229704],[7.022708339149861,4.758591578251478],[7.0226258626726885,4.758151600781769],[7.02238729449639,4.757835852648988],[7.022377510520632,4.757679848441871],[7.0227395176241245,4.75706558153293],[7.022886277260681,4.7567048213468395],[7.022768869551422,4.75643181351283],[7.022181831005171,4.756236807850851],[7.021829607877468,4.756022301558813],[7.021340409088896,4.755749293454215],[7.020724018615312,4.755583538480794],[7.0204109313906615,4.755232527817041],[7.020136980069061,4.754813264845344],[7.019696701159364,4.75532028049971],[7.019667349232033,4.7556517905335065],[7.019745621038206,4.75580779520005],[7.01978475694129,4.756139304999122],[7.019716269110942,4.756529316323145],[7.019657565256281,4.756773073288463],[7.019403181886255,4.757494593400067],[7.019003915258521,4.758375990229704]]]}},{"type":"Feature","properties":{"Id":43,"Country":"Nigeria","City":"Port Harcourt","Settlement":"Akwuzu","Last_updat":"08.05.2016","kyc_pop":1656,"kyc_area":1.851,"kyc_struct":47,"kyc_year":2016},"geometry":{"type":"Polygon","coordinates":[[[6.9913311646921645,4.783857469631484],[6.991834307713707,4.78363316342131],[6.991790172360964,4.783452838767656],[6.991604803879324,4.783184550780423],[6.991388540650751,4.783008624174359],[6.991079593181378,4.782881077356753],[6.991106074393064,4.782793114020336],[6.990611758442016,4.782630381818325],[6.990452064422794,4.782843757748926],[6.990664720865389,4.783057003995548],[6.99074857803563,4.783197745274038],[6.9909824954052935,4.783422051626967],[6.99117669095746,4.783690339521064],[6.991229653380768,4.7836683487140395],[6.9913311646921645,4.783857469631484]]]}},{"type":"Feature","properties":{"Id":44,"Country":"Nigeria","City":"Port Harcourt","Settlement":"Ibitien polo","Last_updat":"08.07.2015","kyc_pop":2740,"kyc_area":7.195,"kyc_struct":158,"kyc_year":2015},"geometry":{"type":"Polygon","coordinates":[[[7.036981079797142,4.7607056976419075],[7.037872378775676,4.760705697641907],[7.038696677261852,4.76072923252687],[7.039056837854817,4.760801160941547],[7.039514974276632,4.760969198817236],[7.039613600867413,4.760753603044727],[7.039524252882622,4.7607056976419075],[7.039714396664735,4.760243821002601],[7.039023694136431,4.759999578351903],[7.038756260467381,4.759961890261779],[7.0384043307852675,4.759820107330283],[7.038430844498789,4.7597609195271],[7.038242928235254,4.759733514422389],[7.038240573372442,4.759677235313266],[7.03800459541314,4.75962798500127],[7.03792667891368,4.759573651289713],[7.037712010896946,4.759545127765698],[7.037128847079805,4.759485391250865],[7.036821604333254,4.75950591806277],[7.036756611237111,4.759735863265354],[7.036831264596881,4.760085213183523],[7.036979316442123,4.7604904492897475],[7.03687750834842,4.760522154566738],[7.036855093680618,4.760642921906068],[7.036981079797142,4.7607056976419075]]]}},{"type":"Feature","properties":{"Id":45,"Country":"Nigeria","City":"Port Harcourt","Settlement":"Deima Polo","Last_updat":"10.07.2015","kyc_pop":3265,"kyc_area":6.751,"kyc_struct":242,"kyc_year":2015},"geometry":{"type":"Polygon","coordinates":[[[7.036855093680618,4.760642921906081],[7.036748920478455,4.760582118913694],[7.0364515494950695,4.760611753424099],[7.0359212379079645,4.76080437771061],[7.035975755921598,4.760952550202001],[7.035866719894366,4.761026636435781],[7.035975755921597,4.761209382444876],[7.036005493019972,4.7617032903345935],[7.035757683867101,4.761876158012243],[7.035638735473768,4.762147807132122],[7.03565856020594,4.7623651263508],[7.035797333331547,4.762557750146319],[7.036040186301366,4.76250342036331],[7.036253302172811,4.762404638928626],[7.036456505678119,4.762379943567766],[7.036704314830957,4.762424395216706],[7.037234626418026,4.762167563427567],[7.037199933136668,4.762044086571708],[7.037353574811427,4.761965061372359],[7.037507216486156,4.761984817673044],[7.037755025639026,4.761797132793555],[7.037611296330367,4.761550178926714],[7.037492347936968,4.761436580118175],[7.037393224275873,4.761352615769418],[7.037447742289472,4.7612884077310165],[7.037373399543635,4.761189626121886],[7.037170196038325,4.76099206286103],[7.0372148016858205,4.760863646711037],[7.037105765658556,4.7607056976419075],[7.036981079797142,4.7607056976419075],[7.036855093680618,4.760642921906081]]]}},{"type":"Feature","properties":{"Id":46,"Country":"Nigeria","City":"Port Harcourt","Settlement":"Ibimina polo","Last_updat":"10.09.2019","kyc_pop":2000,"kyc_area":0.0,"kyc_struct":307,"kyc_year":2019},"geometry":{"type":"Polygon","coordinates":[[[7.026888701390478,4.758815182658523],[7.026952261474636,4.757529359630607],[7.026926837440986,4.756883280158281],[7.026678953112704,4.756762931954217],[7.026075132312997,4.756667920199427],[7.025439531471261,4.756623581375984],[7.025350547353423,4.757041633026207],[7.025223427185041,4.75766237591729],[7.0227395176241245,4.75706558153293],[7.022377510520632,4.757679848441871],[7.02238729449639,4.757835852648988],[7.0226258626726885,4.758151600781769],[7.022708339149861,4.758591578251478],[7.026888701390478,4.758815182658523]]]}},{"type":"Feature","properties":{"Id":47,"Country":"Nigeria","City":"Port Harcourt","Settlement":"Agwu","Last_updat":"13.01.2016","kyc_pop":795,"kyc_area":0.0,"kyc_struct":57,"kyc_year":2016},"geometry":{"type":"Polygon","coordinates":[[[6.9976425394211885,4.7851337633463285],[6.997926163327501,4.785442354929712],[6.998169269532953,4.785185675958861],[6.998212681355315,4.785208748229805],[6.998348705065493,4.785055894420087],[6.998397905130917,4.785084734764142],[6.998455787560765,4.785041474247577],[6.998415269859868,4.784767490912497],[6.998487622897169,4.784643477366866],[6.998495365133037,4.784427450162193],[6.9983342344580395,4.784334885423302],[6.99808244588813,4.784213755837307],[6.997972634023814,4.78416963113172],[6.997961751139384,4.784515822775526],[6.997936389976923,4.7846771803860255],[6.9977988219818155,4.784646361403064],[6.997703315972533,4.784871316189253],[6.997798821981815,4.784923228821695],[6.9976425394211885,4.7851337633463285]]]}},{"type":"Feature","properties":{"Id":48,"Country":"Nigeria","City":"Port Harcourt","Settlement":"Dakoroma polo","Last_updat":"14.08.2019","kyc_pop":5500,"kyc_area":0.0,"kyc_struct":391,"kyc_year":2019},"geometry":{"type":"Polygon","coordinates":[[[7.046303990315939,4.809768881560047],[7.047396627735673,4.810286502735054],[7.0478086057792035,4.809697485504947],[7.0482384959116064,4.8093048070685125],[7.048722122310498,4.809108467765338],[7.049241572887139,4.809197712910174],[7.0499043201745675,4.809465448274428],[7.050049552792351,4.809436317687073],[7.049958056441123,4.808073223230914],[7.049993880618804,4.806234767852387],[7.05001179270771,4.805128122417378],[7.050047616885325,4.8042892125838925],[7.049975968529931,4.803164714804741],[7.049707287197224,4.803057619681381],[7.046303990315939,4.809768881560047]]]}},{"type":"Feature","properties":{"Id":49,"Country":"Nigeria","City":"Port Harcourt","Settlement":"Ibidoki Polo","Last_updat":"14.09.2018","kyc_pop":4860,"kyc_area":0.0,"kyc_struct":1525,"kyc_year":2018},"geometry":{"type":"Polygon","coordinates":[[[7.0249662514353375,4.768985882267921],[7.024921428728719,4.768685971638705],[7.0247165249269825,4.768386060878476],[7.024524427612913,4.768028720227357],[7.024300314079758,4.767786238965284],[7.024313120567391,4.76765861721405],[7.024191458935104,4.767441660182536],[7.0233718437282855,4.766286681891031],[7.022565035009068,4.7661973464726515],[7.02246898635205,4.76645897159364],[7.022232066331293,4.766809931965279],[7.022110404699009,4.767416135821397],[7.022039969017191,4.767881955263151],[7.021982339822938,4.768462633851008],[7.02216803389326,4.76908159839863],[7.022488196083434,4.769011406570766],[7.022725116104121,4.768890166123853],[7.022917213418259,4.769011406570765],[7.023051681538114,4.769024168721815],[7.023211762633232,4.769075217323639],[7.023295004802686,4.769100741623141],[7.023429472922539,4.769241125253472],[7.02377524808788,4.769177314515942],[7.024050587571468,4.769107122697902],[7.024108216765653,4.76911988484713],[7.024242684885539,4.7691326469961925],[7.024537234100512,4.769049693023172],[7.0249662514353375,4.768985882267921]]]}},{"type":"Feature","properties":{"Id":51,"Country":"Nigeria","City":"Port Harcourt","Settlement":"Amagboribipi Polo","Last_updat":"15.11.2015","kyc_pop":9885,"kyc_area":18.0,"kyc_struct":488,"kyc_year":2015},"geometry":{"type":"Polygon","coordinates":[[[7.037095165497045,4.7539087928120995],[7.036950269189279,4.753663316435551],[7.036588028419931,4.753042405210391],[7.036138849865955,4.753215682817877],[7.03556650945037,4.753699415908192],[7.035479571665738,4.754067630420934],[7.035066617188633,4.754428624850246],[7.034711621234696,4.754356425979521],[7.034581214557748,4.754710200373731],[7.03393642598828,4.754854598033454],[7.03348000261886,4.75471020037373],[7.033443778541984,4.755020655304757],[7.033096027403391,4.754998995662913],[7.032907662203275,4.755208372171859],[7.031784715818329,4.755569366003329],[7.032096242879952,4.756370771632889],[7.032559911064746,4.756226374291019],[7.032632359218596,4.756349112033537],[7.0328424588648,4.756240814026535],[7.033465512988144,4.756103636526628],[7.033501737065017,4.756045877571096],[7.033646633372784,4.755980898740408],[7.03393642598828,4.755894260289898],[7.034356625280759,4.7557859622113465],[7.034508766403865,4.755735423102258],[7.034842027911646,4.755583805752665],[7.034921720880936,4.7555260467535465],[7.0349434553270935,4.755562146128541],[7.0358997709581494,4.754789619090352],[7.036363439142946,4.754471944169034],[7.036399663219919,4.754493603827404],[7.0366749662045995,4.754262567436214],[7.036863331404648,4.754175928769552],[7.03682710732774,4.754067630420934],[7.037095165497045,4.7539087928120995]]]}},{"type":"Feature","properties":{"Id":52,"Country":"Nigeria","City":"Port Harcourt","Settlement":"Aberebika polo","Last_updat":"15.11.2018","kyc_pop":2994,"kyc_area":0.0,"kyc_struct":254,"kyc_year":2018},"geometry":{"type":"Polygon","coordinates":[[[7.024970073156089,4.774589870557113],[7.024131951195562,4.774282160225588],[7.024176062877714,4.774187963157717],[7.023829471089498,4.774043527628579],[7.023583706003358,4.773993289176523],[7.023514387645688,4.774049807434836],[7.0234198626126,4.774005848789912],[7.023363147592673,4.774131444910793],[7.0232056058707695,4.774106325688467],[7.0229850474601525,4.7742947198336845],[7.023054365817754,4.7745270725415265],[7.023085874162128,4.774771984769912],[7.02298504746015,4.774979218125698],[7.023010254135637,4.775531840101658],[7.023545895990064,4.775870948821011],[7.023797962745124,4.776241456304146],[7.023987012811435,4.777032708902959],[7.024428129632773,4.7772839000132015],[7.025285156599862,4.77710806624571],[7.025795591778836,4.776825476167722],[7.026375345315448,4.776172378652973],[7.026501378692978,4.775456482585718],[7.026009848520634,4.77560719760938],[7.025518318348291,4.775475321965493],[7.0250645981892434,4.775469042172278],[7.024881849791821,4.775443922998906],[7.025045693182579,4.775048295897034],[7.024970073156089,4.774589870557113]]]}},{"type":"Feature","properties":{"Id":53,"Country":"Nigeria","City":"Port Harcourt","Settlement":"Igonibo-okuma","Last_updat":"17.08.2019","kyc_pop":9610,"kyc_area":0.0,"kyc_struct":457,"kyc_year":2019},"geometry":{"type":"Polygon","coordinates":[[[7.051580386398862,4.812358771329806],[7.052072303267476,4.812525433446696],[7.052879046932059,4.812368574984866],[7.052947915293684,4.811848981071884],[7.053380802138107,4.8113587977714385],[7.054325282525875,4.810466663258883],[7.054089162428934,4.809956871583935],[7.053370963800708,4.809809816222214],[7.0526330884977515,4.8094764906179215],[7.0518853748573616,4.80923139815777],[7.051098307867577,4.809407864737948],[7.051255721265493,4.8100941232263],[7.051344266301886,4.810907828823307],[7.051570548061428,4.811505852798656],[7.051531194711933,4.811799962757737],[7.051580386398862,4.812358771329806]]]}},{"type":"Feature","properties":{"Id":54,"Country":"Nigeria","City":"Port Harcourt","Settlement":"Eli Okahia Chinwealu mgbudukwu rebisi diobu PH","Last_updat":"17.10.2017","kyc_pop":600,"kyc_area":0.0,"kyc_struct":149,"kyc_year":2017},"geometry":{"type":"Polygon","coordinates":[[[6.996153034556344,4.798904857006957],[6.996610568032048,4.798303858668751],[6.996470931192061,4.7982150411354585],[6.996434576002305,4.798046714220605],[6.996520140704243,4.797918816920807],[6.996288402969805,4.79761624497269],[6.9959131674564325,4.797361480310389],[6.995636081148857,4.797818322679032],[6.995454076184637,4.798054577315301],[6.995422169393945,4.798037406034207],[6.995389488431381,4.798084775399065],[6.995410285407628,4.79811142066532],[6.995267015857647,4.798359733634178],[6.99555040741552,4.798544092380814],[6.995891586855995,4.7987657096554965],[6.996153034556344,4.798904857006957]]]}},{"type":"Feature","properties":{"Id":55,"Country":"Nigeria","City":"Port Harcourt","Settlement":"Amaiba polo","Last_updat":"17.10.2018","kyc_pop":1206,"kyc_area":0.0,"kyc_struct":53,"kyc_year":2018},"geometry":{"type":"Polygon","coordinates":[[[7.0457784963449095,4.747200096126956],[7.045647617659709,4.747050810811462],[7.045591496094293,4.746877463940491],[7.045568842019408,4.746601966773263],[7.045633017744501,4.7463524184255155],[7.045536063022797,4.746343830866595],[7.04554282154518,4.746286886575996],[7.0453008696743975,4.746221469774456],[7.045227870098528,4.746425167665327],[7.0450453711588885,4.746614315653087],[7.0450855209256495,4.7467125270877935],[7.044698623173642,4.746690702325721],[7.0446694233432945,4.74704717335294],[7.044786222664618,4.747036260977228],[7.0447898726434115,4.747250871000053],[7.044625623597805,4.747229046254979],[7.044618323640185,4.747338169973225],[7.045069913410684,4.747597638440781],[7.045488725343491,4.747496660616085],[7.045772436652771,4.747267777492195],[7.0457784963449095,4.747200096126956]]]}},{"type":"Feature","properties":{"Id":56,"Country":"Nigeria","City":"Port Harcourt","Settlement":"Egede","Last_updat":"17.11.2017","kyc_pop":1060,"kyc_area":1.757,"kyc_struct":271,"kyc_year":2017},"geometry":{"type":"Polygon","coordinates":[[[6.98939968315211,4.786470989362211],[6.989306653351703,4.78628557860246],[6.988893187572253,4.785899306024955],[6.988717464616017,4.786120768996046],[6.988639939782324,4.786295879201496],[6.988536573337479,4.786625498290246],[6.988495226759513,4.78684181073098],[6.988598593204392,4.7869808686924324],[6.988867345961033,4.78704267222185],[6.989053405561777,4.787032371633999],[6.989094752139707,4.786949966925686],[6.989032732272793,4.786877862797771],[6.9890482372395715,4.786764556295742],[6.9891309303954685,4.786599746804717],[6.9891981185845875,4.786517342044308],[6.98929631670723,4.786532792937634],[6.98939968315211,4.786470989362211]]]}},{"type":"Feature","properties":{"Id":57,"Country":"Nigeria","City":"Port Harcourt","Settlement":"Afikpo","Last_updat":"18.11.2015","kyc_pop":1255,"kyc_area":0.0,"kyc_struct":49,"kyc_year":2015},"geometry":{"type":"Polygon","coordinates":[[[6.990705080338443,4.784134462293666],[6.990921351672804,4.7840000248490355],[6.9913311646921645,4.783857469631484],[6.991229653380768,4.7836683487140395],[6.99117669095746,4.783690339521064],[6.9909824954052935,4.783422051626967],[6.99074857803563,4.783197745274038],[6.990664720865389,4.783057003995548],[6.990452064422794,4.782843757748926],[6.990146008916667,4.783272936012848],[6.99059769728352,4.783916756691346],[6.990705080338443,4.784134462293666]]]}},{"type":"Feature","properties":{"Id":58,"Country":"Nigeria","City":"Port Harcourt","Settlement":"Ibifaka polo","Last_updat":"19.10.2018","kyc_pop":2184,"kyc_area":0.0,"kyc_struct":151,"kyc_year":2018},"geometry":{"type":"Polygon","coordinates":[[[7.049270725125482,4.742882638060828],[7.048776261786825,4.742959767303378],[7.048185718977685,4.743051883564375],[7.0479644059524205,4.7429686532261535],[7.047935883717228,4.743072876624311],[7.0473653632376605,4.743050707570095],[7.0470205167233715,4.7430377797739665],[7.0470028726386715,4.743386028930149],[7.046703883041741,4.743460916374788],[7.0457122338181,4.743460916374788],[7.045721955869286,4.743606247649545],[7.046334896099279,4.743621305338926],[7.04643166560782,4.743698290774339],[7.046285834839638,4.744163350585999],[7.047102832814316,4.744390729194426],[7.0474184538057845,4.744420102222742],[7.047435324424053,4.744352850970883],[7.047841363033497,4.744366814155103],[7.048531531569246,4.744331510572354],[7.048536489695167,4.744236016153229],[7.0488075822475045,4.74423289356923],[7.048833012257173,4.743930820719366],[7.049532999944386,4.74365953577591],[7.049270725125482,4.742882638060828]]]}},{"type":"Feature","properties":{"Id":59,"Country":"Nigeria","City":"Port Harcourt","Settlement":"Iyo polo","Last_updat":"20.06.2018","kyc_pop":18018,"kyc_area":0.0,"kyc_struct":469,"kyc_year":2018},"geometry":{"type":"Polygon","coordinates":[[[7.026550693514733,4.7712422943402455],[7.026322520976186,4.770815953246321],[7.026125691773487,4.770277132134792],[7.026507911163731,4.769991693047266],[7.026297168471952,4.769764483764928],[7.026251217057949,4.76955113977645],[7.026159987113146,4.769142469895569],[7.026026937515636,4.76921791309018],[7.02591759348065,4.7692101298436524],[7.025839490598458,4.769132297374063],[7.025503648205251,4.7690778146401245],[7.0249662514353375,4.768985882267921],[7.024537234100512,4.769049693023172],[7.024242684885539,4.7691326469961925],[7.024050587571468,4.769107122697902],[7.023429472922539,4.769241125253472],[7.023295004802686,4.769100741623141],[7.023211762633232,4.769075217323639],[7.023051681538114,4.769024168721815],[7.022917213418259,4.769011406570765],[7.022725116104121,4.768890166123853],[7.022488196083434,4.769011406570766],[7.02216803389326,4.76908159839863],[7.022551359260088,4.769599292059306],[7.02344173211661,4.770525497245333],[7.024074365461947,4.7711559387160305],[7.024706998807351,4.771537316608639],[7.025324011576323,4.771692980993716],[7.026112850686006,4.771498400506899],[7.026550693514733,4.7712422943402455]]]}},{"type":"Feature","properties":{"Id":60,"Country":"Nigeria","City":"Port Harcourt","Settlement":"Ikobirima polo","Last_updat":"20.08.2019","kyc_pop":11588,"kyc_area":0.0,"kyc_struct":962,"kyc_year":2019},"geometry":{"type":"Polygon","coordinates":[[[7.051041259467515,4.806910283092663],[7.051098307867577,4.809407864737948],[7.0518853748573616,4.80923139815777],[7.0526330884977515,4.8094764906179215],[7.053370963800708,4.809809816222214],[7.054089162428934,4.809956871583935],[7.055292736538981,4.809876049790487],[7.056259074752897,4.809655950285786],[7.057280632293345,4.809655950285786],[7.057087364650549,4.809050676280989],[7.055379984915121,4.807156483709374],[7.054791754721663,4.807046578506529],[7.054362836872252,4.806887826515441],[7.053713332700293,4.8064115703204635],[7.053063828528337,4.805947525502527],[7.052169228442461,4.8053491514552285],[7.052060286022412,4.805318134456745],[7.051385977554476,4.806287023599099],[7.051041259467515,4.806910283092663]]]}},{"type":"Feature","properties":{"Id":61,"Country":"Nigeria","City":"Port Harcourt","Settlement":"Darrick Polo","Last_updat":"21.09.2018","kyc_pop":1650,"kyc_area":0.0,"kyc_struct":315,"kyc_year":2018},"geometry":{"type":"Polygon","coordinates":[[[7.024789140104611,4.768492345271474],[7.024921428728719,4.768685971638705],[7.0249662514353375,4.768985882267934],[7.025503648205251,4.769077814640136],[7.025839490598458,4.7691322973740755],[7.02591759348065,4.769210129843665],[7.026026937515636,4.76921791309018],[7.026159987113146,4.769142469895582],[7.026283450336055,4.769087787330661],[7.026593475865668,4.769224277489637],[7.027154551964239,4.768670832630073],[7.027720077774567,4.768286323976909],[7.028053089864186,4.768158183061065],[7.028157602706975,4.767863853742445],[7.0280959952044775,4.767245524975071],[7.026989499737988,4.767232304675528],[7.026048288016635,4.767225198950923],[7.025904528331293,4.767420937447866],[7.02580771654172,4.7677410650953505],[7.025213644196533,4.76814012811822],[7.024789140104611,4.768492345271474]]]}},{"type":"Feature","properties":{"Id":62,"Country":"Nigeria","City":"Port Harcourt","Settlement":"Akowkwa","Last_updat":"22.08.2016","kyc_pop":852,"kyc_area":1.142,"kyc_struct":89,"kyc_year":2016},"geometry":{"type":"Polygon","coordinates":[[[6.98939665470032,4.786470989362212],[6.989593970904496,4.786161195763311],[6.9897181374294535,4.78616723154675],[6.9897847633696335,4.785880531773834],[6.989288097269869,4.785379561355997],[6.988890159120462,4.785899306024956],[6.989306653351703,4.78628557860246],[6.98939665470032,4.786470989362212]]]}},{"type":"Feature","properties":{"Id":63,"Country":"Nigeria","City":"Port Harcourt","Settlement":"Kuroseidiema Polo","Last_updat":"22.08.2019","kyc_pop":5580,"kyc_area":0.0,"kyc_struct":391,"kyc_year":2019},"geometry":{"type":"Polygon","coordinates":[[[7.051098307867577,4.809407864737948],[7.051070091236058,4.808172540423495],[7.051041259467515,4.806910283092663],[7.051385977554476,4.806287023599099],[7.052060286022412,4.805318134456745],[7.051568743453315,4.805178187345115],[7.051017277646946,4.805129340448693],[7.05001179270771,4.805128122417378],[7.049993880618804,4.806234767852387],[7.049958056441123,4.808073223230914],[7.050049552792351,4.809436317687073],[7.051098307867577,4.809407864737948]]]}},{"type":"Feature","properties":{"Id":64,"Country":"Nigeria","City":"Port Harcourt","Settlement":"Ala Polo","Last_updat":"23.07.2015","kyc_pop":3235,"kyc_area":7.642,"kyc_struct":159,"kyc_year":2015},"geometry":{"type":"Polygon","coordinates":[[[7.035663045631385,4.7623651263508],[7.035643220899181,4.762147807132123],[7.035762169292549,4.761876158012243],[7.036009978445385,4.761703290334594],[7.035980241347042,4.761209382444876],[7.035871205319781,4.761026636435782],[7.035720830397944,4.761032076560473],[7.0354517048725675,4.760969497276708],[7.035146695943785,4.760750469738548],[7.034657768591341,4.760809040951641],[7.034446969577748,4.760696830330781],[7.034061222991454,4.760839868742106],[7.033922117064384,4.760977286753229],[7.033949087355819,4.761237694167205],[7.033823495443972,4.761251104008979],[7.033858444483677,4.761643836721781],[7.033979251870664,4.761980927670082],[7.033988293574415,4.762129231306672],[7.034119533521863,4.762162972636926],[7.034168873201578,4.762261311338244],[7.034464911279502,4.762189792284098],[7.034603959467587,4.762225551812118],[7.035030074882801,4.762216611930292],[7.035451704872568,4.762203202107336],[7.035663045631385,4.7623651263508]]]}},{"type":"Feature","properties":{"Id":65,"Country":"Nigeria","City":"Port Harcourt","Settlement":"Ibiapu-polo","Last_updat":"24.02.2017","kyc_pop":4710,"kyc_area":0.0,"kyc_struct":266,"kyc_year":2017},"geometry":{"type":"Polygon","coordinates":[[[7.030071355174855,4.766617797890426],[7.0300301553737325,4.766218955341827],[7.030118440661864,4.765855304581065],[7.03005958380312,4.765650017776309],[7.029971298514989,4.76552684566406],[7.02961227167681,4.765638287099918],[7.029365072870102,4.765257040007644],[7.0292885589537715,4.765210117273997],[7.02914141680693,4.765268770690548],[7.02901781740366,4.765133867824929],[7.028876560942702,4.765016560963751],[7.028599933706671,4.764781947181293],[7.028523419790306,4.7650400223375735],[7.028635247821875,4.765433000230403],[7.028064336292263,4.765802516551506],[7.027628795537621,4.765925688614314],[7.027481653390845,4.765479922948872],[7.027287425757028,4.765503384306842],[7.027152054981955,4.765057618367466],[7.026561676228296,4.765029526516117],[7.02654741544463,4.765299544863704],[7.026889674252349,4.766280136918191],[7.02678984876681,4.766329877057567],[7.0269253262115,4.766663846471699],[7.027003760521656,4.766898335537789],[7.027018021305289,4.76713993024939],[7.026989499737988,4.767232304675528],[7.0280959952044775,4.767245524975071],[7.028099650407469,4.767069428143839],[7.028405706072854,4.766735104478256],[7.0286470191936115,4.76647702995852],[7.029070788576451,4.766406645981759],[7.0294239297288446,4.766482895289621],[7.029482786587589,4.766652989868858],[7.029947755771517,4.766705777833191],[7.030071355174855,4.766617797890426]]]}},{"type":"Feature","properties":{"Id":66,"Country":"Nigeria","City":"Port Harcourt","Settlement":"Firisika Polo","Last_updat":"24.09.2018","kyc_pop":7260,"kyc_area":0.0,"kyc_struct":411,"kyc_year":2018},"geometry":{"type":"Polygon","coordinates":[[[7.029134283878879,4.769285378573453],[7.029462707070931,4.769171539937655],[7.0298054095322025,4.769095647503307],[7.030866835210763,4.768706698645648],[7.0312142974283836,4.768388898805717],[7.031376129146216,4.768018922687459],[7.030819237646695,4.767222050371287],[7.030514613236693,4.767141414430703],[7.030081475403739,4.767426011825935],[7.0299006046603045,4.767397552091745],[7.029438908288882,4.767075008354764],[7.029238998519813,4.7670086022725044],[7.028758263122859,4.767506647733135],[7.028157602706975,4.767863853742445],[7.028053089864186,4.768158183061065],[7.028290509120968,4.768371592530956],[7.028190683635295,4.768513706764268],[7.028498929280159,4.768889562996324],[7.028610710674241,4.768801564241011],[7.029134283878879,4.769285378573453]]]}},{"type":"Feature","properties":{"Id":67,"Country":"Nigeria","City":"Port Harcourt","Settlement":"Anozie","Last_updat":"26.07.2016","kyc_pop":468,"kyc_area":1.618,"kyc_struct":50,"kyc_year":2016},"geometry":{"type":"Polygon","coordinates":[[[6.985456176846552,4.79100336717634],[6.985655653705391,4.790696785280387],[6.9852932246996335,4.790464053525831],[6.985172262418303,4.790596085875101],[6.985022180628058,4.790505529297637],[6.984902099483114,4.790646808320358],[6.984553628450794,4.790377589144852],[6.984326534969035,4.7906507100468305],[6.98451838980706,4.791126720500789],[6.984671014814493,4.79101993912054],[6.984836977459109,4.791168783587655],[6.985301470778597,4.7908692066897665],[6.985456176846552,4.79100336717634]]]}},{"type":"Feature","properties":{"Id":68,"Country":"Nigeria","City":"Port Harcourt","Settlement":"Ala polo[ALASE AMA]","Last_updat":"26.08.2019","kyc_pop":4806,"kyc_area":0.0,"kyc_struct":332,"kyc_year":2019},"geometry":{"type":"Polygon","coordinates":[[[7.041206801331463,4.760347538710806],[7.041805199641876,4.760406002841124],[7.042075065546552,4.760370924363573],[7.042152082071864,4.7601444358853815],[7.041812324533877,4.760086450701741],[7.041723066540458,4.759914903992405],[7.041511867136742,4.7598330541502],[7.041265467832456,4.759505654684062],[7.040995601927781,4.75866376962738],[7.0407830672275065,4.7583460664240995],[7.041044544255312,4.758245389532039],[7.040539637309546,4.757855840914384],[7.040604786592848,4.757571794908435],[7.040467603418574,4.757260625577869],[7.040333224853912,4.75698932355289],[7.040156885269995,4.757011818153377],[7.039301242366956,4.7561359891562285],[7.039016772811794,4.756443725327865],[7.038593302470136,4.7559973663504165],[7.038446716582659,4.7561759099760685],[7.038621792595502,4.756399075214794],[7.038484675684012,4.756535666698531],[7.039165207095908,4.757307397092286],[7.0390330601326,4.757441945266658],[7.0392447953034125,4.75770164452572],[7.039151992028063,4.757809053068861],[7.03921214029669,4.757973890827091],[7.039458539600975,4.758090819485995],[7.039414064721138,4.758231171238315],[7.039892671708587,4.75850006963563],[7.040099879647081,4.758643053518404],[7.039969581080412,4.758740440582039],[7.040264010932181,4.759074041526721],[7.039927041170115,4.75932102523612],[7.040197603572099,4.759746772766595],[7.04046634436579,4.760087626882515],[7.040800234442883,4.760322978435472],[7.041206801331463,4.760347538710806]]]}},{"type":"Feature","properties":{"Id":69,"Country":"Nigeria","City":"Port Harcourt","Settlement":"Abba","Last_updat":"26.11.2015","kyc_pop":2755,"kyc_area":1.742,"kyc_struct":61,"kyc_year":2015},"geometry":{"type":"Polygon","coordinates":[[[6.990264585658287,4.784604702836447],[6.990414282491762,4.784303708177534],[6.990449816409304,4.7843368731638485],[6.990705080338443,4.784134462293666],[6.99059769728352,4.78391675669132],[6.990146008916667,4.783272936012848],[6.98970162945416,4.7836672985238895],[6.989670035515093,4.783823797235543],[6.98970113032298,4.7840045517213685],[6.98959381712848,4.784254200256562],[6.989955867739894,4.784430975493189],[6.990264585658287,4.784604702836447]]]}},{"type":"Feature","properties":{"Id":70,"Country":"Nigeria","City":"Port Harcourt","Settlement":"Fe-Polo, Abo -Ama","Last_updat":"27.02.2020","kyc_pop":7615,"kyc_area":0.0,"kyc_struct":463,"kyc_year":2020},"geometry":{"type":"Polygon","coordinates":[[[7.035405551206908,4.743219942028076],[7.035570952392019,4.743066096258453],[7.035648139611772,4.742527635794868],[7.035185016293399,4.7424507128372415],[7.034446224333125,4.742132031921452],[7.033123014851983,4.741219944349835],[7.0329465869211925,4.739890272359176],[7.032781185736079,4.739175984696185],[7.03253859733118,4.73880235700919],[7.0319652065560545,4.738406751002743],[7.031193334358745,4.738241915099908],[7.031083066901958,4.738252904161311],[7.030719184294661,4.738022133835031],[7.030245034230611,4.738505652525566],[7.030421462161404,4.738813346061664],[7.03031119470465,4.739197962789185],[7.029837044640567,4.739956206567779],[7.029594456235736,4.739868294288275],[7.029495215524627,4.740296866545314],[7.029440081796267,4.740703460492161],[7.029208520137047,4.7410001640320525],[7.028778477055678,4.741318845470052],[7.028348433974343,4.74163752676103],[7.028094818823831,4.741758405832941],[7.028249193263234,4.742274888901849],[7.02874539681871,4.7428573055163055],[7.0293518678308695,4.742725437646624],[7.029737803929492,4.74319796406305],[7.030245034230611,4.743000162346645],[7.030388381924367,4.743505655509294],[7.030895612225454,4.743571589372744],[7.031215387850102,4.743439721639457],[7.032185741469529,4.743549611418967],[7.0326488647879675,4.743373787763424],[7.0326378380422545,4.742956206402],[7.03331046952852,4.742846316528119],[7.034148502199834,4.7428682945042775],[7.035405551206908,4.743219942028076]]]}},{"type":"Feature","properties":{"Id":71,"Country":"Nigeria","City":"Port Harcourt","Settlement":"Elechi Beach Community Phase 1","Last_updat":"27.07.2015","kyc_pop":6960,"kyc_area":3.409,"kyc_struct":459,"kyc_year":2015},"geometry":{"type":"Polygon","coordinates":[[[6.992578453491759,4.782566717619457],[6.992700887649146,4.781892463240609],[6.992668668134063,4.781430116997085],[6.99252690226758,4.780935663030353],[6.992153155892373,4.780633853290778],[6.991863180256362,4.781160414877636],[6.991592536329479,4.781237472636902],[6.991341224111662,4.781539282110505],[6.9913347802086525,4.781988785335367],[6.991399219238851,4.782053000057666],[6.9914636582690495,4.782001628280315],[6.991708526583857,4.782136479187705],[6.992062941250069,4.782335544764354],[6.992320697370864,4.7824382882651255],[6.992578453491759,4.782566717619457]]]}},{"type":"Feature","properties":{"Id":72,"Country":"Nigeria","City":"Port Harcourt","Settlement":"Echue","Last_updat":"27.07.2016","kyc_pop":866,"kyc_area":9.284,"kyc_struct":96,"kyc_year":2016},"geometry":{"type":"Polygon","coordinates":[[[6.985799266046327,4.7907819650876196],[6.985903946420691,4.7906123924694395],[6.985832095031093,4.790576592278079],[6.985965533326109,4.790397591293294],[6.98587056996463,4.790284581275805],[6.985984656233837,4.790256159332738],[6.986041699368507,4.790369847097766],[6.9861913519791505,4.7904436201224705],[6.986412038390017,4.790126532569972],[6.986227089556018,4.790014572769223],[6.986212828772382,4.789744564156064],[6.986027438584872,4.789640672325249],[6.9860476491999215,4.789466785416906],[6.986398218959928,4.78923296859668],[6.986255611123321,4.789034014664601],[6.98661219583249,4.788520635288058],[6.985016068534915,4.787906915585625],[6.984610621407896,4.788413234379849],[6.984888553397515,4.788639292108028],[6.984754324187125,4.788945124426654],[6.984583284035215,4.789212332099904],[6.984943619026878,4.789616665302121],[6.985390722209291,4.789947531467368],[6.985082787682439,4.790315762256067],[6.9852932246996335,4.790464053525831],[6.985655653705391,4.790696785280387],[6.985799266046327,4.7907819650876196]]]}},{"type":"Feature","properties":{"Id":73,"Country":"Nigeria","City":"Port Harcourt","Settlement":"Elechi Phase 2","Last_updat":"29.03.2019","kyc_pop":3080,"kyc_area":0.0,"kyc_struct":225,"kyc_year":2019},"geometry":{"type":"Polygon","coordinates":[[[6.993860030410166,4.78193497106012],[6.994961337928353,4.781049057676326],[6.995047584902627,4.780612711857217],[6.995074122433185,4.779521846093598],[6.994775575214426,4.779277227471858],[6.994039158741422,4.779098721936046],[6.993634461400404,4.779792909869751],[6.993302742268417,4.780817662200792],[6.993667633313634,4.781042446378082],[6.993322645416368,4.781445735452479],[6.993860030410166,4.78193497106012]]]}},{"type":"Feature","properties":{"Id":74,"Country":"Nigeria","City":"Port Harcourt","Settlement":"Elechi Phase 3","Last_updat":"29.11.2015","kyc_pop":1265,"kyc_area":0.0,"kyc_struct":77,"kyc_year":2015},"geometry":{"type":"Polygon","coordinates":[[[6.997936389976923,4.7846771803860255],[6.997961751139384,4.784515822775526],[6.997972634023814,4.78416963113172],[6.99771788307214,4.784124441747777],[6.997246365790475,4.78380477294332],[6.996913984755907,4.783400372434688],[6.996427007891258,4.7832848293884265],[6.996272412061178,4.783473549687352],[6.996260817373923,4.783673824233406],[6.9963767642464765,4.783789367214049],[6.996573873929814,4.784124441747779],[6.996763253821557,4.784255390371587],[6.996883065589903,4.784085927441911],[6.997080175273174,4.78408592744191],[6.997296609435259,4.784197618923003],[6.997501448910056,4.784340121820684],[6.9975632872420945,4.784451813260276],[6.9977988219818155,4.784646361403064],[6.997936389976923,4.7846771803860255]]]}},{"type":"Feature","properties":{"Id":75,"Country":"Nigeria","City":"Port Harcourt","Settlement":"Fe Polo","Last_updat":"29.07.2015","kyc_pop":10940,"kyc_area":15.473,"kyc_struct":400,"kyc_year":2015},"geometry":{"type":"Polygon","coordinates":[[[7.032096242879952,4.756370771632889],[7.031784715818329,4.755569366003329],[7.031358890710238,4.755615681441879],[7.030772893234187,4.75567557872973],[7.0302917343701825,4.755860840986379],[7.030258928084022,4.7563730363777905],[7.03012770293928,4.756492911839944],[7.029701221218933,4.756482014071478],[7.029455174072613,4.75681439593076],[7.029389561500262,4.757108635475639],[7.029176320640037,4.7572993462244995],[7.028919338064953,4.757228510809667],[7.028563936631392,4.757359283877531],[7.02833976034247,4.757511852425385],[7.027989826623207,4.75760448331293],[7.027700037761931,4.757484608044319],[7.027082186038853,4.757179470902811],[7.02693719392975,4.757146460924671],[7.026952261474636,4.757529359630607],[7.026904906373529,4.758487355435592],[7.027355571757066,4.7584708539516445],[7.027809392049176,4.758508996030253],[7.028099180910451,4.75848720055703],[7.028306954056309,4.758481751688626],[7.028629549203743,4.758427263002175],[7.028995886066039,4.758291041267272],[7.02979964007748,4.757767949554622],[7.029783236934418,4.757675318689099],[7.02996367150838,4.757604483312931],[7.030051154938228,4.75758813668658],[7.030559652373995,4.757266652957013],[7.030986134094344,4.757026902281296],[7.031193907240203,4.756994209000907],[7.031456357529652,4.756792600403977],[7.0314399543865225,4.756749009348163],[7.031759235238115,4.756533303307761],[7.032096242879952,4.756370771632889]]]}}]}